company_id;name;phonenumber;website;email;number;vatnumber;address_street;address_zipcode;address_city;address_country;address_type;distribution_partner_id
"1378";"B.V. Descol Kunststof Chemie";"0570-620744";"www.descol.nl";"management@descol.nl";"42025";;"Duurstedeweg 33007";"7418CK";"DEVENTER";"NL";"office";"86268"
"2968";"Hamat B.V.";"038-3855528";"www.hamat.com";"";"40290";"";"Spoelstraat 16";"8281JT";"GENEMUIDEN";"NL";"office";"86268"
"3395";"Industrie- en Handelsonderneming Bergenco BV";"038-4215369";"www.hillhout.nl";"";"40180";"";"Hoekerweg 1";"8042PH";"ZWOLLE";"NL";"office";"86268"
"4064";"Leferink Office Works BV";"053-5733000";"www.leferink.nl";"";"40212";;"Tolstraat 35";"7482DC";"HAAKSBERGEN";"NL";"office";"86268"
"4687";"Offringa Creil B.V.";"0527-274724";"www.offringacreilbv.nl";"administratie@offringacreilbv.nl";"42146";;"Brabantsestraat 3";"8312AD";"CREIL";"NL";"office";"86268"
"6691";"Tyco Building Services Products B.V.";"053-4284444";"www.tycobuilding.com";"";"40332";;"Kopersteden 1";"7547TJ";"Enschede";"NL";"office";"86268"
"7062";"TransMission Almere B.V.";"036-5460460";"";"info@transmissionalmere.nl";"42084";"";"Wormerweg 6";"1311XB";"ALMERE";"NL";"office";"86268"
"7624";"Zenitel Netherlands B.V.";"036-5462600";"www.zenitel.biz";"info@zenitel.biz";"41091";;"Microfoonstraat 5";"1322BN";"ALMERE";"NL";"office";"86268"
"8114";"Bruins Visscher Licht BV";"050-5977050";"www.bvlicht.nl";"j.laning@bvlicht.nl";"40267";"";"Bremenweg 5";"9723TC";"GRONINGEN";"NL";"office";"86268"
"9166";"Koopmans Meel B.V.";"058-2948494";"www.koopmansmeel.nl";"";"42179";"";"De Merodestraat 3";"8937AA";"LEEUWARDEN";"NL";"office";"86268"
"10384";"Tiktak/Segafredo Zanetti Nederland BV";"050-3127241";"www.tiktak-koffie.nl";"";"41017";;"Argonweg 20";"3812RB";"Amersfoort";"NL";"office";"86268"
"10934";"A. en D. Lieftink Metalen- en Kunststoframenf";"0172-469670";"www.lieftink.nl";"";"41002";;"Produktieweg 15 -17";"2404CC";"ALPHEN AAN DEN RIJN";"NL";"office";"86268"
"11021";"A.J. Jongeneel en Zonen Transport B.V.";"+31 71 532 25 30";"www.jongeneel.com";"";"42232";"";"Voorschoterweg 52 A";"2235SH";"VALKENBURG ZH";"NL";"office";"86268"
"11083";"Zwammerdam Groep BV";"0172-619232";"www.zwammerdamgroep.nl";"";"42058";"";"Dammekant 36";"2411CE";"BODEGRAVEN";"NL";"office";"86268"
"11123";"Aannemersbedrijf N. van Duin & Zn. B.V.";"071-3611400";"www.nvanduin.nl";"info@nvanduin.nl";"42197";;"Keyserswey 33";"2201CW";"NOORDWIJK ZH";"NL";"office";"86268"
"11179";"Aannemingsbedrijf Gebr. Schouls B.V.";"071-5792900";"www.schoulsleiden.nl";"j.vansanten@schoulsleiden.nl";"42121";"";"Kanaalweg 171";"2321JZ";"LEIDEN";"NL";"office";"86268"
"11280";"Abin Accountants en Belastingadv. Beheer B.V.";"071-3619318";"www.abin.nl";"info@abin.nl";"20118";;"Losplaatsweg 14";"2201CV";"NOORDWIJK ZH";"NL";"office";"86268"
"11494";"Hollander van der Mey B.V./MS&L";"070-3549000";"www.hvdm.nl";"info@hvdm.nl";"42136";;"Oosteinde 237";"2271EG";"VOORBURG";"NL";"office";"86268"
"11587";"Agro Techniek Holland B.V.";"0252-410150";"www.agro-techniek.com";"patrick@agro-techniek.com";"42072";"";"Herenweg 424";"2211VJ";"NOORDWIJKERHOUT";"NL";"office";"86268"
"11882";"Allround Transport Bemiddeling BV";"010-2956333";"www.allround-transport.nl";"info@allround-transport.nl";"10004";"";"Kaasmakerstraat 10";"3194DJ";"HOOGVLIET ROTTERDAM";"NL";"office";"86268"
"12207";"APW B.V.";"0252-343150";"www.apw.com";"";"41021";;"Delfweg 14 -B";"2211VM";"NOORDWIJKERHOUT";"NL";"office";"86268"
"12267";"Architektenburo Ruud van der Kroft B.V.";"0252-421389";"www.archkroft.nl";"info@archkroft.nl";"42123";;"Catharijnelaan 14";"2161CK";"LISSE";"NL";"office";"86268"
"12293";"Argos Packaging Systems BV";"0174-630011";"www.argos.nu";"";"40307";;"Stationsweg 19";"2675AM";"HONSELERSDIJK";"NL";"office";"86268"
"12667";"Autoschadebedrijf Fa. Brouwer";"071-3615234";"www.autoschadebrouwer.nl";"algemeen@autoschadebrouwer.nl";"42163";;"Keyserswey 50";"2201CX";"NOORDWIJK ZH";"NL";"office";"86268"
"12868";"B.V. Korthofah";"071 4060460";"www.kortho.eu";"h.lakerveld@kortho.nl";"43179";"";"Lageweg 39";"2222AG";"KATWIJK ZH";"NL";"office";"86268"
"12919";"JÉWÉRET Verkoopmaatschappij B.V.";"0183 660886";"www.jeweret.nl";"";"42971";"";"Schelluinsestraat 41";"4203NK";"GORINCHEM";"NL";"office";"86268"
"13141";"Barthen Services BV";"071-5222688";"www.barthen.nl";"karin.onos@barthen.nl";"40329";"";"Hallenweg 7";"2316JX";"LEIDEN";"NL";"office";"86268"
"13358";"Bergwerff Transport Service BV";"088-3535500";"www.bergwerff.nl";"info@bergwerff.nl";"42447";"";"Nikkelstraat 8 -10";"2984AM";"RIDDERKERK";"NL";"office";"86268"
"13595";"Blomsma Visuele Kommunicatie BV";"079-3301050";"www.blomsma.nl";"";"41037";;"Storkstraat 1 /A";"2722NN";"ZOETERMEER";"NL";"office";"86268"
"13647";"Mosmans B.V.";"071-4028033";"www.mosmans.nl";"m.mosmans@mosmans.nl";"42219";;"Nijverheidstraat 24";"2222AV";"KATWIJK ZH";"NL";"office";"86268"
"13725";"Bondas Veevoederbureau BV  NL";"0252-536136";"www.bonda.nl";"j.heutinck@bonda.nl";"40250";"";"Weeresteinstraat 43";"2182GR";"HILLEGOM";"NL";"office";"86268"
"14133";"Brouwer s Tours B.V.";"071-3619218";"www.brouwers-tours.nl";"arnold@brouwers-tours.nl";"30120";"";"Keyserswey 38 -40";"2201CW";"NOORDWIJK ZH";"NL";"office";"86268"
"14363";"B.V. Huize van Wely, sinds 1922";"071-3612228";"www.huizevanwely.nl";"info@huizevanwely.nl";"42118";"";"Hoofdstraat 88";"2202GA";"NOORDWIJK ZH";"NL";"office";"86268"
"14756";"Cashcontrol Incassodiensten BV";"010-4828000";"";"incasso@cashcontrol.nl";"25500";"";"Lange Nieuwstraat 227";"3111AJ";"Schiedam";"NL";"office";"86268"
"14765";"Catec BV";"0174-272330";"www.catec.nl";"info@catec.nl";"40317";;"Turfschipper 114";"2292JB";"WATERINGEN";"NL";"office";"86268"
"14798";"Cemsy Assemblies BV";"070-3906763";"www.cemsy.nl";"";"41029";;"Verijnsuartlaan 30";"2288EL";"RIJSWIJK ZH";"NL";"office";"86268"
"15074";"Compaxo Fijne Vleeswaren B.V.";"0182-547474";"www.compaxo.nl";"Geen export toegestaan";"42087";"";"Schielands Hoge Zeedijk 35";"2802RC";"GOUDA";"NL";"office";"86268"
"15364";"Cremer Speciaalmachines B.V.";"0252 419038";"www.cremer.com";"";"42353";"";"Heereweg 5";"2161AB";"LISSE";"NL";"office";"86268"
"15377";"Croon Elektrotechniek B.V.";"088-9233344";"www.croon.nl";"rdeunk@croon.nl";"42533";"";"Schiemond 20-22";"3024EE";"ROTTERDAM";"NL";"office";"86268"
"15400";"Cummins Holland BV";"078-6181200";"www.cummins.nl";"dbucashaccountsreceivable@cummins.com";"41094";"";"Olivijn 800";"3316KH";"DORDRECHT";"NL";"office";"86268"
"15539";"Damco Bakkerijgrondstoffen B.V.";"010 4350522";"www.damco.nl";"postbox@damco.nl";"40203";;"Industrieweg 14";"3133EE";"VLAARDINGEN";"NL";"office";"86268"
"15607";"De Blaay-van den Bogaard Raadgevende Ingenieu";"010-2757171";"www.blaay.nl";"blaayri@blaay.nl";"42342";;"Westblaak 35";"3012KD";"ROTTERDAM";"NL";"office";"86268"
"15954";"Duocare Drukwerk & Creatie";"071 4090979";"www.dezuid.com";"";"43024";"008756788";"Scheepmakerstraat 5 G";"2222AB";"KATWIJK ZH";"NL";"office";"86268"
"16127";"Deurwaarderskantoor Mr. M.P. Harten & Partner";"070-3117533";"";"";"40260";;"Sweelinckplein 63";"2517GR";"Den Haag";"NL";"office";"86268"
"16343";"Dorpak BV";"078-6177666";"www.dorpak.nl";"";"40254";;"Bunsenstraat 38";"3316GC";"DORDRECHT";"NL";"office";"86268"
"16437";"Druno en Dekker Drukkers";"0252-375225";"";"";"41097";"";"Ruishornlaan 19";"2162 VW";"Lisse";"NL";"office";"86268"
"16504";"Duijvelaar Pompen B.V.";"0172-488372";"www.dp.nl";"";"42075";"";"Kalkovenweg 13";"2401LJ";"ALPHEN AAN DEN RIJN";"NL";"office";"86268"
"16513";"Duinoord Accountants-Administratieconsulenten";"071-3643770";"";"";"20113";;"Losplaatsweg 14";"0000";"NOORDWIJK ZH";"NL";"office";"86268"
"17617";"Firma Verdoes";"071-4024607";"www.verdoesstucadoors.nl";"";"30137";"";"Lageweg 10";"2222AG";"KATWIJK ZH";"NL";"office";"86268"
"17788";"Wyko Aandrijftechniek BV";"010 2313430";"www.fpt.nl";"postmaster@fpt.nl";"40215";;"Driemanssteeweg 45";"3084CA";"ROTTERDAM";"NL";"office";"86268"
"18040";"Gebr. Bodegraven B.V.";"0172 520110";"www.gb.nl";"info@gb.nl";"42264";;"Atoomweg 2";"2421LZ";"NIEUWKOOP";"NL";"office";"86268"
"18197";"Eimskip Nederland B.V.";"010 751 7777";"";"edg@eimskip.nl";"42578";"";"Waalhaven Z.z. 21";"3089 JH";"Rotterdam";"NL";"office";"86268"
"18267";"Pon Power B.V.";"078 6420420";"www.pon-cat.com";"Pon bedrijf";"43194";"";"Ketelweg 20";"3356LE";"PAPENDRECHT";"NL";"office";"86268"
"18464";"Greenib B.V.";"071-3019292";"www.greenib.nl";"info@greenib.nl";"40185";;"Oosteinde 34";"2361HE";"WARMOND";"NL";"office";"86268"
"18714";"H.W.I. Techniek BV";"0172-424400";"";"";"40119";;"J Keplerweg 30";"2408AC";"ALPHEN AAN DEN RIJN";"NL";"office";"86268"
"18792";"Haluco B.V.";"010-5243600";"www.haluco.nl";"info@haluco.nl";"42555";"";"Klappolder 224";"2665MR";"BLEISWIJK";"NL";"office";"86268"
"18852";"Handelsonderneming Berkelrode B.V.";"010-5114850";"www.berkelrode.nl";"";"40159";;"Veilingweg 54";"2651BE";"BERKEL EN RODENRIJS";"NL";"office";"86268"
"19194";"Hillenaar Outdoor Advertising B.V.";"071-5157343";"www.hillenaar.nl";"marco@hillenaar.nl";"40328";;"Geversstraat 30";"2342AA";"OEGSTGEEST";"NL";"office";"86268"
"19261";"Hogefa BV";"010-4152655";"www.hogefa.nl";"sales@hogefa.nl";"40151";;"Thurledeweg 85";"3044ER";"ROTTERDAM";"NL";"office";"86268"
"19654";"HWS Verhuur B.V.";"071-5320123";"www.hws.nl";"";"42141";"";"De Hooge Krocht 106";"2201EZ";"NOORDWIJK ZH";"NL";"office";"86268"
"20160";"Intros B.V.";"0252-220100";"www.intros.nl";"";"41033";;"Hub van Doorneweg 10";"2171KZ";"SASSENHEIM";"NL";"office";"86268"
"20681";"K. van BourgondiÃn & Zonen B.V.";"0252-431955";"";"info@vanbourgondien.nl";"41026";;"Heereweg 352";"2161CC";"LISSE";"NL";"office";"86268"
"20990";"Kleine-Leiden BV";"071-5312060";"www.kleine.nl";"";"40131";;"Rooseveltstraat 50";"2321BM";"LEIDEN";"NL";"office";"86268"
"21045";"Kobout B.V.";"078 6846611";"www.kobout.nl";"";"42226";"";"Nijverheidsweg 43";"3341LJ";"HENDRIK IDO AMBACHT";"NL";"office";"86268"
"21097";"Koninklijke De Kuyper B.V.";"010 4279700";"www.dekuyper.com";"";"42278";;"Buitenhavenweg 98";"3113BE";"SCHIEDAM";"NL";"office";"86268"
"21749";"Leica Geosystems B.V.";"0880018000";"";"";"40214";;"Turfschipper 36";"2292JC";"Wateringen";"NL";"office";"86268"
"21918";"Lobeco Fire + Security B.V.";"070-3143143";"www.lobeco.nl";"";"43214";"";"Taco Scheltemastraat 5";"2597CP";"'S-GRAVENHAGE";"NL";"office";"202526"
"22325";"Mammoet Nederland B.V.";"010-2042424";"www.mammoet.com";"";"40134";;"Karel Doormanweg 47";"3115JD";"Schiedam";"NL";"office";"86268"
"22609";"Meneba BV";"010-4238911";"www.meneba.com";"info@meneba.com";"41028";"";"Brielselaan 115";"3081AB";"ROTTERDAM";"NL";"office";"86268"
"22947";"Mukano BV";"071-4081003";"www.multicopy.nl";"";"20119";;"Ambachtsweg 4 /B";"2222AK";"KATWIJK ZH";"NL";"office";"86268"
"23046";"NLO";"070-3312500";"www.octrooibureau.nl";"info@octrooibureau.nl";"42177";"";"Anna van Buerenplein 21A";"2595 DA";"'S-GRAVENHAGE";"NL";"office";"86268"
"23358";"Noviflora Holland B.V.";"0174 671414";"www.noviflora.nl";"";"42228";;"Venus 240";"2675LN";"HONSELERSDIJK";"NL";"office";"86268"
"23370";"Nsecure B.V.";"0180 656666";"www.nsecure.nl";"info@nsecure.nl";"40298";;"Lubeck 1";"2993LK";"BARENDRECHT";"NL";"office";"86268"
"24446";"Promega Benelux BV";"071-5324244";"www.promega.com/nl/";"";"40199";"";"Kenauweg 34";"2331BB";"LEIDEN";"NL";"office";"86268"
"24627";"R.M.I. Chemical Logistics B.V.";"010-2831100";"www.rmi.nl";"rmi@rmi.nl";"40315";;"Seattleweg 7";"3195ND";"PERNIS ROTTERDAM";"NL";"office";"86268"
"24677";"RMS Kerst-en Themapakketten BV";"071-4034866";"";"bob@rmskerstpakketten.nl";"40165";"";"Steenbakkerstraat 3";"2222AT";"Katwijk";"NL";"office";"86268"
"24678";"Ravoska Kaasimport BV";"070-3012760";"www.ravoska.com";"";"42044";;"DONAU 86 -88";"2491BC";"DEN HAAG";"NL";"office";"86268"
"24708";"Red Star Electronics B.V.";"071-3319117";"";"";"40235";;"Zuideinde 2 -4";"2371BV";"ROELOFARENDSVEEN";"NL";"office";"86268"
"24801";"Reppel B.V.";"078-6174400";"www.reppel.nl";"reppel@reppel.nl";"40217";"";"Pieter Zeemanweg 107";"3316GZ";"DORDRECHT";"NL";"office";"86268"
"25054";"Romers Transport B.V.";"088-5333333";"www.romerstransport.nl";"bvr@romerstransport.nl";"42041";"";"Donker Duyvisweg 75";"3316BL";"DORDRECHT";"NL";"office";"86268"
"25169";"Rutex B.V.";"0172-418900";"www.rutex.nl";"info@rutex.nl";"42128";;"Bedrijfsweg 21";"2404CB";"ALPHEN AAN DEN RIJN";"NL";"office";"86268"
"25260";"Sandvik Benelux B.V.";"010 2080208";"www.sandvik.com";"";"42812";"";"'s-Gravelandseweg 401";"3125BJ";"SCHIEDAM";"NL";"office";"86268"
"25260";"Sandvik Benelux B.V.";"010 2080208";"www.sandvik.com";"";"42812";"";"'s-Gravelandseweg 401";"3125BJ";"SCHIEDAM";"NL";"office";"86268"
"25261";"Saneco Hygiene BV";"0252-218977";"www.sanecohygiene.nl";"";"41070";;"Wattstraat 36 -38";"2171TR";"SASSENHEIM";"NL";"office";"86268"
"25320";"Misco Solutions B.V.";"+31(0)884358000";"www.miscosolutions.nl";"info@miscosolutions.nl";"42016";"NL816936638B01";"Gondel 1";"1186 MJ";"Amstelveen";"NL";"office";"86268"
"25556";"Schouten Olie B.V.";"0172-423200";"www.schoutenolie.nl";"info@schoutenolie.nl";"42249";"";"Gnephoek 4";"2401LP";"ALPHEN AAN DEN RIJN";"NL";"office";"86268"
"25853";"Sitecom Europe B.V.";"010-2383322";"www.sitecom.com";"info@sitecom.com";"42423";"";"Linatebaan 101";"3045AH";"ROTTERDAM";"NL";"office";"86268"
"27652";"Still Intern Transport B.V.";"078 6845200";"www.still.nl";"";"42889";"";"Nijverheidsweg 5";"3341LJ";"HENDRIK IDO AMBACHT";"NL";"office";"86268"
"28156";"Technisch Bureau Koppe BV";"070-5119322";"www.koppe.nl";"";"40302";"";"Verlengde Hoge Klei 24";"2242NS";"WASSENAAR";"NL";"office";"86268"
"28261";"Telematch BV";"077 0022100";"www.telematch.nl";"fa@telematch.nl";"40120";"";"Curieweg 6 B";"2408BZ";"Alphen aan den Rijn";"NL";"office";"86268"
"28304";"Teuling Staal B.V.";"0180-611000";"www.teulingstaal.nl";"sales@teulingstaal.nl";"41004";;"Zuideinde 19";"2991LJ";"BARENDRECHT";"NL";"office";"86268"
"28980";"Xendo B.V.";"071-5244000";"www.xendo.com";"";"42266";"";"Archimedesweg 17 Bio Sc Park";"2333CM";"LEIDEN";"NL";"office";"86268"
"29017";"v. Speet Metaalbewerking B.V.";"0172-573839";"www.vsmmetaal.nl";"";"40233";;"Transportweg 70";"2421LS";"NIEUWKOOP";"NL";"office";"86268"
"29470";"Vacutech BV";"070-3990390";"www.vacutech.nl";"";"40220";;"Polakweg 4 /A";"2288GE";"RIJSWIJK ZH";"NL";"office";"86268"
"29736";"Van der Spruit & Dobbelmannduin, Makelaars in";"0252-416850";"www.spruit-dobbelmannduin.nl";"";"30125";;"Grachtweg 73 A";"2161HM";"LISSE";"NL";"office";"86268"
"30988";"Wagenbouw B.V.";"0184-411766";"www.wagenbouw.nl";"j.naaktgeboren@wagenbouw.nl";"40314";"";"Rivierdijk 2";"3361AP";"SLIEDRECHT";"NL";"office";"86268"
"31039";"Washtec Benelux BV";"079-3683720";"www.washtech.nl";"";"40271";;"Radonstraat 9";"2718SV";"ZOETERMEER";"NL";"office";"86268"
"31248";"Wim Wiesmeijer Boeketterie B.V.";"071-4086090";"www.wiesmeijer.com";"info@wiesmeijer.com";"42184";;"Laan van Verhof 3 Box G2.02";"2231BZ";"RIJNSBURG";"NL";"office";"86268"
"31454";"Zadkine Contract Activiteiten B.V.";"010 2012850";"www.zadkinecontract.nl";"";"30122";"";"Marten Meesweg 50";"3068AV";"ROTTERDAM";"NL";"office";"86268"
"31523";"Zig-Zag Forms BV";"071-5894500";"www.zigzagforms.nl";"";"41003";;"Energieweg 17";"2382NB";"ZOETERWOUDE";"NL";"office";"86268"
"32772";"Solvinity B.V.";"020 3643600";"www.solvinity.com";"Hylke.Hondema@solvinity.com";"42124";"NL853561886B01";"Hogehilweg 3";"1101 CA";"Amsterdam";"NL";"office";"86268"
"32814";"Atomis BV";"023-5540920";"www.atomis.nl";"";"42091";"";"Jadelaan 33";"2132XX";"HOOFDDORP";"NL";"office";"86268"
"33112";"B.V. Drukkerij Noordholland (720)";"072 5196796";"www.tdg-groep.nl";"";"42240";"";"Marconistraat 1";"1821BX";"ALKMAAR";"NL";"office";"86268"
"33798";"Bos Elektro B.V.";"035-6236000";"www.boselektro.com";"info@boselektro.com";"41092";"";"Oscar Romerolaan 12";"1216TK";"HILVERSUM";"NL";"office";"86268"
"33849";"Bouw- en Aannemingsbedrijf Ooyevaar BV";"072-5118696";"www.ooijevaar.nl";"";"42003";"";"Toermalijnstraat 10";"1812RL";"ALKMAAR";"NL";"office";"86268"
"34573";"Canal Digitaal BV";"035-6555666";"";"";"25752";;"Laapersveld 75";"1213VB";"HILVERSUM";"NL";"office";"86268"
"34592";"EOM Design BV";"020-5858362";"www.capi.nl";"info@capi.nl";"42029";"";"Basisweg 45";"1043AN";"AMSTERDAM";"NL";"office";"86268"
"34705";"Centrale Bond van Meubelfabrikanten";"0235158800";"www.cbm.nl";"";"40218";"";"Westerhoutpark 10";"2012JM";"HAARLEM";"NL";"office";"86268"
"34883";"Cognis Benelux BV";"020-4499888";"";"";"40117";;"Kruisweg 639";"2132NB";"HOOFDDORP";"NL";"office";"86268"
"34991";"Siem Steur Staalconstructies B.V.";"0299-399900";"www.siemsteur.nl";"info@siemsteur.nl";"42024";;"Parallelweg 7";"1131DM";"VOLENDAM";"NL";"office";"86268"
"35123";"Cooperatieve Zuivelonderneming CONO b.a.";"0299-689200";"www.cono.nl";"";"40192";;"Rijperweg 20";"1464MB";"Westbeemster";"NL";"office";"86268"
"35321";"Dantuma B.V.";"023-5430808";"www.dantuma.nl";"";"42185";"";"Henk Schijvenaarstraat 1";"2031VZ";"HAARLEM";"NL";"office";"86268"
"35956";"Nic. Oud Direct Mail B.V.";"072-5671023";"www.nicoud.nl";"fruiter@nicoud.nl";"42105";;"Newtonstraat 46";"1704SB";"HEERHUGOWAARD";"NL";"office";"86268"
"36018";"Dorned BV";"0793435070";"";"";"30139";;"Industrieweg 6";"2712LB";"Zoetermeer";"NL";"office";"86268"
"36300";"edilon)(sedra BV";"023-5319519";"www.edilonsedra.com";"mail@edilon.com";"41024";"";"Nijverheidsweg 23";"2031CN";"HAARLEM";"NL";"office";"86268"
"36373";"Electro-Technisch Bureau De Jong en Zoon Leid";"020-6916311";"";"";"40338";;"Joop Geesinkweg 129";"1096AT";"AMSTERDAM";"NL";"office";"86268"
"36570";"Plymovent Manufacturing BV";"072-5640604";"www.plymovent.com";"";"40242";"";"Wezelkoog 11";"1822BL";"ALKMAAR";"NL";"office";"86268"
"37131";"Frans Beekwilder B.V.";"020 6233222";"";"info@beekwilder.com";"40262";;"Prins Hendrikkade 16 - 19";"1012TL";"AMSTERDAM";"NL";"office";"86268"
"37134";"Kragtwijk Catering";"020-6413828";"www.franskragtwijk.nl";"";"30119";"";"Touwslagerij 7";"1185ZP";"AMSTELVEEN";"NL";"office";"86268"
"37346";"Gebrema Handelsonderneming BV";"0294-415151";"";"";"41014";;"Bloemendalerweg 28";"1382KC";"WEESP";"NL";"office";"86268"
"37403";"Geostick Nederlandse Etikettenindustrie B.V.";"0297 514131";"www.geostick.nl";"";"42636";"";"Amsterdamseweg 26";"1422AD";"UITHOORN";"NL";"office";"86268"
"37403";"Geostick Nederlandse Etikettenindustrie B.V.";"0297 514131";"www.geostick.nl";"";"42636";"";"Geen export toegestaan";"1422AD";"UITHOORN";"NL";"office";"86268"
"37421";"Huurmaat B.V.";"071-5289100";"";"";"42054";;"Hallenweg";"2316JX";"LEIDEN";"NL";"office";"86268"
"37499";"Misco Nederland B.V.";"020-5470606";"www.misco.nl";"sales@misco.nl";"42048";;"Kalkbranderij 2";"1185ZX";"AMSTELVEEN";"NL";"office";"86268"
"38342";"Hotel Okura Amsterdam B.V.";"020-6787111";"www.okura.nl";"";"40132";;"Ferdinand Bolstraat 333";"1072LH";"Amsterdam";"NL";"office";"86268"
"38455";"Hutter Veiligheid B.V.";"020-6533400";"";"";"42078";"";"Kruisweg 763";"2132NG";"HOOFDDORP";"NL";"office";"86268"
"38531";"Iggesund Paperboard Europe BV";"020-6559200";"www.iggesundpaperboard.com";"";"42635";"";"Paalbergweg 40";"1105BV";"AMSTERDAM ZUIDOOST";"NL";"office";"86268"
"38801";"Internationaal Transportbedrijf Moeijes B.V.";"0229-233344";"www.moeijes.net";"theod@moeijes.eu";"42162";"";"De Factorij 19";"1689AK";"ZWAAG";"NL";"office";"86268"
"38955";"Schouten Techniek B.V.";"0229-291500";"www.jpschouten.nl";"info@jpschouten.nl";"40230";;"De Marowijne 47";"1689AR";"ZWAAG";"NL";"office";"86268"
"39899";"KYOCERA Document Solutions Nederland B.V.";"020-5877200";"www.dnl.kyocera.com";"Rene.Visser@dnl.kyocera.com";"40339";"";"Beechavenue 25";"1119RA";"SCHIPHOL-RIJK";"NL";"office";"86268"
"40264";"Lyreco nederland BV";"0032-38209300";"www.lyreco.be";"";"42961";"";"Berchemstadionstraat 72";"2600";"BERCHEM.";"BE";"office";"86268"
"40824";"Mönch office supplies B.V.";"020-6132148";"www.monch.nl";"";"40299";"";"Abberdaan 58";"1046 AA";"AMSTERDAM";"NL";"office";"86268"
"40941";"Murata Electronics (Netherlands) B.V.";"023-5698410";"www.murata.nl";"info@murata.nl /descheppingen@murata.nl";"42040";"";"Wegalaan 2";"2132 JC";"HOOFDDORP";"NL";"office";"86268"
"40988";"N.V. Varitex";"023-5319317";"www.varitex.nl";"";"40211";"";"Zijlweg 103";"2013DE";"HAARLEM";"NL";"office";"86268"
"43086";"SCOPE marketing technology B.V.";"023-5176217";"www.scope.nl";"scope@scope.nl";"42165";"";"Wijkermeerstraat 3";"2131HB";"HOOFDDORP";"NL";"office";"86268"
"43409";"Quaron Wormerveer BV";"075-6474503/00";"www.solvadis.nl";"";"40237";;"Industrieweg 27";"1521NE";"WORMERVEER";"NL";"office";"86268"
"44138";"Kinderrijk Holding BV";"020 4260888";"www.kinderrijk.nl";"";"30116";"";"Bovenkerkerweg 4";"1185XE";"AMSTELVEEN";"NL";"office";"86268"
"45529";"Iv-Industrie BV";"078-6448000";"www.iv-industrie.nl";"accountspayable@iv-groep.nl";"42014";;"Waarderweg 40";"2031BP";"HAARLEM";"NL";"office";"86268"
"45607";"UBA Bouw B.V.";"0297-543400";"";"";"42796";"";"J.A. van Seumerenlaan 4";"1422XS";"UITHOORN";"NL";"office";"86268"
"47179";"World Fashion Centre Amsterdam B.V.";"020 5110111";"www.worldfashioncentre.nl";"";"42385";"";"Koningin Wilhelminaplein 13 01.16.01";"1062HH";"AMSTERDAM";"NL";"office";"86268"
"48087";"B & D Juristen";"030 2393950";"www.bdjuristen.nl";"";"42933";"";"Euclideslaan 71";"3584BM";"UTRECHT";"NL";"office";"86268"
"48387";"Biesheuvel Groep BV";"040 2066500";"www.biesheuvelgroep.nl";"fdeegens@biesheuvelgroep.nl";"40321";;"Ekkersrijt 4002";"5692DA";"Son";"NL";"office";"86268"
"48394";"Bikeurope B.V.";"033-4509040";"www.trekbikes.com";"arie_vanderburch@trekbikes.com";"40166";"";"Basicweg 12";"3821BR";"Amersfoort";"NL";"office";"86268"
"49025";"CA software B.V.";"030-6048345";"www.ca.com";"info@ca.com";"42173";"";"Orteliuslaan 1001";"3528BE";"UTRECHT";"NL";"office";"86268"
"49143";"Cordupack BV";"033-2580111";"www.cordupack.nl";"";"42010";"";"Zwarte Goorderweg 1 /A";"3836PD";"STOUTENBURG NOORD";"NL";"office";"86268"
"49220";"Danielson Europe B.V.";"0523-281200";"www.danielson-group.com";"";"41027";;"Nieuwe Haven 12";"7772BC";"Hardenberg";"NL";"office";"86268"
"49393";"Debuut BV";"0346-578195";"";"addy@debuut-bv.nl";"41000";"";"Computerweg 7";"3542DP";"UTRECHT";"NL";"office";"86268"
"50009";"Frontplan BV";"030-6375078";"www.frontplan.nl";"";"41011";;"Ringveste 5";"3992DD";"HOUTEN";"NL";"office";"86268"
"50358";"Handels- en Constructiebedrijf H. Hardeman B.";"0318 521700";"www.hardeman.nl";"";"43196";"";"Generatorstraat 27 A";"3903LH";"VEENENDAAL";"NL";"office";"202526"
"50488";"Kredietbewaking Bouw";"035 542 7512";"";"";"42552";"";"Gooimeer 4 - 15";"1411DC";"Naarden";"NL";"office";"86268"
"50576";"Hoogendijk BV";"030-2610657";"";"";"41041";;"Mississippidreef 20";"3565CG";"UTRECHT";"NL";"office";"86268"
"51019";"Koninklijke Jongeneel B.V.";"030 - 234 63 47";"www.jongeneel.nl";"info@jongeneel.nl";"42808";"";"Atoomweg 300";"3542AB";"Utrecht";"NL";"office";"86268"
"51203";"Koninklijke Bammens B.V.";"0346-592411";"";"toostveen@bammens.nl";"42007";"";"Straatweg 7";"3604BA";"Maarssen";"NL";"office";"86268"
"51508";"Lomans Amersfoort B.V.";"033-7505400";"www.lomans.nl";"";"42038";;"Astronaut 32";"3824MJ";"Amersfoort";"NL";"office";"86268"
"51868";"N.V. Gemengd Bedrijf Ned. Omroep Zender-Mij.";"030-6862400";"www.nozema.nl";"";"40161";;"Biezendijk 3";"3412KB";"Lopikerkapel";"NL";"office";"86268"
"52186";"Paramount Home Entertainment International B.";"035 6728110";"www.paramount.nl";"";"40244";;"Ampereweg 13";"3442AB";"WOERDEN";"NL";"office";"86268"
"52926";"Sentega Etiketten B.V.";"030-2632402";"www.sentega.com";"amrish.hoelas@sentega.com";"42175";"";"St.-Laurensdreef 40";"3565AK";"UTRECHT";"NL";"office";"86268"
"52968";"Sick B.V.";"030-2292544";"www.sick.nl";"tonny.van.woudenberg@sick.nl";"42159";"";"Leyenseweg 111";"3721BC";"BILTHOVEN";"NL";"office";"86268"
"52980";"Sika Nederland B.V.";"030-2410120";"www.sika.nl";"info@nl.sika.com";"42111";"";"Zonnebaan 56";"3542EG";"UTRECHT";"NL";"office";"86268"
"52995";"SUEZ Nederland Holding B.V. (v/h SITA)";"0264001444";"www.sita.nl";"";"42577";"";"Mr. E.N. van Kleffensstraat 6";"6842CV";"Arnhem";"NL";"office";"86268"
"53125";"Spro N.V.";"0347-320888";"www.spro.nl";"info@spro.nl";"42034";"";"Hagenweg 5 -A";"4131LX";"VIANEN UT";"NL";"office";"86268"
"54527";"Van Halteren Metaal B.V.";"033-2992300";"www.vanhalterenmetaal.nl";"info@vanhalterenmetaal.nl";"42047";;"De Kronkels 27";"3752LM";"BUNSCHOTEN SPAKENBURG";"NL";"office";"86268"
"55265";"Aabo Trading Company B.V.";"024-6782070";"www.aabotrading.nl";"administratie@aabo.nl";"40249";;"De Balmerd 14";"6641LD";"BEUNINGEN GLD";"NL";"office";"86268"
"58703";"Hollander Techniek B.V.";"055-3681111";"www.hollandertechniek.nl";"";"42082";;"Boogschutterstraat 30";"7324AG";"Apeldoorn";"NL";"office";"86268"
"59539";"Gispen Nederland B.V.";"0345-474211";"www.gispen.nl";"jan.kranghand@gispen.nl";"40156";"";"Parallelweg West 23";"4104AZ";"Culemborg";"NL";"office";"86268"
"59839";"Handelsonderneming HAVO BV";"0341-560854";"www.havo.com";"";"42157";;"Lokhorstweg 6";"3851SE";"ERMELO";"NL";"office";"86268"
"60122";"Hoetra Plastics B.V.";"024-3731820";"";"";"40221";;"De Hoge Brug 2";"6581AJ";"Malden";"NL";"office";"86268"
"60669";"Invacare BV";"0318-695757";"";"";"40243";;"Celsiusstraat 46";"6716BZ";"EDE GLD";"NL";"office";"86268"
"60675";"Shop 4 Telecom B.V.";"0243435666";"www.shop4telecom.com";"";"42282";;"Bijsterhuizen 2128";"6604LG";"WIJCHEN";"NL";"office";"86268"
"61191";"Koninklijke BDU Holding B.V.";"0342-494911";"www.bdu.nl";"";"41060";;"Marconistraat 31";"3771AM";"Barneveld";"NL";"office";"86268"
"61583";"Leonhard Kurz Benelux B.V.";"024-3781840";"www.kurz.nl";"";"41059";;"Roggeweg 24";"6534AJ";"NIJMEGEN";"NL";"office";"86268"
"62398";"Conpax Beheer BV";"0487-588111";"www.conpax.nl";"";"40140";"";"Waalbandijk 165";"6651KD";"DRUTEN";"NL";"office";"86268"
"63195";"Recticel B.V.";"31 488 489 999";"";"";"42053";;"Spoorstraat 69";"4041 E";"Kesteren";"NL";"office";"86268"
"63767";"Scotts International BV";"0418-655700";"www.scottsinternational.com";"";"40182";;"Koeweistraat 4";"4181CD";"WAARDENBURG";"NL";"office";"86268"
"63774";"Sealed Air B.V.";"024-3710111";"www.sealedair.com";"info@sealedair.com";"40141";;"Lindenhoutseweg 45";"6545AH";"NIJMEGEN";"NL";"office";"86268"
"65408";"Towi-Elram BV";"06-53766638";"www.towi.nl";"";"30135";"";"Industrieweg 6";"4051BW";"OCHTEN";"NL";"office";"86268"
"66004";"Vaassen Flexible Packaging B.V.";"0578-571541";"www.vfp.nl";"";"40316";"";"Dorpsstraat 88";"8171BT";"Vaassen";"NL";"office";"86268"
"66940";"Western Airconditioning B.V.";"033-2477800";"www.western.nl";"info@western.nl";"41068";;"De Wel 10";"3871MV";"HOEVELAKEN";"NL";"office";"86268"
"67478";"Rasenberg Bouw BV";"076-5783578";"www.rasenberg.nl";"info@rasenberg.nl";"42156";"";"Industriekade 10";"4815 HD";"BREDA";"NL";"office";"86268"
"68076";"Analytico Beheer B.V.";"0765737373";"www.analytico.com";"info@analytico.com";"40304";"";"Bergschot 71";"4817PA";"BREDA";"NL";"office";"86268"
"68081";"AncoferWaldram Steelplates B.V.";"0162-491500";"www.ancoferwaldram.nl";"info@aws.dillinger.biz";"43041";"";"Statendamweg 81";"4905AD";"OOSTERHOUT NB";"NL";"office";"202526"
"68638";"AVA Benelux B.V.";"013-5058100";"";"khorrevorts@ava-cooling.nl";"41025";"NL8000.64.446.B02";"Slibbroek 15";"5081NR";"HILVARENBEEK";"NL";"office";"86268"
"68730";"Holmatro Industrial Equipment B.V.";"0162-751500";"www.holmatro.com";"info@holmatro.com";"42122";;"Lissenveld 30";"4941VL";"RAAMSDONKSVEER";"NL";"office";"86268"
"68793";"SNA Europe [Benelux] B.V.";"0492-582333";"www.bahco.nl";"Kaoru.Inoue@snaeurope.com";"42039";"";"Vossenbeemd 113";"5705CL";"HELMOND";"NL";"office";"86268"
"69256";"Bierens Incasso Advocaten B.V.";"0413-311780";"www.bierens-advocaten.com";"";"42036";;"Zuidkade 6";"5462CD";"VEGHEL";"NL";"office";"86268"
"69469";"Bosal Tobo B.V.";"0162-687000";"www.bosal.nl";"";"42019";"";"Tweede Industrieweg 3 -4-5-6";"4921XH";"MADE";"NL";"office";"86268"
"70233";"Cable Partners BV";"0165-523000";"";"";"40283";;"Venneveld 34";"4705RR";"ROOSENDAAL";"NL";"office";"86268"
"70630";"Collactive B.V.";"040-2919666";"www.collactive.nl";"algemeen@collactive.nl";"25125";"";"Henri Wijnmalenweg 5";"5657EP";"EINDHOVEN";"NL";"office";"86268"
"70658";"Combitex Geertruidenberg B.V.";"0162-488144";"www.combitex.nl";"";"40268";;"Centraleweg 9";"4931AA";"Geertruidenberg";"NL";"office";"86268"
"70946";"Copaco Nederland B.V.";"040-2306316";"www.copaco.nl";"info@copaco.nl";"42071";;"Wekkerstraat 25";"5652AN";"EINDHOVEN";"NL";"office";"86268"
"71366";"De Lage Landen Trade Finance B.V.";"040-2339911";"www.delagelanden.com";"info@delagelanden.com";"42101";;"Vestdijk 51";"5611CA";"EINDHOVEN";"NL";"office";"86268"
"71627";"LCC Network Services B.V.";"073-7501401";"www.lcc.com";"info@lcc.nl";"42171";"";"Amerikastraat 7- 11";"5232BE";"'s-Hertogenbosch";"NL";"office";"86268"
"71628";"Deuk- en Laktechniek B.V.";"0162-424554";"www.dlt.nl";"";"40288";;"Koopvaardijweg 16";"4906CV";"OOSTERHOUT NB";"NL";"office";"86268"
"72102";"Eindhoven Packaging B.V.";"040-2593311";"";"";"40198";;"Cederlaan 2";"5616SC";"Eindhoven";"NL";"office";"86268"
"73196";"Georgia-Pacific Nederland B.V.";"0485-339339";"www.gp.com";"";"40279";"";"Lange Linden 22";"5433NC";"Katwijk nb";"NL";"office";"86268"
"73392";"Grassair Compressoren B.V.";"0412 664100";"www.grassair.nl";"";"42963";"";"Galliersweg 27";"5349AT";"OSS";"NL";"office";"86268"
"74400";"IJspaleis Sprundel B.V.";"0165-353535";"www.ijspaleis.nl";"sprundel@ijspaleis.nl";"41087";;"Rucphensebaan 48";"4714RE";"SPRUNDEL";"NL";"office";"86268"
"75782";"Lan Handling Systems International B.V.";"013-5322525";"www.lan-hs.com";"";"41074";;"Jules Verneweg 123";"5015BK";"TILBURG";"NL";"office";"86268"
"77702";"Perfekta Autoschade Tilburg B.V.";"013-5930593";"www.perfekta.nl";"";"41020";;"Kraaivenstraat 24";"5048AB";"TILBURG";"NL";"office";"86268"
"77954";"Polynorm Van Niftrik B.V.";"0164-608800";"www.polynorm.nl";"";"40248";;"Bosweg 2";"4645RB";"PUTTE";"NL";"office";"86268"
"77980";"Possehl Aannemingsmaatschappij B.V.";"0162-456544";"";"";"42110";;"Zeilmakerijweg 9";"4906CW";"OOSTERHOUT NB";"NL";"office";"86268"
"78292";"Rasenberg Bouw BV";"076-5783578";"";"";"40337";"";"Industriekade 10";"4815DC";"BREDA";"NL";"office";"86268"
"78294";"Rasenberg Holding BV";"076-5789789";"www.rasenberg.nl";"M.vanGemerden@rasenberg.nl";"40322";"";"Industriekade 10";"4815HD";"BREDA";"NL";"office";"86268"
"78296";"Rasenberg Wegenbouw B.V.";"0765781200";"";"";"42046";"";"Postbus 2238";"4800CE";"BREDA";"NL";"office";"86268"
"78300";"Raton B.V.";"076-5780980";"www.raton.nl";"";"41064";"";"Takkebijsters 53";"4817BL";"BREDA";"NL";"office";"86268"
"78658";"Rotom Nederland B.V.";"0499 491010";"www.rotom.nl";"";"43185";"";"Ekkersrijt 1428";"5692AK";"SON";"NL";"office";"198288"
"78664";"Rovero Systems B.V.";"0162-574574";"www.rovero.nl";"info@rovero.nl";"40187";;"Krabbescheer 6";"4941VW";"RAAMSDONKSVEER";"NL";"office";"86268"
"81045";"Thermobile Industries BV";"076-5873450";"www.thermobile.nl";"";"40169";;"Konijnenberg 80";"4825BD";"BREDA";"NL";"office";"86268"
"81335";"Tsubakimoto Europe B.V.";"078-6204000";"www.tsubaki.nl";"info@tsubaki.nl";"43037";"";"Aventurijn 1200";"3316LB";"DORDRECHT";"NL";"office";"202526"
"82113";"Van den Berge Handelsonderneming BV";"0113-383310";"www.vanden-berge.nl";"";"40144";;"Capelleweg 13";"4416PN";"KRUININGEN";"NL";"office";"86268"
"82123";"Van den Bosch Transporten BV";"0413-217217";"www.vandenbosch.com";"";"42531";"";"Hoogven 10";"5469EM";"ERP";"NL";"office";"86268"
"82568";"Van Rijsoort B.V.";"0162 370370";"www.kunstflora.com";"";"42725";"";"Metaalstraat 1";"5107ND";"DONGEN";"NL";"office";"202526"
"82568";"Van Rijsoort B.V.";"0162 370370";"www.kunstflora.com";"";"42725";"";"Metaalstraat 1 a";"5107ND";"DONGEN";"NL";"office";"202526"
"83205";"Vos Management & Logistical Development b.v";"0412-699499";"www.voslogistics.com";"info@voslogistics.com";"42724";"";"Vorstengrafdonk 39";"5347KS";"OSS";"NL";"office";"86268"
"83288";"W. Swaans Transport BV";"013-4670272";"www.wst.nl";"info@wst.nl";"42150";"";"Pallasstraat 8";"5048CJ";"TILBURG";"NL";"office";"86268"
"83831";"edilon)(sedra contracting BV";"0475-462928";"www.technobeton.com";"";"42052";"";"Molenweg 7";"6019BS";"WESSEM";"NL";"office";"86268"
"85627";"Stepco B.V.";"0475-567567";"www.stepco-group.nl";"";"41008";;"Aziestraat 15";"6014DA";"ITTERVOORT";"NL";"office";"86268"
"86251";"Calertho Beveiligingen BV";"0152578888";"";"";"40286";;"Schieweg 67";"2627AT";"Delft";"NL";"office";"86268"
"86254";"Prorent Nederland BV";"0161459100";"www.leventi.nl";"finance@leventi.nl";"40121";"";"Broekakkerweg 27";"5126BG";"Gilze";"NL";"office";"86268"
"86255";"Ropak Verpakkingen BV/ Beelen BV Verpakkingen";"0252-415145";"";"info@ropak.nl";"40222";;"Heereweg 5B";"2161AB";"Lisse";"NL";"office";"86268"
"86256";"Keurslagerij John de Roode";"0206828493";"";"johnderoode@vizzavi.nl";"30111";;"Spaarndammerstraat 125";"1013TE";"Amsterdam";"NL";"office";"86268"
"86257";"Straathof Plants BV";"0713314100";"www.straathofplants.nl";"hans@straathof.nl";"40272";;"Veenderveld 120";"2371TX";"Roelofarendsveen";"NL";"office";"86268"
"86258";"Vroomshoop Meubelen BV";"0546667711";"";"";"40176";;"Havenstraat 5";"7681EA";"Vroomshoop";"NL";"office";"86268"
"86259";"Security Care Amstelland SCA";"0297-591099";"";"info@securitycare.nl";"40277";;"Slingerduin 14";"1187JM";"Amstelveen";"NL";"office";"86268"
"86260";"FGHS";"0334343580";"";"info@fghs.nl";"40194";"";"Plesmanstraat 1";"3833LA";"Leusden";"NL";"office";"86268"
"86261";"Louis Sales Promotion BV";"0104812844";"";"daniel@Ispbv.nl";"40274";"";"Statenweg 121 D";"3039HK";"Rotterdam";"NL";"office";"86268"
"86265";"Deurwaarderskantoor Pruijn & van den Bergh";"015 2198700";"";"";"40193";"";"Oude Delft 134";"2611CG";"Delft";"NL";"office";"86268"
"86268";"creditDevice BV";"0713640060";"www.creditdevice.info";"info@creditdevice.nl";"30000";"";"Rudolf Tappenbeckweg 4";"2202 CD";"Noordwijk (Zh)";"NL";"office";"86268"
"86272";"eXpansys UK Limited Att Nurdan Erboz";"0235689188";"www.expansys.nl";"nurdan.erboz@expansys.com";"40343";;"Siriusdreef 17-27";"2132WT";"Hoofddorp";"GB";"office";"86268"
"86276";"Zadkine Techniek";"010 2885295";"www.zadkine.nl";"";"41049";"";"Prins Constantijnweg 30";"3066TA";"Rotterdam";"NL";"office";"86268"
"86288";"Sushi Time";"0204700001";"www.sushitime.nl";"info@sushitime.nl";"30115";;"Strawinskylaan 13";"1077XW";"Amsterdam";"NL";"office";"86268"
"86293";"De Smit Printservice B.V.";"0162-522052";"http://www.desmitprintservice.nl";"";"41057";;"Markt 17";"4931BR";"Geertruidenberg";"NL";"office";"86268"
"86294";"Bosal Nederland BV";"0347-362911";"";"huib.coenen@eur.bosal.com";"40148";"";"Kamerlingh Onnesweg 5";"4131PK";"Vianen Ut";"NL";"office";"86268"
"86296";"Dumeco BV";"0411658555";"www.dumeco.com";"parens@dumeco.com";"40219";;"Boseind 10";"5281RM";"Boxtel";"NL";"office";"86268"
"86297";"Marantec Nederland B.V.";"0294418549";"http://www.marantec.nl";"info@marantec.nl";"40118";;"Gein-Noord 69";"1391HX";"Abcoude";"NL";"office";"86268"
"86299";"Impex Heemskerk BV";"0773823331";"www.impexheemskerk.nl";"info@impexheemskerk.nl";"40183";;"Venrayseweg 120 A";"5928RH";"Venlo";"NL";"office";"86268"
"86301";"Vidra BV";"0102417576";"";"danny@gerritsacc.nl";"40331";;"Westplein 11";"3016BM";"Rotterdam";"NL";"office";"86268"
"86305";"Europees Instituut voor Detachering (Tecpool)";"0577405000";"";"";"40256";"";"Staverdenseweg 283";"3852NV";"Staverden";"NL";"office";"86268"
"86308";"Apex BV";"088 1050200";"www.apexdrukwerk.nl";"info@apexdrukwerk.nl";"41006";"";"Gronausestraat 39";"7533BW";"Enschede";"NL";"office";"86268"
"86312";"Brangs & Heinrich BV";"0302631020";"http://www.brangs-heinrich.nl/home.htm";"ton.kanis@brangs-heinrich.nl";"40451";"";"Arkansasdreef 32 A";"3565AR";"Utrecht";"NL";"office";"86268"
"86313";"kfs Korevaar Field Service";"0318503885";"";"";"40303";;"Maanderweg 68";"6711NG";"Ede";"NL";"office";"86268"
"86337";"Calertho Bouwkunde BV";"";"";"";"40287";;"Schieweg 67";"2627AT";"Delft";"NL";"office";"86268"
"86338";"A.R. Bultman";"0527203043";"";"";"40292";;"Luttelgeestweg 11a";"8315PA";"Luttelgeest";"NL";"office";"86268"
"86339";"Aanpassingsbedrijf Bierman BV";"0252219611";"";"";"30138";;"Jacoba van Beierenweg 31";"2215KT";"Voorhout";"NL";"office";"86268"
"86340";"Auto Studio A. Breed BV";"0252417153";"";"";"40305";;"Postbus 208";"2160AE";"Lisse";"NL";"office";"86268"
"86341";"Hoogerheide Bedrijfswagens BV";"";"";"";"30130";;"Rooseveltstraat 74a";"2321BM";"Leiden";"NL";"office";"86268"
"86342";"Knight Europe BV";"053-4285800";"";"";"40181";;"Marssteden 68";"7547TD";"Enschede";"NL";"office";"86268"
"86344";"Kon. Nederlandse Klim- en Bergsport Ver.";"0348484071";"www.nkbv.nl";"info@nkbv.nl";"30123";"";"Houttuinlaan 16 A";"3447GM";"Woerden";"NL";"office";"86268"
"86345";"Administratie- en Advieskantoor S. Thijs";"0735217782";"";"";"40318";;"Ooosteinderweg 106";"5247WD";"Rosmalen";"NL";"office";"86268"
"86347";"Digiflex";"0246455515";"";"";"40293";;"Graafseweg 554";"6603CL";"Wijchen";"NL";"office";"86268"
"86348";"De Mik Bedrijfshuisvesting BV";"010 4530303";"www.demik.nl";"info@mik.nl";"40129";"";"Lichtennauerlaan 140";"3062ME";"Rotterdam";"NL";"office";"86268"
"86349";"Paramount Home Entertainment Benelux";"035-6728100";"";"035-6287230";"40244";;"Postbus 101";"1200AC";"Hilversum";"NL";"office";"86268"
"86350";"Rapid-Bevestigingstechniek Benelux (RBB) B.V.";"0365460000";"http://www.rapidbv.com/";"";"40207";;"Josephine Bakerstraat 5";"1311GB";"Almere";"NL";"office";"86268"
"86351";"Xidy BV";"040 2808430";"";"";"40232";;"Heuvel 6";"5664HK";"Geldrop";"NL";"office";"86268"
"86354";"Functional Information Technologies Benelux B";"0306014567";"";"";"40146";;"Zoomstede 16 c/d";"3431HL";"Nieuwegein";"NL";"office";"86268"
"86355";"Heuff Sound & Vision B.V.";"0343-431750";"";"";"40184";;"Ambachtsweg 1";"3953BZ";"Maarsbergen";"NL";"office";"86268"
"86356";"Ilse Horck Ontwerpbureau";"0243240846";"";"";"40301";;"Staringstraat 14";"6521AJ";"Nijmegen";"NL";"office";"86268"
"86357";"Renhout BV";"";"";"";"40313";;"Oranjelaan 74";"2161KH";"Lisse";"NL";"office";"86268"
"86358";"Iscar Nederland BV";"0182535523";"www.iscar.nl";"";"40273";"";"Zwolleweg 6";"2803PS";"Gouda";"NL";"office";"86268"
"86362";"Holland Experience BV";"0204222233";"www.holland-experience.nl";"info@holland-experience.nl";"30129";;"Waterlooplein 17";"1011NV";"Amsterdam";"NL";"office";"86268"
"86364";"Dealer Frames";"0703478974";"www.dealerframes.nl";"gflater@dealerframes.nl";"40341";;"Wegastraat 15";"2516AN";"Den Haag";"NL";"office";"86268"
"86367";"Uta Nederland BV";"030-2315724";"";"";"42060";;"Dukatenburg 86";"3437AE";"Nieuwegein";"NL";"office";"86268"
"86390";"Castelein Heiwerken BV";"0153109837";"";"info@casteleinheiwerken.nl";"41007";"";"Gildeweg 18";"2632BA";"Nootdorp";"NL";"office";"86268"
"86393";"Ring Drivers";"0204101575";"www.ringdrivers.nl";"info@ringdrivers.nl";"41023";;"Postbus 75920";"1070AX";"Amsterdam";"NL";"office";"86268"
"86395";"Gerrits Accountants en Adviseurs BV";"010-2731764";"http://www.gerritsacc.nl";"info@gerritsacc.nl";"40336";"";"WESTPLEIN 11";"3016BM";"ROTTERDAM";"NL";"office";"86268"
"86398";"Creman BV";"0355395566";"";"";"41077";"";"MELKWEG 23";"1251PP";"LAREN NH";"NL";"office";"86268"
"86402";"Bonda  BVBA";"06882095";"www.bonda.nl";"j.heutinck@bonda.nl";"40257";;"Industrieweg 18";"B2280";"Grobbendonk";"BE";"office";"86268"
"86403";"Albis Benelux BV";"0765433800";"www.albis.com";"albisbenelux@albis.com";"40139";"";"Paardeweide 2 - 4";"4824EH";"Breda";"NL";"office";"86268"
"86405";"P-Services BV";"0342401209";"www.p-services.nl";"";"41034";;"Langstraat 47 A";"3771BB";"Barneveld";"NL";"office";"86268"
"86407";"Attract Uitzendbureau BV";"0575547030";"www.attract.nl";"";"41005";;"Polsbroekpassage 24";"7201CA";"Zutphen";"NL";"office";"86268"
"86408";"Fides BV";"0174530100";"";"info@fides.nl";"40452";;"Coldenhovenlaan 6";"3155RC";"Maasland";"NL";"office";"86268"
"86410";"DeR-Tec BV";"0714092409";"";"";"41031";"";"Nijverheidsweg 41";"2215 MH";"Voorhout";"NL";"office";"86268"
"86415";"Fiso BV";"071 4010122";"www.fiso.nl";"sjaak@fiso.nl";"41047";;"Valkenburgseweg 48";"2223KD";"Katwijk";"NL";"office";"86268"
"86416";"Netlijn Holding BV";"020 5470180";"";"dennis.kraak@netlijn.nl";"41012";;"Spinnerij 59";"1186ZS";"Amstelveen";"NL";"office";"86268"
"86417";"Leica Geosystems NV";"";"";"";"40269";;"De Kleetlaan 4";"B1831";"Dieghem Belgie";"BE";"office";"86268"
"86419";"Stand-by Electrotechniek BV";"0299 471645";"";"stand-by@dutchnet.nl";"40265";;"Volume 69 - 71";"1446 W";"Purmerend";"NL";"office";"86268"
"86420";"IM Nederland Credit Management BV";"0341 568818";"www.imnederland.nl";"";"25000";"";"Voorthuizerstraat";"3881SC";"Putten";"NL";"office";"86268"
"86421";"Aan Zee Interactive B.V.";"071 3630060";"";"info@aanzee.nl";"10000";"";"Erasmusweg 19";"2202CA";"Noordwijk ZH";"NL";"office";"86268"
"86423";"Orion Speciale Technieken";"0765797430";"";"";"42340";;"Postbus 3551";"4800DN";"Breda";"NL";"office";"86268"
"86424";"Office 1 Leiden";"071-5133766";"www.office1.nl";"";"30141";;"Breestr 159";"2311CN";"Leiden";"NL";"office";"86268"
"86426";"Global Hail Network France SARL";"";"";"";"40350";;"pa/ Houtduifstraat 26-28";"4901DP";"Oosterhout";"NL";"office";"86268"
"86427";"Ultimoo Incasso BV";"0348-493611";"www.ultimoo.nl";"mvoolstra@ultimoo.nl";"25250";"";"Pompmolenlaan 10";"3447 GK";"Woerden";"NL";"office";"86268"
"86431";"Sportemotion VOF";"010 4661734";"http://www.sportemotion.nl";"info@sportemotion.nl";"41055";"";"Pesetastraat 72";"2991XT";"Barendrecht";"NL";"office";"86268"
"86434";"Avabel Nederland BV";"026-3193222";"www.avabel.com";"";"40200";"";"Dijkgraaf 32";"6921 RL";"Duiven";"NL";"office";"86268"
"86438";"Multigift Relatiegeschenken B.V.";"071-3647809";"www.multigift.nl";"";"41035";"";"’s-Gravendijckseweg 51";"2201CZ";"Noordwijk ZH";"NL";"office";"86268"
"86441";"Serv-Ad BV";"0703693525";"www.serv-ad.nl";"info@serv-ad.nl";"41036";;"Javastraat 49";"2584AE";"Den Haag";"NL";"office";"86268"
"86447";"Europay B.V.";"0356997111";"www.Europay.nl";"";"25750";;"Hooftlaan 81";"1401EC";"Bussum";"NL";"office";"86268"
"86448";"de Rijk Magazijninrichting";"0793611311";"www.derijkmag.nl";"info@derijkmag.nl";"41038";;"Amethistweg 3";"2665NT";"Bleiswijk";"NL";"office";"86268"
"86450";"Kantoren en Bedrijvencentrum";"071-4025633";"www.rijnpoortkatwijk.nl";"bob@rijnpoortkatwijk.nl";"41040";;"Ambachtsweg 33";"2220CC";"Katwijk";"NL";"office";"86268"
"86455";"FISO Amsterdam BV";"";"";"";"41048";;"Waningstraat 10 - 12";"1071LB";"Amsterdam";"NL";"office";"86268"
"86456";"Blomsma Signs & Safety";"079 3301050";"www.blomsma.nl";"";"41050";;"Storkstraat 1 A";"2722NN";"Zoetermeer";"NL";"office";"86268"
"86457";"Blomsma Teken- en Adviesburo (B.T.A.) BV";"079 3301050";"www.blomsma.nl";"";"41051";;"Storkstraat 1 A";"2722NN";"Zoetermeer";"NL";"office";"86268"
"86458";"Blomsma Reclame B.V.";"079 3301050";"";"www.blomsma.nl";"41052";;"Storkstraat 1 A";"2722NN";"Zoetermeer";"NL";"office";"86268"
"86460";"Blomsma Printing Schiphol B.V.";"079 3301050";"www.blomsma.nl";"";"41054";;"Storkstraat 1 A";"2722NN";"Zoetermeer";"NL";"office";"86268"
"86464";"De Smit R&D B.V.";"0162 522052";"www.desmitsprintservice.nl";"ron@desmitprinservices.nl";"41058";;"Markt 17";"4931 B";"Geertuidenberg";"NL";"office";"86268"
"86465";"Gemeente Noordwijk";"071-3660301";"";"a.beukers@noordwijk.nl";"41061";;"Voorstraat 42";"2201HW";"Noordwijk";"NL";"office";"86268"
"86466";"K+V Van Alphen";"010 4121433";"";"";"40125";"";"Spoorhaven 70";"2651AV";"Berkel en Rodenrijs";"NL";"office";"86268"
"86473";"Office 1 Benelux BV";"071-5133766";"";"";"41062";;"Morssingel 7";"2312AZ";"Leiden";"NL";"office";"86268"
"87140";"Rocotrans B.V.";"0168 332000";"www.rocotrans.com";"";"42216";"";"Parelhoenweg 5";"4791PA";"KLUNDERT";"NL";"office";"86268"
"87384";"Chipsource Europe";"036-5464441";"";"karin@chipsource-europe.com";"42021";"";"De Binderij 60A";"1321EK";"Almere";"NL";"office";"86268"
"87387";"Burgel Wirtschaftsinformationen GmbH & Co. KG";"";"";"";"40453";;"Gasstrasse 18";"D22761";"Hamburg DUITSLAND";"DE";"office";"86268"
"87388";"Steendam Lab Furnishing Supplies";"038 421 55 22";"www.steendam.nl";"info@steendam.nl";"42000";"";"Lichterweg 31";"8042PW";"Zwolle";"NL";"office";"86268"
"87390";"CreditProfessionals B.V.";"0345 585633";"www.credittools.nl";"info@credittools.nl";"25375";"NL809314058B01";"Postbus 2028";"5300CA";"Zaltbommel";"NL";"office";"86268"
"87395";"Teekens Karstens Advocatuur";"071 5791752";"";"devries@teekenskarstens.nl";"40197";;"Kanaalpark 144";"2321JV";"Leiden";"NL";"office";"86268"
"87410";"Dimerco Express (Netherlands) BV Didams";"020 4055769";"www.dimerco.com";"";"41093";;"Folkstoneweg 24";"1118LM";"Schiphol Airport";"NL";"office";"86268"
"87411";"Conpro BV";"070 4153291";"";"els@conprobv.nl";"41030";"";"Verijnstuartlaan 30";"2288EL";"Rijswijk";"NL";"office";"86268"
"87412";"Blomsma.Collarprinting B.V.";"";"";"";"41090";;"Storkstraat 1A";"2722NN";"Zoetermeer";"NL";"office";"86268"
"87420";"Informatiebureau Nobel BV";"0186-618377";"www.nobelinf.nl";"info@nobelinf.nl";"25675";"";"van Koetsveldlaan 15";"3273AL";"Westmaas";"NL";"office";"86268"
"87427";"Klinkenberg Techniek";"06-51833442";"";"info@klinkenbergtechniek.nl";"41098";"";"Noordhoren 5";"2201VC";"Noordwijk";"NL";"office";"86268"
"87428";"Makora Trading International";"0161-433407";"";"makora@xs4all.nl";"41099";"";"Seminarieweg 1";"4854CA";"Bavel";"NL";"office";"86268"
"87430";"Drafcon N.V.";"0252 536136";"";"";"41095";;"Weeresteinstraat 43";"2182GR";"Hillegom";"NL";"office";"86268"
"87433";"KLD Graphics";"071-4073408";"www.kldgraphics.nl";"info@kldgraphics.nl";"42001";"";"De Hooge Krocht 13";"2201TP";"Noordwijk ZH";"NL";"office";"86268"
"87434";"Weba Makelaars";"0165-570182";"www.webamakelaars.nl";"info@webamakelaars.nl";"42018";;"Borchwerf 4m";"4704RC";"Roosendaal";"NL";"office";"86268"
"87436";"Nemesis BV";"023 58336000";"www.nemeisi-europe..nl";"backoffice@nemesis-europe..nl";"42005";;"Zevenend 45";"1251RL";"Laren";"NL";"office";"86268"
"87440";"VCK Logistics Airfreight";"020 5877826";"";"invoices.amsterdam@vcklogistics.nl";"42009";"";"Albertplesmanweg 57";"3088GB";"Amsterdam";"NL";"office";"86268"
"87441";"Autoschade Herstel van der Niet";"071-3622622";"";"vanderniet.autoschade@planet.nl";"42011";"";"Keyserswey 7";"2201CW";"Noordwijk";"NL";"office";"86268"
"87443";"Akbo Handelsmij BV";"0313-472822";"";"";"42012";"";"Leigraafseweg 33H";"6983BR";"Doesburg";"NL";"office";"86268"
"87644";"Epson Europe B.V.";"020-3145000";"www.epson.nl";"";"42641";"";"Hoogoorddreef 5";"1101BA";"AMSTERDAM";"NL";"office";"86268"
"87779";"Inter Access B.V.";"035 6888400";"www.interaccess.nl";"";"42695";"";"Colosseum 9";"1213NN";"HILVERSUM";"NL";"office";"86268"
"89037";"Heldense Group B.V.";"077-3072777";"";"";"42035";"";"Industrieterrein 17";"5981NK";"PANNINGEN";"NL";"office";"86268"
"89800";"Facilifors BV";"033-4224900";"www.amfors.nl";"info@amfors.nl";"42170";;"Uraniumweg 15";"3812RJ";"AMERSFOORT";"NL";"office";"86268"
"91093";"Barthen Rioleringswerken B.V.";"071-5222688";"www.barthen.nl";"info@barthen.nl";"42056";;"Hallenweg 7";"2316JX";"LEIDEN";"NL";"office";"86268"
"99525";"Rasenberg Milieutechniek B.V.";"076-5789789";"www.rasenberg.nl";"milieu@rasenberg.nl";"41065";"";"Industriekade 10";"4815HD";"BREDA";"NL";"office";"86268"
"99680";"Nederlandse Deurwaarders Associatie B.V.";"033-4538945";"www.nda-incasso.nl";"info@nda-incasso.nl";"42027";;"Disketteweg 1";"3821AR";"AMERSFOORT";"NL";"office";"86268"
"99684";"ISN Business Services CV";"010-4145511";"www.isnl.nl";"intl@isdn.nl";"42086";"";"Van der Hoevenplein 100";"3072MK";"ROTTERDAM";"NL";"office";"86268"
"99700";"Collactive Detachering & Debiteurenbeheer B.V";"040-2919666";"www.collactive.nl";"algemeen@collactive.nl";"25130";;"Henri Wijnmalenweg 5";"5657EP";"EINDHOVEN";"NL";"office";"86268"
"99752";"Credifixx Incassoservices B.V.";"071-3015717";"www.credifixx.nl";"info@credifixx.nl";"42148";"";"Flevoweg 9 H";"2318BZ";"LEIDEN";"NL";"office";"86268"
"99755";"Hakort & Partners BV";"030-6064222";"www.hakort.com";"";"42108";"";"Kruyderlaan 27";"3431BM";"NIEUWEGEIN";"NL";"office";"86268"
"99816";"Centraal Invorderings Bureau";"010-4134843 / 010-41";"www.cibincasso.nl";"info@cibincasso.nl";"42070";;"Oostzeedijk 64/a";"3063BE";"ROTTERDAM";"NL";"office";"86268"
"100189";"Menken van den Assem Products BV";"070-3012770";"";"";"42042";;"Donau 86-88";"2491BC";"Den Haag";"NL";"office";"86268"
"100190";"Van Galen- TransMission BV";"036 5460460";"";"";"42023";;"Wormerweg 6";"1311XB";"Almere";"NL";"office";"86268"
"100195";"BATOS-constructieadviesbureau";"023-5622204";"www.batos.nl";"info@batos.nl";"42013";;"Kuinderbos  79";"2134KN";"Hoofddorp";"NL";"office";"86268"
"100197";"Baanstede";"0299 469369";"";"facturen@baanstede.nl";"42073";"";"Einsteinstraat 103";"1446VE";"Purmerend";"NL";"office";"86268"
"100198";"Arbo Concern VOF";"071 4018141";"";"j.franck@arboconcern.nl";"42028";;"\\'s-Gravendijckseweg 11";"2201CZ";"Noordwijk";"NL";"office";"86268"
"100200";"Dirk Accountants + Adviseurs BV";"0653178893";"";"";"42030";;"Steenplaetsstraat 6";"2288AA";"Rijswijk";"NL";"office";"86268"
"100201";"Cummins Belgium NV";"003215479100";"";"walter.fortuin@cummins.com";"42031";"";"E. Walschaertsstraat 2";"B-2800";"Mechelen";"BE";"office";"86268"
"100202";"Rietveld Finance Consultancy";"055-3605538";"www.rietveldfc.nl";"info@rietveldfc.nl";"42032";;"De Wintereik 12";"7325HR";"Apeldoorn";"NL";"office";"86268"
"100203";"Samclaire BV";"06-30259066";"";"info@samclaire.nl";"42033";"";"Westeinde 2";"2211XP";"Noordwijkerhout";"NL";"office";"86268"
"100204";"Babytrack";"071 3612100";"www.babytrack.nl";"";"42057";;"Losplaatsweg 26 B/C";"2201CV";"Noordwijk";"NL";"office";"86268"
"100205";"Kleine-Solutions BV";"071-5312060";"";"";"42037";;"Oudendijk 10";"7437SL";"Bathmen";"NL";"office";"86268"
"100206";"Menken van den Assem Food BV";"070-3012770";"www.menken-assem.com";"bianca.sinterniklaas@menken-assem.com";"42043";;"Donau 86-88";"2491BV";"Den Haag";"NL";"office";"86268"
"100208";"Gemeente Amstelveen";"020 5404911";"";"facturen@amstelveen.nl";"42063";"";"Laan Nieuwer-Amstel 1";"1182JR";"Amstelveen";"NL";"office";"86268"
"100209";"Cashcontrol Informatiediensten BV.";"";"";"financieel@cashformatie.nl";"42049";"";"Lange Nieuwstraat 227";"3111AJ";"Schiedam";"NL";"office";"86268"
"100210";"AllEasy MultiMedia Services";"06 14318850";"";"";"42051";"";"Burgersdijkstraat 19";"2225AT";"Katwijk ZH";"NL";"office";"86268"
"100211";"GVC Steigerbouw B.V.";"071-5222688";"";"";"42055";;"Daniel Goedkoopstraat";"1096BD";"AMSTERDAM";"NL";"office";"86268"
"100212";"Aertery B.V.";"088-1001600";"";"tlooij@aertery.com";"42059";"";"Westblaak 102";"3012KM";"Rotterdam";"NL";"office";"86268"
"100216";"Goud Bedrijfshuisvesting B.V. i.o.";"0180 - 318 222";"www.goud-bhv.nl";"richard@goud-bhv.nl";"42066";;"Kerklaan 92";"2912CL";"Nieuwerkerk ad IJssel";"NL";"office";"86268"
"100247";"Securo Beveilingen";"017 5761762";"";"info@securobeveiliging.nl";"42068";;"De Hooge Krocht 76";"2201TZ";"Noordwijk";"NL";"office";"86268"
"100411";"IHC Merwede Holding BV";"0180-446166";"";"";"42085";"0099.15.564";"Postbus 3";"2960 AA";"Kinderdijk";"NL";"office";"86268"
"104149";"Koos van Os B.V.";"010-5223278";"";"";"42095";;"Westersingel 9";"2651CM";"BERKEL EN RODENRIJS";"NL";"office";"86268"
"105348";"Meester Techniek B.V.";"071-5234048";"www.meestertechniek.nl";"info@meestertechniek.nl";"42126";;"Dorus Rijkersweg 23";"2315WC";"LEIDEN";"NL";"office";"86268"
"106743";"Pap Star B.V.";"078 6530620";"www.papstar.com";"";"42233";;"Calandstraat 44";"3316EA";"DORDRECHT";"NL";"office";"86268"
"107330";"Grayvis Logistics B.V.";"0252-360210";"www.grayvis.nl";"graman@grayvis.nl";"42155";"";"Madame Curiestraat 10";"2171TW";"SASSENHEIM";"NL";"office";"86268"
"109215";"Immo Rijnstede B.V.";"071-5281414";"www.immo-rijnstede.nl";"info@immo-rijnstede.nl";"42119";;"Haagweg 51";"2321AC";"LEIDEN";"NL";"office";"86268"
"109732";"BarthcoDart (Europe) B.V.";"020-3540005";"www.barthcodart.nl";"cwei@ohl.com";"42088";"";"Breguetlaan 2";"1438BB";"OUDE MEER";"NL";"office";"86268"
"114664";"Jansen International Trading B.V.";"0252-520144";"www.harryshorse.nl";"info@harryshorse.nl";"42153";"";"Haarlemmerstraat 16";"2181HC";"Hillegom";"NL";"office";"86268"
"116203";"Aster Groep B.V.";"0172-722333";"www.asterict.nl";"administratie@asterict.nl";"42183";"";"A van Leeuwenhoekweg 32 G";"2408AN";"ALPHEN AAN DEN RIJN";"NL";"office";"86268"
"126329";"Jan van Duuren & Zn. B.V.";"071-5225999";"www.janvanduuren.nl";"";"42143";;"Admiraal Banckertweg 6";"2315SR";"LEIDEN";"NL";"office";"86268"
"144016";"Arie de Winter en Zonen V.O.F. Hei- en Fundat";"0252-374361";"";"info@ariedewinter.nl";"42079";;"Tespellaan 5";"2211VT";"NOORDWIJKERHOUT";"NL";"office";"86268"
"144589";"Bos Totaalbouw B.V.";"06-22778210";"";"";"42117";;"Kerkweg 65";"2935AH";"OUDERKERK AAN DEN IJSSEL";"NL";"office";"86268"
"150081";"De Muze";"071-3646538";"";"";"42020";"";"Wantveld 2";"2202NS";"NOORDWIJK ZH";"NL";"office";"86268"
"151327";"Turk & van Rossum Projectinrichters V.O.F.";"";"www.turkvanrossum.nl";"info@turkvanrossum.nl";"42166";"";"Gieterij 5";"2211WC";"NOORDWIJKERHOUT";"NL";"office";"86268"
"159960";"Direct Device B.V.";"071-3640060";"";"";"42076";"";"Keyserswey 57";"2201CX";"NOORDWIJK ZH";"NL";"office";"86268"
"170330";"OohZo";"06 23361657";"www.oohzo.nl";"info@oohzoo.nl";"42102";;"Van Speijkstraat 3";"2202GJ";"NOORDWIJK ZH";"NL";"office";"86268"
"172751";"Roman Holiday B.V.";"020-8206734";"www.santiniscooters.nl";"bas@santiniscooters.nl";"42100";"";"Pilotenstraat 15";"1059CH";"AMSTERDAM";"NL";"office";"86268"
"181731";"Duca Consulting";"";"";"";"42339";"";"Wilgeneiland 26";"2285JR";"Rijswijk ZH";"NL";"office";"86268"
"181732";"Klus- & Montagebedrijf A. Kuijt";"0651064473";"";"";"42080";;"Sluisweg 62";"2225XN";"Katwijk";"NL";"office";"86268"
"181740";"VanOoijen Accountants N.V.";"023-5440383";"";"b.vos@ooijen.nl";"42089";"";"Leidsevaart 578";"2014HT";"Haarlem";"NL";"office";"86268"
"181741";"van Kruistum & Sloos Accountancy";"071-5804600";"www.vksa.nl";"";"42083";;"Keerweer";"2381GC";"Zoeterwoude";"NL";"office";"86268"
"181743";"Cetem Containers BV";"010-4387366";"www.cetem.nl";"info@cetem.nl";"42090";;"Oude Maasweg 11";"3197KJ";"Rotterdam";"NL";"office";"86268"
"181745";"Salvors Consultants";"010 8424482";"www.salvors.nl";"info@salvors.nl";"43157";"";"Hollandsch Diep 63 H";"2404 EP";"Rotterdam";"NL";"office";"86268"
"181746";"Lensvelt B.V.";"076 5722000";"";"";"42092";"";"Minervum 7003";"4817ZL";"Breda";"NL";"office";"86268"
"181747";"Collactive BV (eigen klanten)";"040-291 96 66";"www.collactive.nl";"info@collactive.nl";"42094";"";"Postbus 441";"5600AK";"Eindhoven";"NL";"office";"86268"
"181748";"Oud Thamen Five Beheer BV";"0297-543400";"www.uba.nl";"info@uba.nl";"42096";;"J.A. van Seumerenlaan 4";"1422XS";"Uithoorn";"NL";"office";"86268"
"181749";"Bestuur Stichting Dorpshuizen";"071 3646538";"";"info@demuzenoordwijk.nl";"42097";;"Wantveld 2";"2202NS";"Noordwijk";"NL";"office";"86268"
"181751";"Tefama B.V. / crisisbestendig.nl";"0182 350889";"";"";"42103";;"Benedenberg 120";"2861LJ";"Bergambacht";"NL";"office";"86268"
"181754";"VanOoijen Belastingadviseurs";"";"";"";"42104";;"Leidsevaart 578";"2014HT";"Haarlem";"NL";"office";"86268"
"181755";"Company.info B.V.";"020 - 2400400";"";"";"42107";;"Prins Bernhardplein 173";"1097 BL";"Amsterdam";"NL";"office";"86268"
"181756";"Reanco BV";"076-5789738";"www.reanco.nl";"info@reanco.nl";"42109";;"Industriekade 10";"4815HD";"Breda";"NL";"office";"86268"
"181758";"Brangs + Heinrich GmbH";"030-2631020";"";"";"42113";"";"Wilhelm Steinweg 22";"22339";"Hamburg";"DE";"office";"86268"
"181760";"Trust & Law BV";"088-0075888";"www.trustandlaw.nl";"m.stout@trustandlaw.nl";"42114";;"De Scheysloot 53c";"2201GN";"Noordwijk";"NL";"office";"86268"
"181761";"Intratel BV";"(0)77 850 71 33";"www.intratel.nl";"";"42115";;"De Amert 414 a";"5462GH";"Veghel";"NL";"office";"86268"
"181764";"Ingenieursburo van der Aa";"0172-416300";"www.vanderaagroep.nl";"info@vanderaagroep.nl";"42129";"";"Groenestein 66";"2403JR";"Alphen aan den Rijn";"NL";"office";"86268"
"181767";"C.E.S. Dakwerken";"06-41463226";"";"cescadakwerken@hetnet.nl";"42125";;"Kwartellaan 11";"1602NH";"Enkhuizen";"NL";"office";"86268"
"181771";"Marel Food Systems B.V.";"0165-523030";"www.marel.com";"perry.houtepen@marel.com";"42127";"";"Hogerwerf 18";"4704RV";"Roosendaal";"NL";"office";"86268"
"181773";"Bata Nederland B.V.";"(0)499 362 911";"www.bataindustrials.com";"finance@bata.nl";"42189";"";"Europaplein 1";"5684ZC";"Best";"NL";"office";"86268"
"181775";"Taft International Footwear - Taft-Oscar B.V. // failliet";"023 5698100";"www.taft.nl";"info@taft.nl";"42167";"";"Graftermeerstraat 54";"2131AC";"Hoofddorp";"NL";"office";"86268"
"181777";"Roac B.V.";"+31 35-6016634 / 064";"www.roacbv.nl";"info@roacbv.nl";"42135";;"Stadhouderslaan 144";"3761ER";"SOEST";"NL";"office";"86268"
"181778";"Monika Interieurverzorging";"";"";"";"42132";;"Michael de Ruijterstraat 68";"2182XP";"Hillegom";"NL";"office";"86268"
"181779";"RCS Dienstverlening";"0610362557";"www.rcs-dienstverlening.nl";"contact@rcs-dienstverlening.nl";"42133";"";"Achtknoop  51";"1319 GL";"Almere";"NL";"office";"86268"
"181780";"WKK Nederland BV";"013 - 5712171";"www.wkk.nl";"info@wkk.nl";"42134";"";"Polluxstraat 1";"5047RA";"Tilburg";"NL";"office";"86268"
"181781";"HF Works Personeelsdiensten BV";"0499-377552";"";"info@hfworks.eu";"42243";;"Binnenweg 13";"5683PR";"Best";"NL";"office";"86268"
"181782";"T. van Mourik";"0235320714";"";"vanmouri@xs4all.nl";"42137";;"Van Marumstraat 75";"2012XT";"Haarlem";"NL";"office";"86268"
"181783";"Wood Flame Moerdijk B.V.";"0168 382 110";"www.labeegroup.com/woodflame";"paul@labeegroup.com";"42138";;"Apolloweg 4";"4782SB";"Moerdijk";"NL";"office";"86268"
"181784";"Braez Europe BV";"020 4111798";"www.braez.nl";"info@braez.nl";"42140";"";"Melbournestraat 5";"1175RM";"Lijnden";"NL";"office";"86268"
"181789";"K & L Vastgoedmanagement";"070-3198030";"www.kruse-lampo.nl";"r.lampo@kruse-lampo.nl";"42147";;"Laan van Zuid Hoorn  45";"2289DC";"Rijswijk";"NL";"office";"86268"
"181790";"Verwerkingsmaatschappij Van den Doel B.V.";"0167-522331";"";"";"42169";"";"Markweg-Zuid 1 B";"4794SN";"Heijningen";"NL";"office";"86268"
"181795";"Broeke Steigerbouw BV";"0302613114";"www.broekesteigerbouw.nl";"info@broekesteigerbouw.nl";"42145";"";"Atoomweg  62  W";"3542AB";"Utrecht";"NL";"office";"86268"
"181798";"Comforta Nieuwkoop B.V.";"0172 - 579 202";"www.comforta.nl";"info@comforta.nl";"42149";"";"Nijverheidsweg  5";"2421LR";"Nieuwkoop";"NL";"office";"86268"
"181799";"T. van de Pol Aannemingsbedrijf B.V.";"0317 619611";"";"info@tvandepol.nl";"42176";;"Boslandweg 29";"3911VD";"Rhenen";"NL";"office";"86268"
"182017";"Jet Europe BV";"036-5372828";"info@jeteurope.nl";"www.jeteurope.nl";"42190";"";"Eenspan 6";"";"ZEEWOLDE";"NL";"office";"86268"
"182769";"Brandwacht & Meijer BV";"030-2416800";"www.brandwachtenmeijer.nl";"";"42204";"";"Hyperonenweg 30";"3542AG";"UTRECHT";"NL";"office";"86268"
"182850";"Grosfillex BV";"0413-247145";"";"www.grosfillex.nl";"42195";"";"Kantorencomplex d n Office /Loopkantstraat 25";"5405 AC";"UDEN";"NL";"office";"86268"
"183483";"Excel Group BV";"0165-393222";"www.excelgroup.nl";"mbaans@excelgroup.nl";"42192";;"Boerkensleen 39";"4705RL";"ROOSENDAAL";"NL";"office";"86268"
"184112";"Schülke & Mayr Benelux BV";"023-5352634";"www.schuelke-mayr.com";"financebenelux@schuelke.com";"42211";"";"Oudeweg 8d";"2031 CC";"Haarlem";"NL";"office";"86268"
"184218";"Esselink Bouwmaterialen BV  Collactive";"0187-475400";"";"";"42660";"";"Industrieweg 35";"3240 AB";"MIDDELHARNIS";"NL";"office";"70630"
"184542";"Stepstone BV";"071-5730400";"www.stepstone.nl";"info@stepstone.nl";"42178";"";"Doezastraat 2a";"2311 HB";"LEIDEN";"NL";"office";"86268"
"184717";"W.Th. Zandstra BV";"0513-415858";"www.zandstrasport.nl";"info@zandstrasport.nl";"42244";;"Yndustrywei 8";"8501SN";"JOURE";"NL";"office";"86268"
"184781";"Europresspartners BV";"+31 (0)35 62 29 077";"www.europresspartners.nl";"info@europresspartners.nl";"42289";"";"Grift 5";"1273 SE";"HUIZEN";"NL";"office";"86268"
"184793";"Blygold Holding BV";"030-6344333";"";"";"42248";"";"Hoofdveste 13";"3992DH";"HOUTEN";"NL";"office";"86268"
"185537";"Rexel Nederland BV";"0885007650";"www.rexel.nl";"m.lafeber@rexel.nl";"42774";"";"Bleiswijkseweg  35";"2712 PB";"Zoetermeer";"NL";"office";"86268"
"185690";"Digitronics Retail BV";"0578-620300";"";"Bertjan@digitronics.nl";"42201";;"Hoofdstraat 158";"8162 AR";"EPE";"NL";"office";"86268"
"185815";"Roestvaststaalindustrie Westra BV";"0514604146";"";"info@westra-rvs.nl";"42160";;"Buorren 75";"8581KD";"ELAHUIZEN";"NL";"office";"86268"
"186072";"DDO Installatie";"078-7501730";"www.ddo-installatie.nl";"info@ddo-installatie.nl";"42188";;"Damstraat 8";"3319BD";"DORDRECHT";"NL";"office";"86268"
"186606";"Boekbinderij Combi Bind BV";"079-3439809";"www.combibind.nl";"j.van.engelen@combibind.nl";"42186";;"Verbreepark 29A";"2731BR";"BENTHUIZEN";"NL";"office";"86268"
"187051";"Bluelink BV";"020-4486400";"";"";"42230";"";"Bolstoen 7 - B";"1046AS";"AMSTERDAM";"NL";"office";"86268"
"187638";"Dam Handelsonderneming BV";"0566-651575";"www.dambeton.nl";"info@dambeton.nl";"42168";;"Spikerboor 2";"8491PA";"AKKRUM";"NL";"office";"86268"
"187874";"Asian City BV";"030 2310619";"www.denachtburgemeester.nl";"info@denachtburgemeester.nl";"42158";;"Stadhuisbrug 3";"3511KP";"Utrecht";"NL";"office";"86268"
"187875";"Paridaans & Liebregts B.V.";"073 624 20 20";"www.paligroup.nl";"f.wouters@paligroup.nl";"42172";;"Veemarktkade 19";"5222AG";"s-Hertogenbosch";"NL";"office";"86268"
"187876";"Bureau van Dijk Electronic Publishing BV";"020 - 5400100";"";"informatie@bvdep.com";"42174";"";"Hoogoorddreef 9";"1101 BA";"Amsterdam";"NL";"office";"86268"
"188299";"Maas Autogroep";"0172-579316";"www.maasautogroep.nl";"aftersales.nieuwkoop@jmaasbv.nl";"42931";"";"Nieuwveenseweg 7";"2421LA";"NIEUWKOOP";"NL";"office";"86268"
"188326";"Multivac BV";"0348-436570";"";"";"42806";"";"Pompmolenlaan 15";"3447GK";"WOERDEN";"NL";"office";"70630"
"188581";"Mediaweb";"0717504000";"www.mediaweb.nl";"evanhall@mediaweb.nl";"42194";"";"Losplaatsweg 24-26";"2201CV";"NOORDWIJK ZH";"NL";"office";"86268"
"188582";"Hollandse Telecommunicatie Maatschappij B.V.";"0316585858";"www.htm-zevenaar.nl";"";"42212";"";"Edisonstraat 50";"6902PK";"ZEVENAAR";"NL";"office";"86268"
"188809";"RO-AD Benelux B.V.";"0342 416108";"www.roadbarneveld.nl";"";"42259";"";"Harselaarseweg 107";"3771MA";"BARNEVELD";"NL";"office";"86268"
"189413";"Lemga Benelux B.V.";"045 7111427";"";"";"42681";"";"Vink 10";"6363CA";"WIJNANDSRADE";"NL";"office";"202526"
"189567";"Diesel Benelux B.V.";"020-7025555";"www.diesel.com";"";"42530";"";"Danzigerkade 55";"1013 AP";"Amsterdam";"NL";"office";"86268"
"190084";"Advantech Europe B.V.";"0402677000";"www.advant.com";"0165 599318";"42467";"";"Science Park Eindhoven  5708";"5692ER";"Son en Breugel";"NL";"office";"86268"
"190509";"Danser Benelux B.V.";"0184 495080";"www.dansercontainerline.com";"";"42967";"";"Middeldiepstraat 62";"3361VT";"SLIEDRECHT";"NL";"office";"86268"
"191686";"Schulke & Mayr Benelux BV   LET OP 42211";"070 3624631";"";"023-5352634";"42288";"";"Prins Bernhardlaan 2 C";"2032HA";"HAARLEM";"NL";"office";"86268"
"192179";"Asona Benelux B.V.";"020 6435850";"";"";"42415";"";"C. Verolmelaan 75";"1422 ZB";"Uithoorn";"NL";"office";"86268"
"192207";"Seko Logistics BV";"020 8201193";"klant creditBrokers";"jeetinder.mangroo@sekologistics.com";"43213";"NL811870972";"Flamingoweg 19";"1118EE";"SCHIPHOL";"NL";"office";"86268"
"192729";"Laco Paneermeelfabriek B.V.";"058 2948219";"";"t.vanslooten@koopmansmeel.nl";"42196";"";"De Merodestraat  3";"8937AA";"Leeuwarden";"NL";"office";"86268"
"192732";"Deliflor Chrysanten B.V.";"0174526200";"www.deliflor.nl";"";"42198";;"Postbus 77";"2676ZH";"MAASDIJK";"NL";"office";"86268"
"193365";"Demar Laser B.V.";"074 2452145";"www.demarlaser.nl";"edwin@demarlaser.nl";"43027";"";"Smaragdstraat 17";"7554TD";"HENGELO OV";"NL";"office";"86268"
"193371";"Novoferm Nederland B.V.";"0418 654700";"www.novoferm.nl";"g.t.dam@novoferm.nl";"42494";"";"Industrieweg 9";"4181CA";"WAARDENBURG";"NL";"office";"86268"
"193460";"Arai Helmet (Europe) B.V.";"033 2541010";"www.ariahelmet-europe.com";"";"43143";"";"Zuiderinslag 10";"3871MR";"HOEVELAKEN";"NL";"office";"202526"
"194075";"Ahlmann Nederland B.V.";"073 5997755";"www.ahlmann.nl";"";"42446";"";"Onderwaard 11";"5324JV";"AMMERZODEN";"NL";"office";"86268"
"194269";"BCM Music Systems B.V.";"0495 562558";"www.bcmmusic.nl";"";"43086";"";"Celsiusstraat  9";"6003DG";"WEERT";"NL";"office";"202526"
"194323";"Helwig Timmerfabriek B.V.";"046 4237960";"www.helwig.nl";"";"42218";;"Tomeikerweg 101";"6161RB";"GELEEN";"NL";"office";"86268"
"194418";"Frissen Groen Techniek B.V.";"043 6089200";"www.frissen.nl";"";"42793";"";"De Valkenberg 15";"6301PM";"VALKENBURG LB";"NL";"office";"86268"
"194448";"Dalco Food B.V.";"0412 675050";"www.dalco.nl";"info@dalco.nl";"43204";"";"Sweelinckstraat 8";"5344AE";"OSS";"NL";"office";"86268"
"194556";"Van Helvoort Grafisch Bedrijf B.V.";"0492 371137";"www.vanhelvoortgroep.nl";"";"42664";"";"Vliet 24";"5422VV";"GEMERT";"NL";"office";"70630"
"194946";"Special Logistic Services B.V.";"076 5783500";"www.sls-nederland.nl";"";"43076";"";"Takkebijsters 51";"4817BL";"BREDA";"NL";"office";"202526"
"194960";"Seal Force B.V.";"013 5720216";"www.sealforce.nl";"SdeBruijn@Sealforce.nl";"42290";"";"Heraclsesstraat 24";"5048CG";"TILBURG";"NL";"office";"86268"
"195036";"Montis B.V.";"0162 377777";"www.montis.nl";"farendsz@montis.nl";"42637";"";"Steenstraat 2";"5107NE";"DONGEN";"NL";"office";"86268"
"195071";"Van Uitert B.V.";"0162 313136";"www.uitert.nl";"";"43135";"";"De Schacht 9";"5107RD";"DONGEN";"NL";"office";"202526"
"195259";"G. Bosman en Zoon Nisse B.V.";"0113 649751";"www.bosmantransport.nl";"";"42765";"";"Drieweg 7";"4443RD";"NISSE";"NL";"office";"202526"
"195332";"Boer B.V.";"0183 352747";"www.boerbv.com";"";"42594";"";"Bordenweg 8";"4231VH";"MEERKERK";"NL";"office";"86268"
"195345";"DBN Diamant Systemen B.V.";"0168 331260";"";"";"42460";"";"Munterij 8";"4762AH";"ZEVENBERGEN";"NL";"office";"86268"
"195366";"Straaltechniek International B.V.";"078 6511477";"";"";"43181";"";"Bunsenstraat 1";"3316GC";"DORDRECHT";"NL";"office";"202526"
"195374";"Unit4  Business Software B.V.";"0184 444444";"www.unit4agresso.nl";"";"42403";"nl809214209B01";"Papendorpseweg 100";"3528 BJ";"Utrecht";"NL";"office";"86268"
"195380";"Duranmatic B.V.";"078 6310599";"www.duranmatic.nl";"";"42984";"";"Robijn 800";"3316KE";"DORDRECHT";"NL";"office";"202526"
"195444";"Aditech B.V.";"0183 637788";"www.aditech.nl";"";"42359";"";"Franklinweg 29";"4207HX";"GORINCHEM";"NL";"office";"86268"
"195477";"Stena Line B.V.";"0174 389333";"www.stenaline.nl";"";"43023";"";"Stationsweg 10";"3151HS";"HOEK VAN HOLLAND";"NL";"office";"86268"
"195520";"Schouten Insurance International B.V.";"010 2884900";"www.schouteninsurance.com";"";"42869";"";"'s-Gravenweg 431";"3065SC";"ROTTERDAM";"NL";"office";"202526"
"195615";"ECU-Line Rotterdam B.V.";"010 4950444";"www.eculine.net";"";"42455";"";"Nieuwesluisweg 240 havennr.5044";"3197KV";"BOTLEK ROTTERDAM";"NL";"office";"86268"
"195664";"WD-Trucks Zoetermeer B.V.";"0174 526417";"www.wd-trucks.nl";"weg@wd-trucks.nl";"42251";"";"Bandijkweg 62";"2676LJ";"MAASDIJK";"NL";"office";"86268"
"195696";"Zeilmakerij D. Wakker B.V.";"010 5912288";"www.wakker.nl";"";"42241";;"Scheldeweg 7";"3144ES";"MAASSLUIS";"NL";"office";"86268"
"195713";"Van der Most Transport B.V.";"010 4953744";"www.vandermost.nl";"";"42433";"";"Van Riemsdijkweg 16 -18";"3088HC";"ROTTERDAM";"NL";"office";"86268"
"195809";"Parkerhouse Finans Nederland B.V.";"0182 624400";"www.amfafinans.nl";"";"43062";"";"Reeuwijkse Poort 107 b";"2811MX";"REEUWIJK";"NL";"office";"86268"
"195939";"Hofa B.V.";"079 3614022";"www.hofa.nl";"";"42748";"";"Koperstraat 35";"2718RG";"ZOETERMEER";"NL";"office";"202526"
"195994";"Hilti Nederland B.V.";"010-5191111";"www.hilti.nl";"";"42992";"";"Leeuwenhoekstraat 4";"2652XL";"BERKEL EN RODENRIJS";"NL";"office";"86268"
"196026";"Haring Technische Groothandel B.V.";"015 2512345";"www.haring.nl";"";"42522";"";"Rotterdamseweg 382";"2629 HG";"DELFT";"NL";"office";"86268"
"196080";"Van Egmond Potgrond B.V.";"020 4110386";"www.egmondpotgrond.nl";"cjjr@egmondpotgrond.com";"42247";"";"Ankerweg 4";"1041AT";"AMSTERDAM";"NL";"office";"86268"
"196100";"Schulpen Schuim Leiden B.V.";"071 5312121";"WWW.MULTY.NL";"boekhouding.schulpen@multy.nl";"42305";"";"Zaalbergweg 17";"2314XS";"LEIDEN";"NL";"office";"86268"
"196115";"C. Steenvoorden B.V.";"0252 520350";"www.steenvoorden.nl";"";"42239";"";"Veenenburgerlaan 86";"2182DC";"HILLEGOM";"NL";"office";"86268"
"196195";"M+ Marketing Informatics B.V.";"0172 428800";"www.mplus.nl";"";"43121";"808100026601";"Hoorn 131";"2404HH";"ALPHEN AAN DEN RIJN";"NL";"office";"86268"
"196262";"Kwekerij Verboom B.V.";"0180 631713";"www.kwekerijverboom.nl";"info@kwekerijverboom.nl";"42842";"";"Zuidelijke Dwarsweg 13";"2761JN";"ZEVENHUIZEN ZH";"NL";"office";"86268"
"196343";"Metaal- en Kunststoffen Industrie Snelder B.V";"030 2615601";"www.snelder.nl";"";"42693";"";"Ontariodreef 39 -41";"3565BB";"UTRECHT";"NL";"office";"86268"
"196346";"Selecta Olland B.V.";"0418 657800";"www.selecta.com";"";"42875";"";"Koeweistraat 10";"4181CD";"WAARDENBURG";"NL";"office";"86268"
"196413";"Hitachi Power Tools Netherlands B.V.";"030 6084040";"www.hitachi-powertools.nl";"admin@Hitachi-powertools.nl";"42574";"";"Brabanthaven 11";"3433PJ";"NIEUWEGEIN";"NL";"office";"86268"
"196447";"Technisch Bureau Koppes B.V.";"030 6877494";"www.tbk-holland.nl";"";"42687";"";"Lorentzlaan 9";"3401MX";"IJSSELSTEIN UT";"NL";"office";"86268"
"196468";"Floor Beveiligingstechniek B.V.";"0346 213426";"www.floorrolluiken.nl";"";"43081";"";"Groenekanseweg 24";"3737AG";"GROENEKAN";"NL";"office";"202526"
"196472";"Busch B.V.";"0348 462300";"www.busch.nl";"";"42916";"";"Pompmolenlaan 2";"3447GK";"WOERDEN";"NL";"office";"86268"
"196532";"Hollindia International B.V.";"030 6579599";"www.hollindia.com";"";"42604";"";"Drenthehaven 30";"3433PB";"NIEUWEGEIN";"NL";"office";"86268"
"196601";"Flexlink Systems B.V.";"023 5543100";"www.flexlink.nl";"";"42647";"";"Diamantlaan 51";"2132WV";"HOOFDDORP";"NL";"office";"86268"
"196739";"Smit & Dorlas Koffiebranders B.V.";"0297 284000";"www.smitdorlas.nl";"";"42283";"";"Nijverheidsweg 1";"3641RP";"MIJDRECHT";"NL";"office";"86268"
"196762";"Bouwbedrijf Van den Hengel B.V.";"035 6092222";"www.vdhengel.nl";"";"42703";"";"Veldweg 2 /B";"3764CP";"SOEST";"NL";"office";"202526"
"196795";"Beijersbergen en Partners";"033 4557501";"www.beijersbergen.com";"";"43054";"";"Beeldschermweg 5 -9";"3821AH";"AMERSFOORT";"NL";"office";"202526"
"196936";"MD Services B.V.";"035 5234909";"www.mdservices.nl";"";"43158";;"Kobaltstraat 11 b";"1411AM";"NAARDEN";"NL";"office";"86268"
"196952";"G. Vlastuin Transport B.V.";"0318 571827";"www.vlastuintransport.nl";"";"43130";"";"Barneveldsestraat 11";"3927CA";"RENSWOUDE";"NL";"office";"202526"
"196991";"Novagraaf Nederland B.V.";"020 5641411";"www.novagraaf.nl";"";"42697";"";"Hoogoorddreef 5";"1101 BA";"AMSTERDAM ZUIDOOST";"NL";"office";"86268"
"197000";"Koninklijke Saan B.V.";"020 6606060";"www.saan.nl";"";"42436";"";"Weesperstraat 78 - 82";"1112AN";"DIEMEN";"NL";"office";"86268"
"197076";"Manpower B.V.";"020-6602222";"www.manpower.nl";"miriam.van.der.woud@manpower.nl";"42540";"";"Diemerhof 16";"1112XN";"DIEMEN";"NL";"office";"86268"
"197130";"ECEM European Chemical Marketing B.V.";"020 3128200";"www.ecem.com";"";"42556";"";"Hogehilweg 18";"1101CC";"AMSTERDAM ZUIDOOST";"NL";"office";"86268"
"197308";"Troostwijk Groep B.V.";"020 6666666";"www.troostwijk.com";"";"43022";"";"Anderlechtlaan 181";"1066HM";"AMSTERDAM";"NL";"office";"86268"
"197355";"H.G.I. Glas Industrie B.V.";"020 6810250";"www.hgiglas.nl";"";"42291";"";"Nieuwe Hemweg 32";"1013CX";"AMSTERDAM";"NL";"office";"86268"
"197444";"Spraybest Europe B.V.";"020 4976780";"www.spraybest.nl";"";"42548";"";"Zwanenburgerdijk 335";"1161NN";"ZWANENBURG";"NL";"office";"86268"
"197466";"Federal Express Europe Inc.";"020-5005604";"";"";"42762";"";"Breguetlaan 20";"1438BC";"OUDE MEER";"NL";"office";"86268"
"197562";"Geotech International B.V.";"023 5317553";"www.geotech.nl";"";"42222";"";"Nijverheidsweg 50";"2031CP";"HAARLEM";"NL";"office";"86268"
"197574";"Uniserver Internet B.V.";"+31(0) 72 572 56 46";"www.uniserver.nl";"";"42975";"";"Robijnstraat 3";"1812 RB";"Alkmaar";"NL";"office";"86268"
"197628";"PPExport B.V";"0297 546123";"www.petersplant.nl";"info@ppexport.eu";"42374";"";"Cotoneaster 21 (VBA Zuid)";"1424 LB";"De Kwakel";"NL";"office";"86268"
"197692";"Freshtrans B.V.";"0297 362618";"www.fresh-trans.nl";"";"42399";"";"Poelweg 40";"1424PB";"De Kwakel";"NL";"office";"86268"
"197705";"Houthoff Buruma Coöperatief UA";"020 6056000";"www.houthoff.com";"";"42727";"";"Gustav Mahlerplein 50";"1082MA";"AMSTERDAM";"NL";"office";"86268"
"197813";"HSB Bouw B.V.";"0299 398900";"www.hsb-bouw.nl";"";"43151";"";"Slobbeland 10";"1131AB";"VOLENDAM";"NL";"office";"86268"
"197825";"Groot Afbouwbedrijf B.V.";"0299 365160";"www.grootafbouw.nl";"";"42231";"";"Julianaweg 147";"1131DH";"VOLENDAM";"NL";"office";"86268"
"197859";"Honing Metaal B.V.";"0228 350950";"";"";"42267";"";"Korenmarkt 1";"1681PB";"ZWAAGDIJK";"NL";"office";"86268"
"197868";"Medistad Medical B.V";"0227 546600";"www.medistad.com";"";"42245";"";"Nijverheidsweg 1";"1671GC";"MEDEMBLIK";"NL";"office";"86268"
"197958";"Mastermate Van Ree B.V.";"072 5123235";"www.mastermate.nl";"";"42458";"";"Prof van der Waalsstraat 7 -9";"1821BT";"ALKMAAR";"NL";"office";"86268"
"197966";"PontMeyer N.V.";"075 6536262";"www.pontmeyer.nl";"";"42654";"";"Symon Spiersweg 17";"1506RZ";"ZAANDAM";"NL";"office";"86268"
"198023";"Tauw B.V.";"0570 699370";"www.tauw.nl";"";"42570";"";"Handelskade 37";"7418CA";"DEVENTER";"NL";"office";"86268"
"198027";"OAD Reizen B.V. [failliet]";"0548 377777";"www.oad.nl";"";"42398";"";"Postbus 20";"7451 CH";"HOLTEN";"NL";"office";"86268"
"198046";"Tech Data Nederland BV";"0881334159";"";"";"42472";"";"Tolnasingel 2";"2411 PV";"Bodegraven";"NL";"office";"86268"
"198053";"Saint-Gobain Abrasives B.V.";"0545 471766";"www.flexofit.com";"";"42722";"NL008545844B01";"Groenloseweg 28";"7151HW";"EIBERGEN";"NL";"office";"86268"
"198065";"SMT Netherlands B.V. (voorheen Kuiken BV)";"0527 636500";"www.kuiken.nl";"info.nl@smt.network";"42483";"NL855311344B01";"Dukaat 1";"8305BC";"EMMELOORD";"NL";"office";"86268"
"198069";"Feenstra Verwarming B.V.";"020 34 28 125";"www.feenstra.com";"";"42281";;"Steenstraat 1";"8211AG";"LELYSTAD";"NL";"office";"86268"
"198153";"Bijvast Afbouw B.V.";"036 5335335";"";"";"42712";"";"Zandzuigerstraat 11 K";"1333MV";"ALMERE";"NL";"office";"202526"
"198282";"Stichting WoonFriesland";"(0566) 62 91 29";"WWW.WOONFRIESLAND.NL";"anne.de.haan@woonfriesland.nl";"42206";;"Oedsmawei 26";"9001ZJ";"GROU";"NL";"office";"86268"
"198285";"Constar Betonwaren B.V.";"0344611222";"www.constar.nl";"";"42202";;"Zuiderhavenweg 56";"4004JJ";"TIEL";"NL";"office";"86268"
"198286";"Docqmans Brouwerij BV";"0487 512488";"";"info@docqmans.nl";"42203";"NL816032609B01";"Zuiderhavenweg 56";"4004 JJ";"Tiel";"NL";"office";"86268"
"198288";"BMK klanten achteraf facturatie";"040-2454045";"";"";"42357";"";"Polluxstraat 110a - 112a";"5631ES";"Eindhoven";"NL";"office";"86268"
"198289";"Volker Stevin Materieel B.V.";"0786546300";"www.vsmaterieel.nl";"";"42208";"";"Donker Duyvisweg 75";"3316 BL";"DORDRECHT";"NL";"office";"86268"
"198293";"Hertel BV";"0512-334806";"www.hertel.com";"";"42207";"";"Het Anker 1a";"9206AL";"Drachten";"NL";"office";"86268"
"198297";"Rofame B.V.";"076 5789711";"";"m.vangemerden@rasenberg.nl";"42209";;"Ramgatseweg 13 C";"4941 VN";"Raamsdonksveer";"NL";"office";"86268"
"198299";"2-Contact Direct Marketing B.V.";"023-5145555";"www.2contact.com";"info@2contact.com";"42210";;"Prins Hendrikstraat 1";"2011 VM";"Haarlem";"NL";"office";"86268"
"198355";"DHL Global Forwarding (Netherlands) B.V.";"020 4564802";"";"";"42516";"";"Prestwickweg 1";"1118LC";"Schiphol Zuid Oost";"NL";"office";"86268"
"198404";"Taxi Brouwer B.V.";"071 3647555";"www.taxibrouwer.nl";"arnold@brouwers-tours.nl";"42303";"";"Keyserswey 38 -40";"2201CW";"NOORDWIJK ZH";"NL";"office";"86268"
"198533";"DSV Solutions Nederland B.V.";"020 6584848";"";"richard.vanmastbergen@nl.dsv.com";"42499";"";"Cessnalaan 50";"1119NL";"SCHIPHOL-RIJK";"NL";"office";"86268"
"198622";"Zantingh B.V.";"0297 219100";"www.zantingh.com";"";"42547";"";"Aarbergerweg 9";"1435CA";"RIJSENHOUT";"NL";"office";"86268"
"198835";"Van der Luyt Transport B.V.";"071 5155044";"www.vanderluyt.nl";"";"42585";"";"Haarlemmerstraatweg 52";"2343LB";"OEGSTGEEST";"NL";"office";"86268"
"199057";"Bouter Bouw B.V.";"071 5310506";"www.bouterbouw.nl";"";"42741";;"Telderskade 2 A";"2321TD";"LEIDEN";"NL";"office";"86268"
"199184";"Antec Leyden B.V.";"071 5813333";"www.myantec.com";"";"43168";"";"Industrieweg 12";"2382NV";"ZOETERWOUDE";"NL";"office";"202526"
"199619";"Codor Dorned B.V.";"079 3435070";"";"";"42382";"";"Industrieweg 6";"2712LB";"ZOETERMEER";"NL";"office";"86268"
"199900";"Drukkerij Verweij B.V.";"023-5173400";"www.boomvanketel.nl";"";"42252";"";"Communicatieweg 1";"3641SC";"Mijdrecht";"NL";"office";"86268"
"199912";"Bocari Engineering Netherlands B.V.";"0767507600";"";"";"42213";;"Huifakkerstraat 15";"4815PN";"BREDA";"NL";"office";"86268"
"199915";"T.H. van Slooten";"";"";"t.vanslooten@koopmansmeel.nl";"42217";"";"Hazzeleger 8";"9254BC";"Hurdegaryp";"NL";"office";"86268"
"199918";"MIRA INFORM PRIVATE LIMITED";"91-22-40448007";"www.mirainform.com";"chirag@mirainform.com";"25355";"";"605, Palmspring, Near DMart, Malad Link Road, Malad (West),";"400 064";"Mumbai";"IN";"office";"86268"
"199919";"Kompak Nederland B.V.";"076 5027020";"www.kompak.nl";"paul.koopman@kompak.nl";"42221";;"Munnikheiweg 63";"4879 NE";"Etten Leur";"NL";"office";"86268"
"199922";"Vereniging van Eigenaren de Lijnbaan";"06-42108091";"";"";"42227";"";"p/a Graslelie 62";"2224JV";"Katwijk";"NL";"office";"86268"
"199923";"Ruttchen Holding BV";"";"";"";"42224";;"Ettensebaan 34";"4814NN";"Breda";"NL";"office";"86268"
"199924";"PPG Coatings Nederland B.V.";"";"";"";"42225";"";"Amsterdamseweg  14";"1422AD";"Uithoorn";"NL";"office";"86268"
"199929";"Bureau aan Zee BV";"071 3641137";"www.aanzee.nl";"info@aanzee.nl";"42229";"";"Erasmusweg 19";"2202CA";"Noordwijk";"NL";"office";"86268"
"199969";"Drieplex B.V.";"0786166850";"";"";"42269";;"Zuidendijk 272";"3319LK";"DORDRECHT";"NL";"office";"86268"
"199983";"Holland Timber B.V.";"035-6948384";"www.holland-timber.nl";"holtim@worldonline.nl";"42275";"";"Bollelaan 1";"1411JV";"NAARDEN";"NL";"office";"86268"
"200040";"Houthandel Diederen Schinveld B.V.";"0455273355";"";"diederen.houthandel@planet.nl";"42814";"";"Brunssummerstraat 35";"6451CP";"SCHINVELD";"NL";"office";"86268"
"200183";"Springflower Holding BV";"0297380155";"paul.gumbs@springflowerholding.com";"informatie@springflowerholding.com";"42253";;"Noordpolderweg 20";"1432 JH";"AALSMEER";"NL";"office";"86268"
"200332";"PPG";"";"";"";"42234";;"Postbus 42";"1420AA";"Uithoorn";"NL";"office";"86268"
"200350";"ReSpons Evenementen Monitor B.V.";"0206272425";"www.printerette.nl";"";"42692";"";"Oderweg 6";"1043AG";"AMSTERDAM";"NL";"office";"202526"
"200353";"S.S.P.";"0206869605";"";"";"42235";;"Eerste Kostverlorenkade 4";"1052EL";"AMSTERDAM";"NL";"office";"86268"
"200417";"Jongeneel Verpakkingen B.V.";"0182555050";"www.jongeneelverpakking.nl";"info@jongeneelverpakking.nl";"42763";"";"Meridiaan 9";"2801DA";"GOUDA";"NL";"office";"202526"
"200421";"Koemans Verpakkingen B.V.";"0182-743209";"www.koemansverpakkingen.nl";"info@koemansverpakkingen.nl";"42445";"";"Nieuwe Gouwe O.Z. 1";"2801SB";"GOUDA";"NL";"office";"86268"
"200509";"Den Doelder Pallets B.V.";"0115562340";"www.dendoelderpallets.eu";"info@dendoelderpallets.eu";"43222";"";"Langeweg 1";"4571RL";"AXEL";"NL";"office";"202526"
"200763";"Ashland Nederland B.V.";"0104975000";"WWW.ASHLAND.COM";"peekman@ashland,com";"42997";"";"Wieldrechtseweg 39";"3316BG";"Dordrecht";"NL";"office";"86268"
"200802";"Synthos Styrenics Services BV";"076-5790149";"www.synthosgroup.com";"";"42989";"";"Lijndonk 25";"4825BG";"BREDA";"NL";"office";"86268"
"200998";"Advanced Label Technologies B.V.";"0302632200";"www.sentega.com";"ronald.bijllaardt@alttechnologies.com";"42309";"";"St.-Laurensdreef 40";"3565AK";"UTRECHT";"NL";"office";"86268"
"201089";"Nefit Industrial B.V.";"0570678570";"www.nefit-industrial.nl";"info@nefit-industrial.nl";"42865";"";"Zweedsestraat 61001";"7418BB";"Deventer";"NL";"office";"202526"
"201102";"Ramaer Printed Circuits BV";"0492-584911";"www.ramaer.nl";"i.dolmans@ramaer.nl";"43123";"";"Vossenbeemd 101";"5705CL";"HELMOND";"NL";"office";"86268"
"201348";"WePayPeople N.V.";"0207163384";"www.payrollworks.nl";"p.bolderdijk@payrollworks.nl";"42517";"";"Postbus 75741";"1070AS";"AMSTERDAM";"NL";"office";"86268"
"201939";"BVCM BV";"020 3460746";"";"c.devos@bvcm.nl";"42277";"";"Hessenbergweg 83";"1101 CX";"Amsterdam";"NL";"office";"86268"
"201940";"Input Support B.V.";"015-3618769";"www.inputadvies.nl";"f.put@inputadvies.nl";"42286";"";"Hoefsmid 11";"2631RH";"Nootdorp";"NL";"office";"86268"
"201944";"Sonneveld Group B.V.";"0786442525";"www.sonneveld.com";"";"42558";"";"Rietgorsweg 1-3";"3356LJ";"PAPENDRECHT";"NL";"office";"86268"
"201947";"Railco Europe B.V.";"078 6390015";"";"quak@railco.nl";"42254";;"Nieuwland Parc 10 N";"2952 DA";"Alblasserdam";"NL";"office";"86268"
"201948";"DSG Diensten B.V.";"030 2808280";"www.stiho.nl";"";"43058";"";"Laagraven 44";"3439LK";"Nieuwegein";"NL";"office";"86268"
"201949";"Koninklijke Nederlandse Vereniging voor Luchtvaart";"0348-437063";"www.knvvl.nl";"info@knvvl.nl";"42256";"";"Houttuinlaan 16 A";"3447 GM";"Woerden";"NL";"office";"86268"
"201950";"Orcon B.V.";"0318544681";"www.orcon.nl";"info@orcon.nl";"42257";;"Storkstraat 23";"3905KX";"VEENENDAAL";"NL";"office";"86268"
"201951";"Accounting aan Zee";"071 7113291";"www.accountingaanzee.nl";"";"42258";;"De Scheysloot 25";"2201GN";"NOORDWIJK ZH";"NL";"office";"86268"
"201968";"PaperlinX B.V.";"0575598545  / failli";"l";"Maarten.van.Neerven@paperlinx.com";"42473";"";"Pollaan 1";"7202BV";"ZUTPHEN";"NL";"office";"86268"
"201973";"Eerste Nederlandse Rondkartonnagefabriek B.V.";"0786731010";"";"mail@enr.nl";"42261";"";"Griendweg 10";"3295KV";"'S-GRAVENDEEL";"NL";"office";"86268"
"201995";"Alcredis Finance B.V.";"0347367800";"www.alcredis.nl";"info@alcredis.nl";"42441";"";"Mijlweg 9";"4131PJ";"VIANEN UT";"NL";"office";"86268"
"202001";"Autodistribution Nederland B.V.";"0162497497";"www.autodistrbution.nl";"info@autodistrbution.nl";"42750";"";"Rederijweg 41";"4906CX";"OOSTERHOUT NB";"NL";"office";"70630"
"202002";"Stichting Tussen Schoolse Opvang Paulusschool";"";"";"";"42260";;"Linnaeuslaan  54";"3571TZ";"Utrecht";"NL";"office";"86268"
"202006";"Akatherm B.V.";"0773088650";"www.akatherm.nl";"info@akatherm.nl";"42265";"";"Postbus 7149";"5980AC";"PANNINGEN";"NL";"office";"86268"
"202011";"MediaServe International C.V.";"0541-200250/ 0800-me";"www.mediaserve.nl";"info@mediaserve.nl";"42276";"";"Boterstraat 41";"7571EB";"Oldenzaal";"NL";"office";"86268"
"202012";"Skysafe Holland B.V.";"0341454175";"";"";"42262";;"Nobelstraat 22";"3846CG";"HARDERWIJK";"NL";"office";"86268"
"202016";"Van Nieuwpoort Beheer B.V.";"0182-597444";"";"";"42263";;"Meridiaan 2";"2801DA";"GOUDA";"NL";"office";"86268"
"202019";"PB Incasso en gerechtsdeurwaarders";"070  319 69 65";"";"L.Oppelaar@pbgroep.com";"42272";"";"Treubstraat 11 B";"2288EG";"Rijswijk";"NL";"office";"86268"
"202038";"Miro Autobedirjf";"";"";"";"42279";;"Michiel de Ruyterstraat 68";"2182XP";"Hillegom";"NL";"office";"86268"
"202040";"WPS Parking Systems B.V.";"0402509111";"www.wps-groep.com";"info@wps-nl.com";"42280";;"Hoevenweg 11";"5652AW";"EINDHOVEN";"NL";"office";"86268"
"202041";"Kender Thijssen ICT Solutions B.V.";"0318885500";"";"";"42285";;"Traverse 1";"3905NL";"VEENENDAAL";"NL";"office";"86268"
"202051";"De Groot Scheepstechniek B.V.";"078-6165599";"www.dgscheepstechniek.nl/";"kd@dgscheepstechniek.nl";"42293";"";"Grevelingenweg 23";"3313LB";"DORDRECHT";"NL";"office";"86268"
"202053";"Scooterspot B.V.";"0204080850";"www.scooterspot.nl";"info@scooterspot.nl";"42292";"";"Pilotenstraat 15";"1059CH";"AMSTERDAM";"NL";"office";"86268"
"202056";"PPG Coatings Nederland B.V.";"";"www.ppg.com";"PDeGraaf@ppg.com";"42294";"";"Amsterdamseweg 14";"1422 AD";"Uithoorn";"NL";"office";"86268"
"202059";"Priva Holding B.V.";"0174522600";"";"";"42295";"";"Zijlweg 3";"2678LC";"De Lier";"NL";"office";"86268"
"202062";"The Markantas Company B.V.";"0105222906";"www.markantas.nl";"";"42296";"NL815567959B01";"Minstreelstraat 40";"3051PK";"ROTTERDAM";"NL";"office";"86268"
"202063";"De Groot Scheepsbouw & Reparaties B.V.";"0168416630";"";"kd@dgstechniek.nl";"42297";"";"Havenkant 6";"4781AA";"Moerdijk";"NL";"office";"86268"
"202064";"Codian Robotics B.V.";"0318-502671";"www.codian-robotics.com";"f.hartman@codian-robotics.nl";"42300";"";"Wildeman 2";"3905TL";"Veenendaal";"NL";"office";"86268"
"202065";"Best Garden Centre";"0024-9183460101";"";"fathis66@hotmail.com";"42299";"";"Amarat Street";"-";"Khartoun";"NL";"office";"86268"
"202066";"Onderhoudsbedrijf Amir";"";"";"onderhoudsbedrijf.amir@gmail.com";"42301";"";"Zuiderparklaan 306";"2574GN";"'s-Gravenhage";"NL";"office";"86268"
"202067";"ForFarmers Group B.V.";"0573 - 288800";"www.forfarmers.eu";"info@forfarmers.eu";"43152";"";"Kwinkweerd 12";"7241CW";"LOCHEM";"NL";"office";"202526"
"202069";"Tommy Hilfiger Europe B.V.";"0205899888";"www.tommy.com";"info@tommy.com";"42907";"";"Stadhouderskade 6";"1054ES";"Amsterdam";"NL";"office";"86268"
"202070";"HartmanBouwVisie";"0318-698435";"www.hartmanbouwvisie.nl";"ben.hartman@hartmanbouwvisie.nl";"42302";"";"Horaplantsoen 20";"6717LT";"Ede";"NL";"office";"86268"
"202071";"Jacobs en van Dongen Beheer B.V.";"0486453228";"";"";"42304";"";"Hogeweg 1";"5411LP";"ZEELAND";"NL";"office";"86268"
"202073";"van der Vlugt";"";"";"vlugtspringfields@hetnet.nl";"42306";"";"de Madelief 98";"2161 EX";"Lisse";"NL";"office";"86268"
"202074";"Eurofins NSC Netherlands B.V.";"076 5737373";"";"marcoerlemans@eurofins.com";"42307";"NL850435766B01";"Koopvaardijweg 32 - 34";"4906CV";"Oosterhout";"NL";"office";"86268"
"202076";"Mooyekind Makelaars";"06-55375775";"www.mooyekindmakelaars.nl";"info@mooyekindmakelaars.nl";"42308";"";"Meer en Duin 50a";"2163HC";"Lisse";"NL";"office";"86268"
"202078";"Zwennes Advocaat";"0205205100";"www.spuistraat10.nl";"";"42310";"";"Spuistraat 10";"1012TS";"AMSTERDAM";"NL";"office";"86268"
"202079";"Technisch Adviesbureau Elbersen B.V.";"023-5296021";"www.teklab.nl";"tech@teklab.nl";"42311";"NL802378560B01";"Herenweg 29 A-1hg";"2105MB";"Heemstede";"NL";"office";"86268"
"202081";"B.V. Holding B.S.T.";"0742500285";"www.bst.nl";"info@bst.nl";"42312";"";"Pasmaatweg 31";"7556PH";"HENGELO OV";"NL";"office";"86268"
"202082";"Gasstookwacht Centrale B.V.";"0252 340560";"";"gws@planet.nl";"42313";"";"Gieterij 44 A";"2211 XK";"Noordwijkerhout";"NL";"office";"86268"
"202083";"KroegBizz";"";"www.kroegquiz.nl";"info@kroegquiz.nl";"42314";"NL820295322B01";"Het Lappennest 33";"2204BS";"Noordwijk ZH";"NL";"office";"86268"
"202084";"SZ B.V.";"";"www.solari.nl";"info@solari.nl";"42315";"NL104106244B01";"Pastoor Kuypersstraat 20 -22";"5144RJ";"Waalwijk";"NL";"office";"86268"
"202085";"C- View B.V.";"0252-421750";"www.alkemade.nl";"info@alkemade.nl";"42316";"NL809399957B01";"Ruishornlaan 19";"2162VW";"Lisse";"NL";"office";"86268"
"202088";"Creman BV [Chartis Europe]";"035 5395566";"";"blanken@creman.nl";"42318";"";"Postbus 137";"1250AC";"Laren";"NL";"office";"86268"
"202089";"Oud Clingendaal Management Service B.V.";"070 5151340";"";"m.fetter@louwmangroup.nl";"42319";"";"Donau 34";"2491 BA";"Den Haag";"NL";"office";"86268"
"202090";"Zenon Jakubowski";"06-10671061";"";"";"42320";"25931844B02";"Michiel de Ruijterstraat 68";"2182XP";"Hillegom";"NL";"office";"86268"
"202091";"Gerechtsdeurwaarderskantoor De Man & Partners B.V.";"0318 559630";"";"c.de.man@pbgroep.com";"42321";"";"Vendelier 65";"3905 PD";"Veenendaal";"NL";"office";"86268"
"202092";"Pirtek B.V.";"010 2383222";"";"bsel.benelux@pirtek.nl";"42586";"";"Hongkongstraat 29";"3047BR";"ROTTERDAM";"NL";"office";"86268"
"202093";"Valid Expres";"06 48431718";"www.validexpress.nl";"jo.vonck@validexpress.nl";"42322";"";"Asterweg 10";"1031HN";"Amsterdam";"NL";"office";"86268"
"202103";"Graydon Nederland B.V.";"020 5679999";"www.graydon.nl";"info@graydon.nl";"42373";"";"Hullenbergweg 250";"1101BV";"AMSTERDAM ZUIDOOST";"NL";"office";"86268"
"202104";"Gijs Wieman Koel-en Klimaattechniek";"030 6771797";"";"lvb@koeltechniek.nl";"42325";"";"Boteyken 209";"3454 PD";"De Meern";"NL";"office";"86268"
"202113";"Schut & Bruggink";"023 5299888";"";"";"42328";"";"Leidsevaart 580";"2100 AA";"Heemstede";"NL";"office";"86268"
"202115";"Loc7000 BV";"0573 254459";"richard.rensen@loc7000.com";"administratie@loc7000.com";"42329";"";"Hanzeweg 26";"7241 CS";"Lochem";"NL";"office";"86268"
"202116";"Xileigong BV";"0252 530429";"";"x.chiang25@gmail.com";"42330";"";"Haarlemmerstraat 2";"2181 HC";"Hillegom";"NL";"office";"86268"
"202117";"Insulation Solutions B.V.";"013 5720607";"www.insulationsolutions.nl";"info@insulationsolutions.nl";"42430";"";"Minosstraat 40";"5048CK";"TILBURG";"NL";"office";"86268"
"202118";"Valerio Administratie & Advies";"033 4328767";"www.veliconsult.nl";"info@veliconsult.nl";"42331";"";"Begoniastraat 5";"3812 WG";"Amersfoot";"NL";"office";"86268"
"202121";"GDK-Medical Consultancy";"0411-642600";"www.seksuologischehulp.nl";"g.dekroon@home.nl";"42332";"";"Burg. Van Rijswijkstraat  1";"5268EG";"Helvoirt";"NL";"office";"86268"
"202122";"Draais BV";"06 22950177";"";"bob@draais.nl";"42333";"";"Kanaalstraat 108 A";"2161JR";"Lisse";"NL";"office";"86268"
"202123";"TEIDEM";"040 2919666";"www.collactive.nl";"algemeen@collactive.nl";"42334";"";"Touwbaan 38";"2352CZ";"Leiderdorp";"NL";"office";"86268"
"202124";"Dragon King BV";"030-2751600";"";"info@xileigong.nl";"42335";"850343458B01";"Damzigt";"3454PS";"De Meern";"NL";"office";"86268"
"202125";"Xieren Chiang";"0252-530429";"";"x.chiang25@gmail.com";"42336";"";"Haarlemmerstraat 2";"2181HC";"Hillegom";"NL";"office";"86268"
"202127";"Watercompany B.V.";"0165305580";"www.watercompany.nl";"";"42337";"";"De Gorzen 21";"4731TV";"Oudenbosch";"NL";"office";"86268"
"202129";"[Klant Magic software 07.421.12] BMK Incasso B.V.";"040 2454045";"www.bmkincasso.nl";"info@bmkincasso.nl";"42338";"";"Polluxstraat 110";"5631ES";"EINDHOVEN";"NL";"office";"198288"
"202130";"Hanse Debitoren Management";"+49 (0)40 ? 85 41 41";"www.hanse-debitoren.de";"s.buckenberger@hanse-debitoren.de";"42343";"DE277454333";"Winsbergring 10";"22525";"Hamburg";"DE";"office";"86268"
"202132";"CM Rent";"0342-416108";"";"info@roadbarneveld.nl";"42344";"807980833";"Harselaarseweg 107.";"3771MA";"Barneveld";"NL";"office";"86268"
"202133";"Taverne Projecten B.V.";"071 3611181";"";"anja@anjavandermeij.nl";"42345";"807859400";"Beeklaan 266";"2201BP";"Noordwijk";"NL";"office";"86268"
"202134";"Collactive B.V. [ALERTSERVICE]";"0402919666";"www.collactive.nl";"algemeen@collactive.nl";"42346";"";"Henri Wijnmalenweg 5";"5657EP";"Eindhoven";"NL";"office";"86268"
"202135";"BELGOTEX INTERNATIONAL NV";"003293381226";"";"brigitte.polet@b-int.be";"42347";"BE447505441";"GROENEDREEF 5";"9770";"KRUISHOUTEM";"BE";"office";"86268"
"202136";"Landport BV";"(0) 162 58 14 00";"www.landportbv.com";"hans@landportbv.com";"42348";"";"Ramgatseweg  63";"4941VN";"Raamsdonksveer";"NL";"office";"86268"
"202137";"CnC Groep V.O.F.";"035 5395566";"www.cncgroep.nl";"";"42349";"";"Slangenweg 10";"1251RV";"LAREN NH";"NL";"office";"86268"
"202138";"Accu Viks B.v.b.A.";"+32 (0)9 386 78 58";"";"nathalie@landportbv.com";"42350";"BE 449 341 513";"Filliersdreef 65";"B9800";"DEINZE";"BE";"office";"86268"
"202139";"Yokohama Nederland B.V.";"0162 589500";"www.yokohama.nl";"nathalie@landportbv.com";"42351";"";"Ramgatseweg 63";"4941VN";"RAAMSDONKSVEER";"NL";"office";"86268"
"202140";"Esther Stoppelenburg Holding B.V.";"0172230633";"";"foodmixinternational@mail.com";"42352";"";"Hertzogstraat 151";"2572VW";"'s-Gravenhage";"NL";"office";"86268"
"202141";"Finitro BV";"078-6522720";"www.finitro.com";"leo@finitro.com";"42354";"";"Kelvinring 44";"2952BG";"ALBLASSERDAM";"NL";"office";"86268"
"202142";"Incasso Noord";"06 12080924";"";"info@incassonoor.nl";"42355";"";"Postbus 17";"8560 AA";"Balk";"NL";"office";"86268"
"202143";"Administratiekantoor Van Asselt";"073-6570524";"";"ava@mvanasselt.nl";"42356";"";"Klein Brabant 155";"5262RS";"Vught";"NL";"office";"86268"
"202144";"Hornbach Bouwmarkt (Nederland) B.V.";"0107519650";"www.cashcontrolinformatiediensten.nl";"";"42358";"";"Ravenswade 56 R + S";"3439LD";"Nieuwegein";"NL";"office";"100209"
"202145";"Stichting Waternet";"010 7519650";"www.cashcontrolinformatiediensten.nl";"";"42360";"";"Korte Ouderkerkerdijk 7";"1096AC";"Amsterdam";"NL";"office";"100209"
"202147";"CnC Groep V.O.F.";"0355395566";"www.cncgroep.nl";"info@cncgroep.nl";"42362";"";"Melkweg 23";"1251PP";"Laren";"NL";"office";"86268"
"202148";"CnC Groep V.O.F.";"0355395566";"www.cncgroep.nl";"info@cncgroep.nl";"42363";"";"Melkweg 23";"1251PP";"Laren";"NL";"office";"86268"
"202149";"Teuling C+I B.V.";"";"www.webaffairs.nl";"teuling@cplusi.nl";"42364";"";"R. Tappenbeckweg 4";"2202CD";"Noordwijk";"NL";"office";"86268"
"202150";"Bert Teunissen Photographer";"";"";"";"42365";"";"Noordwal 12";"1274AE";"Huizen";"NL";"office";"86268"
"202151";"Veris Bouwmaterialengroep B.V.";"010 7519650";"www.cashcontrolinformatiediensten.nl";"";"42366";"";"Vijzelmolenlaan 20";"3447GX";"Woerden";"NL";"office";"100209"
"202152";"Shoe Concept B.V.";"0172579202";"www.comforta.nl";"";"42367";"";"Nijverheidsweg 5";"2421LR";"Nieuwkoop";"NL";"office";"86268"
"202153";"Geluk Holding";"071 3640060";"";"";"42368";"";"Willem Alexanderpark 25";"2202 XW";"Noordwijk";"NL";"office";"86268"
"202154";"van Hemert industrie";"";"";"administratie@vanhemertperslucht.nl";"42369";"";"Tuindorp 32";"4191 KE";"Geldermalsen";"NL";"office";"86268"
"202155";"Uitzendbureau IJsselmonde B.V.";"010 7519650";"";"";"42370";"";"Laan op Zuid 486";"3071AB";"ROTTERDAM";"NL";"office";"86268"
"202156";"Oliecentrale Nederland";"0402919666";"www.collactive.nl";"algemeen@collactive.nl";"42371";"";"Driepoortenweg 54";"6827BR";"Arnhem";"NL";"office";"70630"
"202157";"Trust Krediet Beheer B.V.";"0206200666";"www.tkb.nl";"incasso@tkb.nl";"42372";"";"Thomas R. Malthusstraat 1";"1066JR";"Amsterdam";"NL";"office";"86268"
"202158";"Quaker Chemical BV";"0402919666";"www.collactive.nl";"algemeen@collactive.nl";"42375";"";"Industrieweg 7";"1422AH";"Uithoorn";"NL";"office";"70630"
"202159";"BMK Credit Solutions B.V. [CN Payrol]";"040 2454045";"";"";"42376";"";"Polluxstraat 110";"5631ES";"EINDHOVEN";"NL";"office";"198288"
"202160";"BMK Credit Solutions B.V. [Van Esch 09.309.02]";"040 2454045";"";"";"42377";"";"Polluxstraat 110";"5631ES";"EINDHOVEN";"NL";"office";"86268"
"202161";"BMK Credit Solutions B.V. [Tropenzorg]";"040 2454045";"";"";"42378";"";"Polluxstraat 110";"5631ES";"EINDHOVEN";"NL";"office";"198288"
"202162";"Benfried B.V.";"015 256 9356";"";"jeroen@benfried.com";"42379";"";"Hooipolderweg 1";"2635 CZ";"Den Hoorn";"NL";"office";"86268"
"202163";"Peinemann Holding B.V.";"010 7519650";"www.cashcontrolinformatiediensten.nl";"";"42380";"";"Nieuwe Langeweg 40";"3194DB";"Hoogvliet Rotterdam";"NL";"office";"100209"
"202164";"VBT Groep  Mastermate";"015 2700050";"";"c.denhertog@mastermate.nl";"42381";"";"Importweg 3";"2645 EC";"Delfgauw";"NL";"office";"86268"
"202166";"Pon's Automobielhandel B.V.";"0334949944";"www.pon.nl";"";"42584";"";"Zuiderinslag 2";"3833BP";"Leusden";"NL";"office";"86268"
"202167";"ALSO Nederland B.V.";"010 7519650";"www.cashcontrolinformatiediensten.nl";"";"42383";"";"Archimedesbaan 26";"3439ME";"Nieuwegein";"NL";"office";"202731"
"202168";"MKB Office B.V.";"020 8208334";"www.mkb-office.nl";"";"42384";"";"Science Park 400";"1098XH";"AMSTERDAM";"NL";"office";"86268"
"202169";"Belfabriek B.V.";"010 7519650";"";"";"42386";"";"Parkstraat 83";"2514JG";"'s-Gravenhage";"NL";"office";"86268"
"202170";"Its Rotterdam B.V.";"010 7519650";"www.cashcontrolinformatiediensten.nl";"";"42387";"";"Sluisjesdijk 20 -32";"3087AH";"Rotterdam";"NL";"office";"100209"
"202171";"Software Improvement Group B.V.";"020 3140950";"www.sig.eu/nl";"info@sig.nl";"42388";"";"Amstelplein 1";"1096HA";"Amsterdam";"NL";"office";"86268"
"202172";"Kone B.V.";"010 7519650";"www.cashcontrolinformatiediensten.nl";"";"42389";"";"Lange Nieuwstraat 227";"3111 AJ";"Schiedam";"NL";"office";"100209"
"202173";"Jonka B.V.";"0182382485";"";"bertha@jonka.nl";"42390";"";"Bovenberg 68";"2861 BB";"Bergambacht";"NL";"office";"86268"
"202174";"Waterdrinker Aalsmeer B.V.";"0297 332211";"www.waterdrinker.nl";"info@waterdrinker.nl";"42391";"";"Legmeerdijk 313";"1431GB";"Aalsmeer";"NL";"office";"86268"
"202175";"Carlson Wagonlit Nederland BV";"0402919666";"www.collactive.nl";"algemeen@collactive.nl";"42392";"";"Wisselwerking 58";"1112 XS";"Diemen";"NL";"office";"70630"
"202177";"BMK Credit Solutions B.V. [henze]";"040 2454045";"";"";"42394";"";"Polluxstraat 110";"5631ES";"EINDHOVEN";"NL";"office";"198288"
"202179";"R. Muilwijk Installatie & Onderhoud";"";"";"";"42395";"";"Oranje Nassaustraat  65";"2202TK";"Noordwijk";"NL";"office";"86268"
"202180";"Artiflex B.V.";"078 6416080";"www.artiflex.com";"";"42545";"";"Buitendijks 53";"3356LX";"PAPENDRECHT";"NL";"office";"86268"
"202181";"BvCP B.V.";"020 3460737";"www.bvcp.nl";"";"42396";"";"Overschiestraat 63";"1062XD";"AMSTERDAM";"NL";"office";"86268"
"202182";"Interface European Manufacturing B.V.";"033 2775555";"";"";"42397";"";"Industrielaan 15";"3925BD";"SCHERPENZEEL GLD";"NL";"office";"86268"
"202184";"Scania Nederland B.V.";"0765254000";"www.scania.nl";"";"42400";"";"Spinveld 57";"4815HV";"Breda";"NL";"office";"86268"
"202185";"Scania Belgium NV SA";"0765254000";"www.scania.nl";"";"42401";"";"A. van Osslaan 1 bus 28";"B-1120";"Neder-Over-Heembeek";"BE";"office";"86268"
"202186";"Best Fresh Group B.V.";"0174 530830";"www.bestfreshgroup.com";"dennis.molenkamp@bestfreshgroup.com";"42402";"";"ABC Westland 102";"2685DB";"POELDIJK";"NL";"office";"86268"
"202187";"Scholle Europe B.V.";"0402919666";"www.collactive.nl";"algemeen@collactive.nl";"42404";"";"Minervum 70-81";"4817 SK";"Breda";"NL";"office";"70630"
"202188";"Metaal Transport B.V.";"010 4913200";"";"wjdg@metaaltransport.nl";"42405";"";"Heijplaatweg";"3089JC";"Rotterdam";"NL";"office";"86268"
"202189";"Barnhoorn Flowers B.V.";"0297 322644";"";"";"42406";"";"Legmeerdijk 313";"1431GB";"AALSMEER";"NL";"office";"86268"
"202190";"Buiter Beton B.V.";"0523 657000";"www.buiterbeton.nl";"info@buiterbeton.nl";"42407";"";"Hoogeveenseweg 27";"7707CG";"BALKBRUG";"NL";"office";"86268"
"202191";"Deltafix International B.V.";"020 6556390";"www.deltafix.com";"info@deltafix.com";"42408";"";"Kruisweg 755";"2132NE";"HOOFDDORP";"NL";"office";"86268"
"202192";"Maxima Seafood B.V.";"0255 546060";"www.karelhoeve.nl";"info@karelhoeve.nl";"42411";"";"Halkade 16";"1976DC";"IJMUIDEN";"NL";"office";"86268"
"202193";"Milin B.V.";"030-6069223";"www.milin.nl | www.vinyplus.nl";"info@milin.nl";"42410";"";"Brabanthaven 1";"3433 PJ";"Nieuwegein";"NL";"office";"86268"
"202195";"Van Zon Business";"";"";"";"42412";"";"Postbus 122";"1110 AC";"Diemen";"NL";"office";"86268"
"202196";"Hogenbirk Bedrijfswagens B.V.";"0104104000";"www.hogenbirk-mb.nl";"info@hogenbirk-mb.nl";"42413";"";"Driemanssteeweg 20";"3084CB";"Rotterdam";"NL";"office";"86268"
"202197";"SST Benelux BV";"0402919666";"www.collactive.nl";"algemeen@collactive.nl";"42414";"";"Ambachtweg 40-42";"5731 AG";"Mierlo";"NL";"office";"70630"
"202198";"Invorderingsbedrijf B.V.";"070 7620330";"www.invorderingsbedrijf.nl";"";"42498";"";"Bezuidenhoutseweg 1";"2594 AB";"'S-GRAVENHAGE";"NL";"office";"86268"
"202199";"DCB B.V.";"0297 753710";"www.dutchcreditbrokers.com";"steven@dutchcreditbrokers.com";"42416";"";"Van Cleeffkade 15";"1431BA";"AALSMEER";"NL";"office";"86268"
"202200";"Ravelli Holding B.V.";"0252 412676";"www.innovativegourmetproducts.nl";"ad@ravelliholdingbv.nl";"42417";"";"Mesdagstraat 47";"2162CE";"LISSE";"NL";"office";"86268"
"202201";"Simonis Verf B.V.";"0104322888";"www.simonisverf.nl";"info@simonisverf.nl";"42418";"";"Berkenwoudestraat 22";"3076JA";"Rotterdam";"NL";"office";"86268"
"202203";"APS B.V.";"0402919666";"www.collactive.nl";"algemeen@collactive.nl";"42420";"";"Konijnenberg 51";"4825BC";"Breda";"NL";"office";"70630"
"202204";"Sacobel";"0402919666";"www.collactive.nl";"algemeen@collactive.nl";"42421";"";"Takkebijsters 15 H";"4817BL";"Breda";"NL";"office";"70630"
"202205";"Faes Group B.V.";"0402919666";"www.collactive.nl";"algemeen@collactive.nl";"42422";"";"Hamelendijk 2";"5541 RA";"Reusel";"NL";"office";"70630"
"202206";"Maars Partitioning Systems B.V.";"0402919666";"www.collactive.nl";"algemeen@collactive.nl";"42424";"";"Newtonweg 1";"3846BJ";"Harderwijk";"NL";"office";"70630"
"202207";"Hedera Kantoorefficiency BV";"0402919666";"www.collactive.nl";"algemeen@collactive.nl";"42425";"";"Wasbeekerlaan 24";"2171 AE";"Sassenheim";"NL";"office";"70630"
"202208";"Cashcontrol Informatiediensten B.V. [cashcontrol nieuw achteraf]";"010-7519650";"";"sales@cashformatie.nl";"42426";"";"Lange Nieuwstraat 227";"3111AJ";"Schiedam";"NL";"office";"86268"
"202209";"AON Risk Solutions/Trade Credit";"010 4782397";"www.aon.nl";"";"42427";"";"Admiraliteitskade 62";"3063ED";"Rotterdam";"NL";"office";"86268"
"202210";"Van Arkel Gerechtsdeurwaraers & Incasso B.V.";"076 5224266";"https://vanarkelgerechtsdeurwaarders.nl/van-arkel/vestigingen/vestiging-breda/";"sekundi_finance@vanarkelgdw.nl";"42428";"";"St. Ignatiusstraat 267";"4817KK";"BREDA";"NL";"office";"86268"
"202211";"Enthone B.V.";"0402919666";"www.collactive.nl";"algemeen@collactive.nl";"42429";"";"Koenendelseweg 29";"5222 BG";"'s-Hertogenbosch";"NL";"office";"70630"
"202212";"IGM/Baderie";"0402919666";"www.collactive.nl";"algemeen@collactive.nl";"42431";"";"Gompenstraat 49";"5145RM";"Waalwijk";"NL";"office";"70630"
"202213";"Lightmakers B.V.";"0713615576";"www.lightmakers.nl | www.light-living.nl | www.light-lifestyle.nl";"info@lightmakers.nl";"42432";"";"'s-Gravendijckseweg 8";"2201CZ";"Noordwijk";"NL";"office";"86268"
"202215";"Aircargo.nl B.V.";"0297 365339";"www.aircargo.nl";"";"42434";"";"Legmeerdijk 313";"1431GB";"AALSMEER";"NL";"office";"86268"
"202216";"Snijder Incasso en Gerechtsdeurwaarders B.V.";"0251211222";"www.snijderincasso.nl | www.snijdergerechtsdeurwaarders.nl";"";"42435";"";"Parallelweg 98";"1948NM";"Beverwijk";"NL";"office";"86268"
"202217";"Internationale Cartonnagefabriek Kilsdonk Nijmegen";"024 3785596";"www.kilsdonknijmegen.nl";"info@kilsdonknijmegen.nl";"42437";"";"de Vlotkampweg 68";"6545AG";"NIJMEGEN";"NL";"office";"86268"
"202218";"Dronk Bedrijfswagen-Onderdelen B.V.";"010 2862222";"www.dronk.nl";"info@dronk.nl";"42438";"";"Koperstraat 26";"3067GL";"ROTTERDAM";"NL";"office";"86268"
"202219";"Stichting WonenBreburg";"0402919666";"www.collactive.nl";"algemeen@collactive.nl";"42439";"";"Professor de Moorplein 521";"5037DR";"Tilburg";"NL";"office";"70630"
"202220";"Wagenbouw Hapert B.V.";"0402919666";"www.collactive.nl";"algemeen@collactive.nl";"42440";"";"Handelsweg 13";"5527AL";"Hapert";"NL";"office";"70630"
"202221";"J.L. Mijnders Transport II B.V.";"0187601188";"www.mijnders-transport.nl";"patricia@mijnders-transport.nl";"42442";"";"Ruijgenhil 11";"3248BR";"Melissant";"NL";"office";"86268"
"202222";"Graydon Belgium NS/SA";"";"";"Dirk.Vanheukelom@graydon.be";"42443";"";"Uitbreidingstraat 84-b1";"BE 2600";"Berchem";"BE";"office";"86268"
"202223";"BMK [Metalak]";"0402450044";"www.bmkincasso.nl";"boekhouding@bmkgroep.nl";"42444";"";"Polluxstraat 110";"5631ES";"Eindhoven";"NL";"office";"198288"
"202224";"MD Sales & Distribution BV";"010-4760414";"www.marliesdekkers.nl";"";"42448";"";"Mathenesserlaan 376";"3023HB";"ROTTERDAM";"NL";"office";"86268"
"202225";"Reasonnet B.V.";"020 5060030";"www.reasonnet.com";"info@reasonnet.com";"42449";"";"Gyroscoopweg 134";"1042AZ";"AMSTERDAM";"NL";"office";"86268"
"202226";"Unipat B.V.";"070 4166837";"www.verendigde.com";"patent@vereenigde.nl";"42450";"";"Carnegieplein 5";"2517JR";"'S-GRAVENHAGE";"NL";"office";"86268"
"202227";"Werken met Passie";"06 12736778";"";"";"42451";"";"Admiraal de Ruyterstraat 39";"3361VB";"SLIEDRECHT";"NL";"office";"86268"
"202228";"Eastman Chemical EMEA B.V.";"010 2402111";"www.eastman.com";"";"42452";"";"Fascinatio Boulevard 602";"2909VA";"CAPELLE AAN DEN IJSSEL";"NL";"office";"86268"
"202229";"Lewis Communications B.V.";"0402354600";"www.lewispr.com";"olga.liket@teamlewis.com";"42453";"";"Meerenakkerplein 16";"5652BJ";"Eindhoven";"NL";"office";"86268"
"202230";"Brouwer Transport en Logistiek B.V.";"0297 281200";"www.brtl.nl";"info@brtl.nl";"42454";"";"Vermogenweg 8";"3641SR";"MIJDRECHT";"NL";"office";"86268"
"202231";"Fodeco Nederland B.V.";"0297286705";"www.klikenenprint.nl";"info@fodeco.nl";"42456";"";"Industrieweg 46";"3641RM";"Mijdrecht";"NL";"office";"86268"
"202232";"Semiconductor B.V.";"023 5653883";"www.cardiarent.com";"mike@incoparts.com";"42457";"";"Van der Burchstraat 40";"2132RN";"HOOFDDORP";"NL";"office";"86268"
"202233";"Mastermate Divema B.V.";"0299 363045";"www.mastermate.nl";"divema@mastermate.nl";"42459";"";"Julianaweg 208";"1131DL";"Volendam";"NL";"office";"86268"
"202234";"New Fashion Kids B.V.";"0355480610";"";"visser@newfashionkids.com";"42461";"";"Julianalaan 11";"3743JG";"BAARN";"NL";"office";"86268"
"202235";"Carlson Wagonlit Belgium";"0402919666";"www.collactive.nl";"algemeen@collactive.nl";"42462";"";"Woluwedal 46";"1200";"Brussel";"NL";"office";"70630"
"202236";"Omnium BV";"010-2417576";"www.gerritsacc.nl";"danny@gerritsacc.nl";"42463";"001883392";"Westplein 11";"3016BM";"Rotterdam";"NL";"office";"86268"
"202237";"abcfinance B.V.";"040 2393090";"";"";"42464";"";"Duwboot 29";"3991CD";"HOUTEN";"NL";"office";"86268"
"202238";"Bromach B.V.";"0513 481070";"www.bromach.nl";"Durk.Boschma@broekens.nl";"42465";"";"De Werf 1";"8401JE";"Gorredijk";"NL";"office";"86268"
"202239";"DeSchout Intralegal B.V.";"035 7519966";"www.deschout.eu";"";"42466";"";"Franciscusweg 219";"1216SE";"HILVERSUM";"NL";"office";"86268"
"202240";"Van Gansewinkel België N.V.";"0407514000";"www.vangansewinkelgroep.nl";"info@vangansewinkelgroep.nl";"42468";"";"Gerard Mercatorstraat 8";"B 3920";"Lommel";"BE";"office";"86268"
"202241";"Van Gansewinkel België N.V.";"";"";"";"42469";"BE404205730";"Gerard Mercatorstraat 8";"3920";"Lommel";"BE";"office";"86268"
"202242";"Kolibrie Uitzendbureau B.V.";"0402919666";"www.collactive.nl";"algemeen@collactive.nl";"42470";"";"Charles Stulemeijerweg 5";"5026 RS";"Tilburg";"NL";"office";"70630"
"202243";"PD Lighting B.V.";"030 6347640";"www.pdlighting.com";"info@pdlighting.com";"42471";"";"Ringveste 11";"3992DD";"Houten";"NL";"office";"86268"
"202244";"Forbo Flooring B.V.";"075 6477477";"www.forbo-flooring.nl";"";"42496";"";"Industrieweg 12";"1566JP";"Assendelft";"NL";"office";"86268"
"202245";"Cashcontrol Informatiediensten B.V. [Hedibouw]";"0107519650";"www.cashcontrolinformatiediensten.nl | www.debiteurenbezoeken.nl | www.cashformatie.nl";"";"42474";"";"Lange Nieuwstraat 227";"3111AJ";"Schiedam";"NL";"office";"86268"
"202246";"BAGA Cleaning Services";"06 22018562";"";"agamszyca@wp.pl";"42475";"782966287";"Kerkstraat 45";"2242HC";"Wassenaar";"NL";"office";"86268"
"202248";"BMK Credit Solutions B.V. [mandema]";"040 2454045";"";"";"42477";"";"Polluxstraat 110";"5631ES";"EINDHOVEN";"NL";"office";"198288"
"202249";"The Gift Groothandel B.V.";"0226 381010";"www.thegift.nl";"thegift@worldonline.nl";"42478";"";"Kokkel 6";"1723HX";"NOORD-SCHARWOUDE";"NL";"office";"86268"
"202250";"Rotterdam Freight Station B.V.";"010 2961864";"";"daniel@rotterdamfreightstation.nl";"42479";"";"Nieuwesluisweg 240";"3197KV";"BOTLEK ROTTERDAM";"NL";"office";"86268"
"202251";"Axender B.V.";"030-7556901";"www.alfagroepbv.nl";"aziza.ouriouer@axender.nl";"42480";"";"Fahrenheitbaan 1";"3439MD";"NIEUWEGEIN";"NL";"office";"86268"
"202252";"Wiva Promotions B.V.";"010 8200881";"www.wivapromotions.nl";"anja@wivapromotions.nl";"42487";"";"Strickledeweg 31";"3125AT";"SCHIEDAM";"NL";"office";"86268"
"202253";"Dimensio Verpakkingen B.V.";"0365494111";"";"r.degooijer@dimensio.nl";"42481";"";"Koningsbeltweg 42";"1329AK";"Almere";"NL";"office";"86268"
"202254";"Majestic Products B.V.";"0181475000";"www.majestic.nl";"j.blom@majestic.nl";"42482";"";"Curieweg 19";"3208KJ";"Spijkenisse";"NL";"office";"86268"
"202255";"Dare To Be B.V.";"";"";"angelique.lamens@marliesdekkers.com";"42484";"";"Voorhaven 17";"3025 HC";"Rotterdam";"NL";"office";"86268"
"202256";"Workx Materieelverhuur B.V.";"0546 815000";"";"";"42485";"";"Ambachtstraat 12";"7609RA";"ALMELO";"NL";"office";"86268"
"202257";"AWP P&C S.A. – Dutch branch";"020 5618711";"www.mondial-assistance.nl";"info@mondial-assistance.nl";"42486";"";"Poeldijkstraat 4";"1059VM";"Amsterdam";"NL";"office";"86268"
"202258";"Nelemans Bouwstoffen B.V.";"";"";"";"42488";"";"Ecustraat 2";"4879NP";"Etten-Leur";"NL";"office";"86268"
"202259";"BMK Credit Solutions B.V. [Noordeloos]";"040 2454045";"";"";"42489";"";"Polluxstraat 110";"5631ES";"EINDHOVEN";"NL";"office";"198288"
"202260";"BMK Credit Solutions B.V. [NPB]";"040 2454045";"";"";"42490";"";"Polluxstraat 110";"5631ES";"EINDHOVEN";"NL";"office";"198288"
"202261";"Ratinginstituut financieel dienstverleners B.V.";"06-21476838";"";"info@ratingsinstituutfd.nl";"42491";"NL825682765B01";"Gen Van der Heydenlaan 2";"7316BC";"APELDOORN";"NL";"office";"86268"
"202262";"Pon Dealer B.V.";"033 4600900";"www.pondealer.nl";"info@pondealer.nl";"42492";"";"Industrieweg 11";"3812RX";"AMERSFOORT";"NL";"office";"86268"
"202263";"E.S. Bolk";"06-53819574";"";"esbolk@ziggo.nl";"42493";"";"Zuiderkruis 95";"2163AD";"LISSE";"NL";"office";"86268"
"202265";"De Boer Structures BV";"";"www.deboer.com";"";"42495";"";"Laanenderweg  11";"1812PW";"Alkmaar";"NL";"office";"86268"
"202266";"BMK Credit Solutions B.V. [didam]";"040 2454045";"";"";"42497";"";"Polluxstraat 110";"5631ES";"EINDHOVEN";"NL";"office";"198288"
"202267";"Interchem";"0402919666";"www.collactive.nl";"algemeen@collactive.nl";"42500";"";"Platinawerf 22 -26";"6641TL";"Beuningen Gld";"NL";"office";"70630"
"202268";"Munckhof Groep B.V.";"077 3978860";"www.munckhofgroep.nl";"info@munckhof.nl";"42501";"";"Handelstraat 15";"5961PV";"Horst";"NL";"office";"86268"
"202269";"Fabory Nederland B.V.";"013-5941234";"www.fabory.com";"hans.vandesande@fabory.com";"42550";"";"Zevenheuvelenweg 44";"5048AN";"Tilburg";"NL";"office";"86268"
"202270";"Van Dam B.V.";"0162529600";"www.van-dam.nl";"p.debok@van-dam.nl";"42503";"";"Markweg Zuid 1";"4794SN";"Heijningen";"NL";"office";"86268"
"202271";"BMK Credit Solutions B.V. [Greenmax voorheen Jemarel]";"040 2454045";"";"";"42504";"";"Polluxstraat 110";"5631ES";"EINDHOVEN";"NL";"office";"198288"
"202272";"edilon)(sedra BVBA";"003232100795";"www.edilonsedra.com";"info@edilonsedra.com";"42505";"BE0844821005";"Katwilgweg 2";"2050";"Antwerpen";"BE";"office";"86268"
"202273";"Thermo Logistic Services Echt B.V.";"0475488588";"www.tlsecht.nl";"info@tlsecht.nl";"42506";"";"Olmstraat 65";"6101BS";"Echt";"NL";"office";"86268"
"202274";"Heating Group International B.V.";"024 3434222";"www.mechaheat.nl";"";"42507";"";"Bijsterhuizen 5118";"6604LX";"WIJCHEN";"NL";"office";"86268"
"202275";"Van Giersbergen Logistics Transport B.V.";"0455213270";"www.vangiersbergen.net";"hans@vangiersbergen.net";"42508";"";"De Koumen 28";"6433KD";"Hoensbroek";"NL";"office";"86268"
"202276";"Bredenoord B.V.";"0553018501";"www.bredenoord.com";"info@bredenoord.com";"42509";"";"Zutphensestraat 319";"7325WT";"Apeldoorn";"NL";"office";"86268"
"202277";"Houtgroep Van Drimmelen B.V.";"078 6107270";"vandrimmelen.nl";"info@vandrimmelen.nl";"42510";"";"Merwedeweg 13";"3336LG";"Zwijndrecht";"NL";"office";"86268"
"202278";"Survey Sampling Europe B.V.";"010 8505300";"";"";"42511";"";"Postbus 245";"3000AE";"ROTTERDAM";"NL";"office";"86268"
"202280";"Jiang Lai Vastgoed B.V.";"";"";"x.chiang25@gmail.com";"42512";"";"Haarlemmerstraat 2";"2181HC";"Hillegom";"NL";"office";"86268"
"202281";"Sortimo Nederland B.V.";"0107519650";"";"dboot@sortimo.nl";"42513";"";"Nijverheidstraat 11";"2861GX";"Bergambacht";"NL";"office";"86268"
"202282";"Webbureau Pascalschardijn";"073-7110329";"www.pascalschardijn.nl";"pascal@pascalschardijn.nl";"42514";"";"Meierij 40";"5345NM";"Oss";"NL";"office";"86268"
"202283";"Interoute Communications Limited";"";"Ericsson.Invoices@interoute.com";"olagaboender@creditdevice.nl";"42515";"";"31st Floor Canada Square";"E14 5LQ";"London";"GB";"office";"86268"
"202284";"Trade Brothers";"";"www.tradebrothers.nl";"";"42518";"850338608";"Quadenoord 14";"3079XD";"Rotterdam";"NL";"office";"86268"
"202285";"Markant International B.V.";"0402919666";"www.collactive.nl";"algemeen@collactive.nl";"42519";"";"Reactorweg 9A";"3542 AD";"Utrecht";"NL";"office";"70630"
"202286";"Trappenfabriek Vermeulen B.V.";"0402919666";"www.collactive.nl";"algemeen@collactive.nl";"42520";"";"Lokkerdreef 14";"4879ND";"Etten-Leur";"NL";"office";"70630"
"202287";"P. Jong Export en Groothandel van Bloemen B.V.";"0228 561482";"www.pjong.nl";"info@pjong.nl";"42521";"";"Centrale Markt 7";"1681 NT";"Zwaagdijk";"NL";"office";"86268"
"202288";"Scania Finance Nederland B.V.";"0765254000";"";"";"42523";"";"Spinveld 57";"4815HV";"Breda";"NL";"office";"86268"
"202289";"Regardz Hospitality Group B.V.";"0402919666";"www.collactive.nl";"algemeen@collactive.nl";"42524";"";"Koningin Wilhelminalaan  35";"3818 HN";"Amersfoort";"NL";"office";"70630"
"202291";"Breur IJzerhandel Vlietlaan B.V.";"0107519650";"www.cashcontrolinformatiediensten.nl | www.debiteurenbezoeken.nl | www.cashformatie.nl";"";"42525";"";"Rivium Boulevard 147";"2909LK";"Capelle aan den IJssel";"NL";"office";"202731"
"202292";"Denit Hosting Solutions";"020 3371801";"www.denit.nl";"rkaandorp@denit.nl";"42738";"";"Kabelweg 21";"1014BA";"AMSTERDAM";"NL";"office";"86268"
"202293";"Wave Kitchen Products B.V.";"0162 472626";"www.wavedesign.nl";"kimvdkolk@wavekp.nl";"42537";"";"Meidoornlaan 52D";"4902SC";"OOSTERHOUT NB";"NL";"office";"86268"
"202294";"Baas B.V.";"088 2227000";"www.baasbv.nl";"debiteuren@baasbv.nl";"42572";"";"Essebaan 63A";"2908LJ";"CAPELLE AAN DEN IJSSEL";"NL";"office";"86268"
"202295";"Horticoop B.V.";"010 5241600";"www.horticoop.nl";"info@horticoop.nl";"42957";"";"Klappolder 150";"2665LP";"BLEISWIJK";"NL";"office";"86268"
"202297";"Tripa B.V.";"0347366711";"www.tripa.nl";"info@tripa.nl";"42536";"";"Laanakkerweg 12";"4131PA";"Vianen";"NL";"office";"86268"
"202298";"Yang Ming (Netherlands) B.V.";"088 3088100";"www.yangming.com";"f.tsai@nl.yangming.com";"42590";"";"Albert Plesmanweg 61";"3088 GB";"Rotterdam";"NL";"office";"86268"
"202300";"Artihove Beheer B.V.";"010 5296060";"";"f1@artihove.nl";"42769";"";"Hoeksekade 162";"2661 JL";"BERGSCHENHOEK";"NL";"office";"86268"
"202303";"Advanced Travel Partners Nederland B.V.";"020 2011200";"www.atp.nl";"info@atp.nl";"43116";"";"Beechavenue 101";"1119RB";"Schiphol-Rijk";"NL";"office";"86268"
"202308";"ACS audiovisual solutions B.V.";"020 5829805";"www.eventresult.com";"creditcontrol@acsaudiovisual.com";"42782";"";"Archangelkade 5";"1013BE";"Amsterdam";"NL";"office";"86268"
"202309";"Argos Group B.V.";"010 7892100";"www.argos.nl";"groep@argos.nl";"42684";"";"Waalhaven Z.z. 11";"3089JH";"Rotterdam";"NL";"office";"86268"
"202313";"Klinger B.V.";"010 4557555";"www.klinger.nl";"info@klinger.nl";"42610";"";"Nikkelstraat 2";"3067GR";"Rotterdam";"NL";"office";"86268"
"202319";"Bitasco Contracting B.V./Iko Europe";"0032479670332";"www.bitasco-contracting.nl";"georges.fabry@iko.eu";"42532";"";"Kalshoven 21";"4825AL";"BREDA";"NL";"office";"86268"
"202320";"RCI Financial Services B.V.";"020 3549666";"www.rci.nl";"info@rcibanque.nl";"42559";"";"Boeingavenue 275";"1119PD";"Schiphol-Rijk";"NL";"office";"86268"
"202321";"P. van der Kooij Groep BV";"010 4264444";"www.kooijgroep.nl";"info@kooijgroep.nl";"42756";"";"Nieuwe Waterwegstraat 21";"3115HE";"SCHIEDAM";"NL";"office";"86268"
"202326";"Progress Software B.V.";"010 2351111";"www.progress-software.nl";"info@markt.com";"43032";"";"Schorpioenstraat 63";"3067GG";"ROTTERDAM";"NL";"office";"86268"
"202327";"IBB Amsterdam B.V.";"020 3428080";"www.ibbamsterdam.com";"";"42867";"";"Lemelerbergweg 42";"1101AM";"AMSTERDAM ZUIDOOST";"NL";"office";"86268"
"202329";"Rotie Vetveredeling B.V.";"023 5551755";"www.rotie.net";"info@rotie.net";"42754";"";"Hornweg 61";"1044 AN";"Amsterdam";"NL";"office";"86268"
"202335";"John van Dijk BV";"0638192700";"www.bed4less.nl";"";"42529";"";"Keulschevaart 4D";"3621MX";"Breukelen Ut";"NL";"office";"86268"
"202342";"Mandersloot's Expeditiebedrijf B.V.";"0332776444";"www.mandersloot.nl";"info@mandersloot.nl";"42767";"";"'t Zwarte Land 10";"3925CK";"Scherpenzeel";"NL";"office";"86268"
"202350";"Klop Verhuur B.V.";"030 6695004";"www.klopverhuur.nl";"";"42561";"";"Stuartweg 31";"4131 NH";"Vianen";"NL";"office";"86268"
"202354";"Pont Packaging B.V.";"036 5394510";"www.ponteurope.com";"";"42730";"";"Rondebeltweg 22";"1329BB";"ALMERE";"NL";"office";"86268"
"202359";"Stichting Vestia";"088-1242150";"";"";"42921";"";"Watermanweg 44-88";"3067 GG";"ROTTERDAM";"NL";"office";"86268"
"202361";"Thermo Fisher Scientific";"076 5717311";"www.tfc.nl";"";"42972";"";"Takkebijsters 1";"4817BL";"BREDA";"NL";"office";"86268"
"202364";"Saint-Gobain Distribution the Netherlands B.V.";"013 5492500";"www.raabkarcher.nl";"info@raabkarcher.nl";"42721";"";"Atlasstraat 1";"5047RG";"TILBURG";"NL";"office";"86268"
"202366";"K' Line (Nederland) B.V.";"010 4911711";"www.nl.kline.com";"kned@nl.kline.com";"42683";"";"Groene tuin 281";"3078 KG";"ROTTERDAM";"NL";"office";"202731"
"202371";"Sator Central Services B.V.";"010-4469655";"www.vanheck.nl";"info@vanheck.nl";"42527";"";"'s-Gravelandseweg 379";"3125BJ";"SCHIEDAM";"NL";"office";"86268"
"202373";"De Nederlandse Energie Maatschappij B.V.";"010 2406120";"www.nederlandenergie.nl";"";"43015";"";"Aert van Nesstraat 45";"3012CA";"Rotterdam";"NL";"office";"202526"
"202378";"Röntgen Technische Dienst B.V..";"010 716 63 53";"www.applusrtd.com";"dirk.vanderput@applusrtd.com";"42653";"";"Delftweg 144";"3046 NC";"Rotterdam";"NL";"office";"86268"
"202383";"Modint Credit & Finance";"030 - 2320900";"";"info@modint.nl";"42592";"";"Westervoortsedijk 73";"6827 AV";"Arnhem";"NL";"office";"86268"
"202386";"Alphatron Marine B.V.";"010 4534057";"";"H.van.der.Molen@alphatron.nl";"42539";"";"Schaardijk 23";"3063NH";"Rotterdam";"NL";"office";"86268"
"202387";"Motrac Intern Transport B.V.";"";"";"";"42904";"";"Rondebeltweg 51";"1329BP";"Almere";"NL";"office";"86268"
"202393";"Verhuurbedrijf Zuid-Holland B.V.";"0182 303200";"WWW.VERHUURBEDRIJFZUIDHOLLAND.NL";"e.groenendijk@verhuurbedrijfzuidholland.nl";"42528";"";"Zuidbaan 410";"2841MD";"Moordrecht";"NL";"office";"86268"
"202394";"Orona The Netherlands B.V.";"0172 446116";"";"msegondvonbanchet@orona.nl";"43036";"";"Curieweg 17";"2408BZ";"ALPHEN AAN DEN RIJN";"NL";"office";"86268"
"202396";"Ahoy Rotterdam N.V.";"010-2933300";"";"l.zwaal@ahoy.nl";"42642";"";"Ahoyweg 10";"3084BA";"Rotterdam";"NL";"office";"86268"
"202403";"Sanitas Milieukundig Adviesbureau B.V.";"010-2922940";"";"";"42788";"";"Zuideinde 68";"2991LK";"Barendrecht";"NL";"office";"86268"
"202407";"Yusen Logistics Benelux";"088-5522200";"";"";"42879";"";"Reykjavikweg 1";"1118LK";"Schiphol";"NL";"office";"86268"
"202418";"Estron B.V.";"010-2961616";"";"patrick@estron-group.com";"42626";"";"Jan Campertlaan 2a";"3201 AZ";"Spijkenisse";"NL";"office";"86268"
"202421";"C. van Heezik B.V.";"030-2479511";"";"bvdbosch@heezik.nl";"42799";"";"Ruimteweg 1";"3542DW";"Utrecht";"NL";"office";"86268"
"202424";"Drielox Luchtkanalen B.V.";"015-2627979";"";"adrie@drielox.nl";"42685";"";"Rotterdamseweg 386";"2629HG";"Delft";"NL";"office";"86268"
"202432";"Specialized Europe B.V.";"0314-676616";"";"info@specialized.com";"42606";"";"Zeddamseweg 84 b";"7041CT";"'s-Heerenberg";"NL";"office";"86268"
"202436";"G4S Holdings (Netherlands)";"(020) 430 75 86";"";"incasso@nl.g4s.com";"43033";"";"Hogehilweg 12";"1101CD";"Amsterdam";"NL";"office";"86268"
"202446";"Manutan B.V.";"030 2296211";"";"jaap.vanwilligenburg@overtoom.nl";"43136";"NL004003901B01";"Elandlaan 2";"3734CP";"Den Dolder";"NL";"office";"86268"
"202448";"Schindler Liften B.V.";"070-3843700";"";"";"42609";"";"Verheeskade 4";"2521BN";"'s-Gravenhage";"NL";"office";"86268"
"202457";"Lascentrum Ridderkerk B.V.";"078-6429656";"www.lascentrum.com";"a.schotanus@lascentrum.com";"42633";"";"Nieuwland Parc 14b";"2952DA";"ALBLASSERDAM";"NL";"office";"86268"
"202460";"Transportbedrijf Van Duijn en Zn. B.V.";"0174 52 22 50";"";"";"42743";"";"Jogchem van der Houtweg 12";"2678 AG";"DE LIER";"NL";"office";"86268"
"202468";"Sta Database Services B.V.";"015 3516180";"";"f.sta@smsdb.nl";"42567";"";"Katwijkerlaan 65C";"2641 PD";"Pijnacker";"NL";"office";"86268"
"202481";"TAMOIL NEDERLAND B.V.";"0884007300";"";"";"42927";"";"Wolweverstraat 23";"2984CE";"RIDDERKERK";"NL";"office";"202526"
"202520";"Creman B.V. [accord]";"";"";"info@creman.nl";"42534";"";"Melkweg 23";"1251PP";"Laren";"NL";"office";"86268"
"202521";"Koninklijke Jumbo B.V.";"(0)75-6531323";"";"";"42602";"";"Westzijde 184";"1506EK";"Zaandam";"NL";"office";"86268"
"202522";"GDF SUEZ Energie Nederland N.V.";"088 7692394";"";"Peter.van.eendenburg@gdfsuez.nl";"42535";"";"Grote Voort 291";"8041BL";"Zwolle";"NL";"office";"86268"
"202524";"Shuttlewise B.V.";"010 428 6700";"";"nhuijbregts@shuttlewise.nl";"42546";"";"Van Riemsdijkweg 78";"3088HD";"Rotterdam";"NL";"office";"86268"
"202525";"Intermediair Uitzendburo B.V.";"055-3121000";"www.passendebaan.nl";"bas@passendebaan.nl";"42538";"";"Rosariumstraat 61";"7311JR";"Apeldoorn";"NL";"office";"86268"
"202526";"Economic Data Resources B.V. [DAS overeenkomst]";"";"";"";"42541";"";"Loire 192 -198";"2491AM";"'s-Gravenhage";"NL";"office";"86268"
"202527";"Crepa B.V.  /CMIC";"";"";"";"42542";"";"Fleminglaan 5";"2289CP";"Rijswijk";"NL";"office";"202731"
"202528";"Economic Data Resources BV";"";"";"";"42543";"";"Loire 198";"2491AM";"'s-Gravenhage";"NL";"office";"86268"
"202529";"Next Level Systems B.V.";"";"";"";"42544";"";"Ary Prinslaan  14";"3116JA";"Schiedam";"NL";"office";"86268"
"202531";"Bolletje B.V.";"";"";"";"42627";"";"Turfkade 9";"7602PA";"Almelo";"NL";"office";"86268"
"202532";"Plymovent Industrial Solutions B.V.";"0765789550";"";"danny.sellmeijer@plymovent.nl";"42549";"";"Minervum 7324";"4817ZD";"Breda";"NL";"office";"86268"
"202535";"Gelecon B.V.";"";"";"";"42551";"";"Ridder Snouckaertlaan 15";"2273HZ";"Voorburg";"NL";"office";"100209"
"202537";"Logilabel Nederland";"";"";"";"42553 logilabel";"";"Noordeinde 66";"3341LW";"Hendrik-Ido-Ambacht";"NL";"office";"86268"
"202539";"Dedicated Distribution B.V.";"31 (0) 88-3747100";"";"";"42554";"";"Grotekerksbuurt 31b";"3311CA";"Dordrecht";"NL";"office";"86268"
"202542";"BMK Credit Solutions B.V. [Kampen]";"";"";"";"42557";"";"Polluxstraat 110 A -112A";"5631ES";"Eindhoven";"NL";"office";"198288"
"202545";"Toyota Material Handling Nederland B.V.";"";"";"";"42623";"";"Stevinlaan 4";"6716WB";"Ede";"NL";"office";"86268"
"202547";"Isero IJzerwarengroep B.V.";"0348-421521";"";"";"42918";"";"Barwoutswaarder 1";"3449HE";"Woerden";"NL";"office";"86268"
"202548";"DecoLegno B.V.";"0756165064";"";"";"42560";"NL822658628B01";"Parklaan 37";"1544AK";"Zaandijk";"NL";"office";"86268"
"202552";"Fidak Nederland B.V.";"0297-361320";"www.fodeco.nl";"";"42562";"NL.8044.67.225.B01";"Industrieweg 46";"3641RM";"Mijdrecht";"NL";"office";"86268"
"202553";"Machinefabriek Tuinte B.V.";"0547335300";"";"sda@tuinte.com";"42563";"";"Eeftinkstraat 3";"7496AG";"Hengevelde";"NL";"office";"86268"
"202555";"Van den Berg Installateurs B.V.";"0318 614776";"";"h.herbrink@duurzaamnl.nl";"42564";"";"Vening Meineszstraat 1 A";"6717AJ";"Ede";"NL";"office";"86268"
"202556";"Hesselberth Metals B.V.";"0416-334363";"";"";"42566";"";"van Harenstraat 4";"5145RJ";"Waalwijk";"NL";"office";"86268"
"202557";"Van der Wal B.V.";"020-6173581";"";"";"42588";"006645483B01";"Anthony Fokkerweg 51";"1059CP";"Amsterdam";"NL";"office";"86268"
"202558";"FourToSix B.V.";"0204233221";"";"finance@fouttosix.com";"42597";"";"Joop Geesinkweg 222 - 224";"1096AV";"Amsterdam";"NL";"office";"86268"
"202559";"Stichting Zadkine";"";"";"";"42565";"";"Marten Meesweg 50";"3068 AV";"Rotterdam";"NL";"office";"86268"
"202563";"Hertek B.V.";"";"";"";"42568";"";"Copernicusstraat 8";"6003 DE";"Weert";"NL";"office";"70630"
"202564";"A2 Legal B.V.";"";"";"";"42569";"";"Newtonbaan 16";"3439NK";"Nieuwegein";"NL";"office";"100209"
"202574";"Brouwer's Meubelen B.V.";"";"";"janbrouwer@bksmeubelen.nl";"42571";"";"Weth Klompstraat 7";"7951SC";"Staphorst";"NL";"office";"86268"
"202576";"Westag Nederland B.V.";"0348 - 55 81 81";"";"westag@westag.nl";"42601";"";"Ambachtsweg 6 a";"3411MJ";"Lopik";"NL";"office";"86268"
"202577";"Coop. Ver. Afgr. Bedrijfsverz. UA.";"0575-438837";"";"evrielink@aboost.nl";"43128";"";"Scheggertdijk 22";"7218 NB";"Almen";"NL";"office";"86268"
"202579";"Gemeente Alkmaar";"072-5488249";"";"pblom@alkmaar.nl";"42573";"";"Postbus 53";"1800 BC";"alkmaar";"NL";"office";"86268"
"202580";"Totaal Techniek Frans van Zaal BV";"";"";"invoice@bosmanvanzaal.com";"42718";"";"Bedrijvenweg 10";"1424PX";"De Kwakel";"NL";"office";"86268"
"202585";"Kaba Nederland B.V.";"";"";"";"42575";"";"Bijsterhuizen 3163";"6604LV";"Wijchen";"NL";"office";"70630"
"202586";"BMK Credit Solutions B.V. [dibo]";"";"";"";"42576";"";"Polluxstraat 110 A -112A";"5631ES";"Eindhoven";"NL";"office";"198288"
"202588";"DAS Incasso Rotterdam B.V.";"";"";"";"42579";"";"Beursplein 37";"3011AA";"Rotterdam";"NL";"office";"86268"
"202589";"Houthandel Alblas B.V.";"";"";"";"42580";"";"Zuidbaan 360";"2841MD";"Moordrecht";"NL";"office";"202731"
"202591";"Creman B.V. [Trelleborg Sealing Solutions]";"";"";"";"42581";"";"Melkweg 23";"1251PP";"Laren";"NL";"office";"86268"
"202592";"Companyweb";"+32 2 752 17 60";"";"info@companyweb.be";"42582";"BE0869703978";"Leuvensesteenweg 248D";"1800";"Vilvoorde";"BE";"office";"86268"
"202594";"Medux B.V.";"";"";"";"42667";"";"Reactorweg 160";"3542AD";"Utrecht";"NL";"office";"86268"
"202596";"BMK Incasso B.V.";"";"";"boekhouding@bmkgroep.nl";"42587";"";"Polluxstraat 110 A -112 A";"5631ES";"Eindhoven";"NL";"office";"86268"
"202597";"Payingit B.V.";"0681089704";"";"";"42589";"";"Kabelweg 21";"1014 BA";"Amsterdam";"NL";"office";"86268"
"202599";"Hoshizaki Europe B.V.";"020 691 8499";"";"";"42638";"";"Burgemeester Stramanweg 101";"1101 AA";"Amsterdam";"NL";"office";"86268"
"202600";"Nett Staff B.V.";"076 303 0330";"";"j.rijkaart@nettstaff.nl";"42591";"";"Delpratsingel 5";"4811AM";"Breda";"NL";"office";"86268"
"202601";"Intercombi B.V.";"";"";"joep@intercombi.nl";"42593";"";"Belgiestraat 9";"5171PN";"Kaatsheuvel";"NL";"office";"86268"
"202602";"Hanja Administratieve Dienstverlening";"0252341982";"";"administratie@hanjahelpt.nl";"42595";"";"Herenweg  354  a";"2211VG";"Noordwijkerhout";"NL";"office";"86268"
"202603";"Gebr. Koelewijn Bestratingen B.V.";"010 4425718";"";"";"42596";"";"Gemzenstraat 18";"2901BL";"Capelle aan den IJssel";"NL";"office";"86268"
"202605";"Nudie Jeans Amsterdam B.V.";"020-4233221";"";"";"42598";"";"Joop Geesinkweg 222 - 224";"1096AV";"Amsterdam";"NL";"office";"86268"
"202606";"FourToSix Italia B.V.";"020-4233221";"";"";"42599";"";"Joop Geesinkweg 222 -224";"1114AB";"Amsterdam-Duivendrecht";"NL";"office";"86268"
"202607";"Anna Scott B.V.";"020-4233221";"";"";"42600";"";"Joop Geesinkweg 222-224";"1114AB";"Amsterdam-Duivendrecht";"NL";"office";"86268"
"202609";"Postillion Utrecht Bunnik";"";"";"";"42717";"";"Kosterijland 8";"3981AJ";"Bunnik";"NL";"office";"86268"
"202611";"IDB Groep";"0348-465500";"";"";"42619";"";"Vijzelmolenlaan 2";"3447GX";"WOERDEN";"NL";"office";"86268"
"202612";"Ferry de Haas h.o.d.n. InXpress Haarlemmermeer";"+31(0)6 5155 5341";"";"ferry.de.haas@inxpress.com";"42603";"";"Bolivar 50";"2134BA";"Hoofddorp";"NL";"office";"86268"
"202616";"BMK [Ketting Techniek Nederland]";"";"";"";"42605";"";"Postbus 1411";"5602 BK";"Eindhoven";"NL";"office";"86268"
"202619";"Alliance B.V.";"073 6806600";"www.alliancegroep.com";"j.vanbreugel@alliancegroep.com";"42607";"";"Klompenmaker 9";"5253RG";"Nieuwkuijk";"NL";"office";"86268"
"202620";"Bioworld Europe BV";"0251 316238";"";"";"42615";"";"Molenwerf 23";"1911DB";"Uitgeest";"NL";"office";"86268"
"202623";"Apeldoorn Flexible Packaging B.V.";"055 599 6600";"";"";"43000";"";"Laan van Westenenk 11";"7336AZ";"Apeldoorn";"NL";"office";"86268"
"202624";"Sonneborn Refined Products B.V.";"020-4800477";"";"";"42823";"NL851519659B01";"Mainhavenweg 6";"1043AL";"Amsterdam";"NL";"office";"86268"
"202627";"Camposol Fresh B.V.";"";"";"";"42640";"";"Honderdland 94";"2676LS";"Maasdijk";"NL";"office";"86268"
"202629";"J. Nefkens t.h.o.d.n. InXpress Zuid-Amsterdam";"";"";"jos.nefkens@inxpress.com";"42611";"";"Karperstraat 75";"1432PC";"Aalsmeer";"NL";"office";"86268"
"202630";"Rehau NV";"";"";"";"42612";"";"Watergoorweg 79";"3861MA";"Nijkerk";"NL";"office";"70630"
"202631";"PolyOne Luxembourg SARL";"";"";"Jason.Bagoly@PolyOne.com";"42613";"LU23303736";"Giällewee   6";"9749";"Fischbach";"LU";"office";"86268"
"202632";"Bonink Logistieke Dienstverlening";"+31 6 29 60 63 05";"";"hans.bonink@inxpress.com";"42614";"";"Opaal 24";"5629HR";"Eindhoven";"NL";"office";"86268"
"202635";"4 Seasons Outdoor B.V.";"";"";"m.vanhooff@collactive.nl";"42616";"";"Hadrianussingel 29";"6642AH";"Beuningen Gld";"NL";"office";"70630"
"202637";"Mastermate Brinkman B.V.";"055-5998171";"";"w.schoppers@mastermate.nl";"42617";"";"Paramariboweg 99";"7333PA";"Apeldoorn";"NL";"office";"86268"
"202639";"Mastermate Zwager Beverwijk B.V.";"0251-275027";"";"l.weber@mastermate.nl";"42618";"";"Zuiderkade 29";"1948NG";"Beverwijk";"NL";"office";"86268"
"202645";"YoungCapital B.V.";"";"";"";"42620";"NL812812177B01";"Siriusdreef 12";"2132WT";"Hoofddorp";"NL";"office";"86268"
"202646";"Lapis Lazuli International N.V.";"036 5476020";"www.eyesee-lapislazuli.com";"";"42621";"";"Damsluisweg 48";"1332ED";"Almere";"NL";"office";"86268"
"202647";"Professional Partner OÜ";"+372 6233 044 / +372";"www.propartner.ee";"info@propartner.ee";"42622";"EE101686187";"Mustamäe tee 54";"10621";"Tallinn, Harjumaa";"EE";"office";"86268"
"202648";"Nedflex Holding B.V.";"0229 – 282 999";"";"";"42859";"";"Schoffel 2";"1648GG";"De Goorn";"NL";"office";"86268"
"202649";"Horecavo";"";"";"m.stevens@horesca-horecavo.nl";"42624";"";"Weversbaan 25";"2352BZ";"Leiderdorp";"NL";"office";"86268"
"202650";"Allers Corporate Services B.V.";"";"";"m.vanhooff@collactive.nl";"42625";"";"Rudolf Dieselweg 20";"5928RA";"Venlo";"NL";"office";"70630"
"202651";"Total Gas and Power Nederland B.V.";"";"";"";"42639";"";"Bordewijklaan 74";"2591XR";"'s-Gravenhage";"NL";"office";"86268"
"202652";"YAYA";"020-4976066";"www.yaya.nl";"";"42628";"";"Haarlemmerstraatweg 95";"1165MK";"Halfweg";"NL";"office";"86268"
"202653";"Stylefair International B.V.";"020 707 4750";"";"henk-van-leeuwen@stylefair.nl";"42658";"";"Dynamostraat 44";"1014BK";"Amsterdam";"NL";"office";"86268"
"202654";"Lamers Transport & Expeditie B.V.";"0263259975";"";"eric@lamerstransport.nl";"42629";"";"Fresialaan 7";"6851TH";"Huissen";"NL";"office";"86268"
"202655";"Michel van der Burg Grondwerken en Tuinaanleg";"06-15115101";"";"rvdburg56@hotmail.com";"42630";"";"Prins Bernhardstraat  7";"2635HG";"Den Hoorn";"NL";"office";"86268"
"202656";"De Haan Westerhoff Beheer B.V.";"";"";"fgrasman@dhwz.nl";"42631";"";"Amperelaan 11";"9207AM";"Drachten";"NL";"office";"86268"
"202657";"Zadkine, de Vakschool";"0182 303284";"www.vakschoolschoonhoven.nl";"e.leeuwenburgh@zadkine.nl";"42632";"";"Mr. Kesperstraat 10";"2871 GS";"Schoonhoven";"NL";"office";"86268"
"202658";"Landbouwbedrijf Mijnders B.V.";"0187 601188";"";"";"42634";"809978842";"Bouwdijk 9";"3248LA";"Melissant";"NL";"office";"86268"
"202659";"Arbeidsintegratiebedrijf Dethon";"";"";"a.rinkhoud@dethon.nl";"42643";"";"Mr. F.J. Haarmanweg 33";"4538AN";"Terneuzen";"NL";"office";"86268"
"202662";"AREQ Management Services";"";"";"jw@nihot.nu";"42644";"";"Laan van Swaensteijn 14";"2271VB";"Voorburg";"NL";"office";"86268"
"202663";"ROULARTA MEDIA GROUP NV";"003251266111";"";"supplieraccounting@roularta.be";"42645";"BE0434.278.896";"Postbus 380";"B-8800";"Roeselare";"BE";"office";"86268"
"202664";"Saint-Gobain Nederland Beheer B.V.";"";"";"";"42646";"";"Huifakkerstraat 18";"4815PN";"Breda";"NL";"office";"86268"
"202665";"Golfcentrum Noordwijk B.V.";"";"www.golfcentrumnoordwijk.nl";"";"42648";"008464649";"van Berckelweg  38";"2203LB";"Noordwijk";"NL";"office";"86268"
"202666";"Rebels Marketing Communicatie PR";"";"";"emelin@houseofrebels.com";"42649";"";"Nachtwachtlaan 20";"1058EA";"Amsterdam";"NL";"office";"86268"
"202667";"Whoopay B.V.";"";"";"";"42650";"";"Keizersgracht 62";"1015CS";"Amsterdam";"NL";"office";"86268"
"202668";"Vereniging van Eigenaars Koolgracht 1 tot en met 35 en Koolstraat 48-B te Leiden";"";"";"jorydegroot@live.nl";"42651";"";"Herenweg 97 a";"2465AD";"Rijnsaterwoude";"NL";"office";"86268"
"202669";"Electrotechnisch Bureau J.M. Blaak";"0180 421546";"";"";"42652";"";"Mauritsweg 4";"2988AK";"Ridderkerk";"NL";"office";"86268"
"202670";"King Holding B.V.";"0320-232422";"";"";"42708";"";"Nikkelstraat 5";"8211AJ";"Lelystad";"NL";"office";"86268"
"202672";"Allport Netherlands B.V.";"";"www.allportnetherlands.nl";"roy.nagtegaal@allportnetherlands.nl";"42655";"";"Kiotoweg 603";"3047BG";"Rotterdam";"NL";"office";"86268"
"202673";"TEHO EuROPE B.V.";"";"";"financieel@cashformatie.nl";"42656";"";"Gouderakstraat 61 A";"3079DB";"Rotterdam";"NL";"office";"100209"
"202674";"Partners in Repacking Facilitair Bedrijf B.V.";"";"";"financieel@cashformatie.nl";"42657";"";"Ziedewij 41";"2991LA";"Barendrecht";"NL";"office";"100209"
"202675";"ECP Nederland B.V.";"";"";"";"42659";"";"Lichtenauerlaan";"3062ME";"Rotterdam";"NL";"office";"86268"
"202678";"TOMINGROEP B.V.";"";"";"";"42662";"";"Franciscusweg 12";"1216SK";"Hilversum";"NL";"office";"70630"
"202679";"United Driveline Systems B.V.";"";"";"";"42663";"";"Isaac Beekmanstraat 8 A";"6603BZ";"Wijchen";"NL";"office";"70630"
"202680";"Verzinkerij West-Brabant B.V.   Collactive";"";"";"m.vanhooff@collactive.nl";"42665";"";"Blauwe Hoefweg 11";"4731DK";"Oudenbosch";"NL";"office";"70630"
"202681";"Wicro Plastics B.V.";"";"";"m.vanhooff@collactive.nl";"42666";"";"Karreweg-Noord 49";"5995MG";"Kessel Lb";"NL";"office";"70630"
"202682";"Praxair N.V.";"";"";"";"42876";"";"Metropoolstraat 17";"2900";"Schoten";"BE";"office";"86268"
"202683";"Intrapec Verpakkingen B.V.";"";"";"";"42668";"";"Tweelingenlaan 161";"7324AR";"Apeldoorn";"NL";"office";"202526"
"202684";"Partycrew B.V.";"";"";"";"42669";"";"Angelenweg 165 C";"5349TG";"Oss";"NL";"office";"202526"
"202685";"Datamex Automatisering B.V.";"";"";"";"42670";"";"Minervum 7368";"4817ZH";"Breda";"NL";"office";"202526"
"202686";"Beimers Taxi";"";"";"";"42671";"";"Nij Toerenburg 2";"9076MA";"St.-Annaparochie";"NL";"office";"202526"
"202687";"Weltronic Signalering Nederland";"";"";"";"42672";"";"Het Ambacht 20";"6931EZ";"Westervoort";"NL";"office";"202526"
"202688";"N.S.P. Network Supporting Partners B.V.";"";"";"";"42673";"";"Schout 1";"3155NH";"Maasland";"NL";"office";"202526"
"202689";"LUXimprove B.V.";"";"";"";"42674";"";"Weihoek 10 D";"4416PX";"Kruiningen";"NL";"office";"202526"
"202690";"Koning's Technisch Bedrijf B.V.";"";"";"";"42675";"";"Eekhorstweg 20";"7942KC";"Meppel";"NL";"office";"202526"
"202691";"Vente Veevoeder B.V.";"";"";"";"42676";"";"'s-Gravenweg 312";"2911BK";"Nieuwerkerk ad IJssel";"NL";"office";"202526"
"202692";"Kwint B.V.";"";"";"";"42677";"";"Scandinavieweg 7";"9723BW";"Groningen";"NL";"office";"202526"
"202693";"Truck Tyre Company Europe B.V.";"";"";"";"42678";"";"Kleibergsestraat 10 a";"4001LE";"Tiel";"NL";"office";"202526"
"202695";"Rontgen Technische Dienst B.V.";"0107166000";"";"ruud.franken@applusrtd.com";"42679";"";"Delftweg 144";"3046NC";"Rotterdam";"NL";"office";"86268"
"202696";"Abucon Apparatenbouw B.V.";"";"";"";"42680";"";"Nijverheidstraat 71";"6681LN";"Bemmel";"NL";"office";"202526"
"202697";"Gea Automaterialen B.V.";"";"";"";"42682";"";"Phileas Foggstraat 1";"7821AJ";"Emmen";"NL";"office";"202526"
"202698";"Lydis B.V.";"036-2020120";"";"info@lydis.nl";"42732";"";"Antennestraat 33";"1322AH";"Almere";"NL";"office";"86268"
"202700";"Marine-Projects-Rotterdam B.V.";"";"";"";"42686";"";"Fortunaweg 76";"3113AN";"Schiedam";"NL";"office";"202526"
"202701";"Merlon B.V.";"070-2210146";"";"rpvandijke@merlon.nl";"42688";"";"Vuursteen 8";"2496 RZ";"'s-Gravenhage";"NL";"office";"86268"
"202702";"De Keukenmanager";"0612378211";"www.dekeukenmanager.nl";"info@dekeukenmanager.nl";"42689";"";"Beatrixstraat 4";"6824LR";"Arnhem";"NL";"office";"86268"
"202703";"Refitech B.V.";"";"";"";"42690";"";"Industrieweg 69 a";"5145PD";"Waalwijk";"NL";"office";"202526"
"202705";"B.V. De Nieuwe Aanpak";"";"";"";"42691";"";"Proostdijstraat 24";"3641AV";"Mijdrecht";"NL";"office";"202526"
"202706";"Tretford Tapijt B.V.";"";"";"";"42694";"";"Kerkstraat 7 a";"6626AJ";"Alphen";"NL";"office";"202526"
"202707";"STOBAG Benelux B.V.";"";"";"";"42696";"";"Flevolaan 7";"1382JX";"WEESP";"NL";"office";"202526"
"202708";"Leolux Meubelfabriek B.V.";"";"";"cme@leolux.nl";"42729";"";"Kazernestraat 15";"5928 NL";"Venlo";"NL";"office";"86268"
"202709";"Jorijn Schrijvershof";"";"";"jorijn@jorijn.com";"42698";"";"Ameidestraat 23";"5701NN";"Helmond";"NL";"office";"202526"
"202710";"Meijers Pan-Glaze V.O.F.";"";"";"";"42699";"";"Ambachtsstraat 27";"7102DW";"Winterswijk";"NL";"office";"202526"
"202711";"Demcon Advanced Mechatronics";"";"";"Ilona.Heida@demcon.nl";"42700";"";"Institutenweg 25";"7521PH";"Enschede";"NL";"office";"86268"
"202713";"DPD (Nederland) B.V.";"";"";"";"42701";"";"Tormentil 10";"5684PK";"Best";"NL";"office";"202526"
"202714";"Markant Nederland B.V.";"0402919666";"";"m.vanhooff@collactive.nl";"42702";"";"Elzenkade 1";"3992AD";"Houten";"NL";"office";"70630"
"202715";"Sligro Food Group Nederland B.V.";"";"";"";"42713";"";"Corridor 11";"5466RB";"Veghel";"NL";"office";"86268"
"202716";"GLOBAL DEBT COLLECTING";"";"";"hgoutier@gdc.nl";"42704";"";"Gran Canariastraat 26";"1339XJ";"Almere";"NL";"office";"86268"
"202718";"Belparts NV";"0032 16 26 93 00";"";"";"42705";"";"Wingepark 4";"3110";"Rotselaar";"NL";"office";"86268"
"202719";"Coming International B.V.";"0313659321";"";"nicole@coming.nl";"42706";"";"Coldenhovenseweg 43";"6961EB";"Eerbeek";"NL";"office";"86268"
"202720";"Bourguignon Auto Lease B.V.";"";"";"";"42707";"";"Jupiterweg 15";"8938AD";"Leeuwarden";"NL";"office";"202526"
"202722";"Koninklijke Gazelle N.V.";"0313-429911";"";"";"42709";"";"Wilhelminaweg 8";"6951BP";"Dieren";"NL";"office";"86268"
"202723";"TPI Power B.V.";"";"";"";"42710";"";"Madame Curieweg 9 b";"8501XC";"Joure";"NL";"office";"202526"
"202724";"Bakker's Recycling Coevorden B.V.";"";"";"";"42711";"";"Stephensonweg 12";"7741KW";"Coevorden";"NL";"office";"202526"
"202725";"BAM Infra Nederland B.V.";"";"sebastiaan.van.laar@bam.nl";"";"42801";"";"H.J. Nederhorststraat 1";"2801 SC";"Gouda";"NL";"office";"86268"
"202728";"Tonny Hofmans B.V.";"";"";"";"42714";"";"Maasdijk 8";"5321GP";"Hedel";"NL";"office";"202526"
"202729";"NOVAD Marketing Communicatie B.V.";"0343454704";"";"";"42715";"";"Overstraat 23";"3958BR";"Amerongen";"NL";"office";"202526"
"202730";"HR Via Care B.V.";"010-2062020";"";"";"42716";"";"Postbus 4254";"3062 NW";"Rotterdam";"NL";"office";"86268"
"202731";"Credit Management In Control B.V.";"06-57670221";"";"nihot@cmic-info.nl";"42719";"";"Laan van Swaensteijn 14";"2271VB";"Voorburg";"NL";"office";"86268"
"202732";"Van Keulen Hout en Bouwmaterialen";"";"";"";"42720";"";"tt. Vasumweg 151";"1033SG";"AMSTERDAM";"NL";"office";"86268"
"202733";"TFG Holding B.V.";"+31 341 25 84 60";"www.tfgholding";"invoice@tfgholding.nl";"42723";"";"Industrieweg 51";"8070 AD";"Nunspeet";"NL";"office";"86268"
"202734";"Roordink Architecten B.V.";"";"";"";"42726";"";"Postweg 13";"3881EA";"Putten";"NL";"office";"202526"
"202735";"Aranea Grafimedia B.V.";"";"";"";"42728";"";"Ronde Tocht 16";"1507CC";"Zaandam";"NL";"office";"202526"
"202736";"Valad Netherlands B.V.";"";"";"";"42731";"";"Jachthavenweg 124";"1081KJ";"Amsterdam";"NL";"office";"202526"
"202737";"Novotek B.V.";"";"";"";"42733";"";"Paardeweide 2";"4824EH";"Breda";"NL";"office";"202526"
"202738";"Landbouwmechanisatiebedrijf Van Berkel B.V.";"";"";"";"42734";"";"Voortsestraat 5";"5454GR";"Sint Hubert";"NL";"office";"202526"
"202739";"TeekensKarstens Advocaten B.V.";"0715358095";"";"";"42747";"";"Vondellaan 51";"2332AA";"Leiden";"NL";"office";"86268"
"202740";"Teamflex Personeelsdiensten B.V.";"020-4910032";"";"";"42735";"";"Hardwareweg 20";"1033MX";"Amsterdam";"NL";"office";"86268"
"202742";"Showa International (Netherlands) B.V.";"088 0042119";"";"";"42987";"";"Strawinskylaan 1817";"1077XX";"Amsterdam";"NL";"office";"86268"
"202743";"Gladior B.V.";"";"";"";"42736";"";"Pantheon 20";"7521PR";"Enschede";"NL";"office";"202526"
"202744";"Postvergelijk";"";"";"";"42737";"";"Wakkerendijk 250";"3755DK";"Eemnes";"NL";"office";"202526"
"202746";"Metropole B.V.";"0182613644";"";"marco@baanmeubelen.nl";"42739";"";"Zuidkade 110";"2741JG";"Waddinxveen";"NL";"office";"86268"
"202747";"Dulimex B.V.";"";"";"";"42740";"";"Talhoutweg 11";"8171MB";"Vaassen";"NL";"office";"202526"
"202748";"Ronald Verdult Design B.V.";"";"";"r.verdult@ronaldverdultdesign.nl";"42742";"";"Paardebijsters 4";"4817BR";"Breda";"NL";"office";"86268"
"202750";"De Vries Export B.V.";"";"";"";"42744";"";"Klompenmaker 14";"3861SK";"Nijkerk";"NL";"office";"202526"
"202751";"Opus Uitzendburo B.V.";"0172212185";"";"abdel@opus-uzb.nl";"42745";"";"Zijde 25";"2771EJ";"Boskoop";"NL";"office";"86268"
"202752";"D'n Heuv Holding B.V.";"";"";"";"42746";"";"Schout van Haestrechtsing 78";"5237SK";"'s-Hertogenbosch";"NL";"office";"202526"
"202753";"HPR Rubber BV";"";"";"";"42749";"";"Meerval 32";"4941SK";"Raamsdonkveer";"NL";"office";"202526"
"202756";"Winschoter Glashandel";"0597422120";"";"";"42751";"";"Papierbaan 29";"2841LZ";"Winschoten";"NL";"office";"202526"
"202757";"Premtech Car Complete BV";"0182373084";"";"";"42752";"812230826";"Ambachtweg 6";"2841LZ";"Moordrecht";"NL";"office";"202526"
"202759";"Famed B.V.";"";"";"";"42753";"";"Plotterweg 26";"3821BB";"Amersfoort";"NL";"office";"202526"
"202760";"Garcia B.V.";"";"";"";"42785";"";"Van Hennaertweg 8";"2952CA";"Alblasserdam";"NL";"office";"86268"
"202762";"Forbo Flooring N.V";"+32 2 4641010";"www.forbo-flooring.be";"regine.wambacq@forbo.com";"42755";"";"t Hofveld 4";"1702";"1702 Groot-Bijgaarden";"BE";"office";"86268"
"202764";"Spelt Afvalinzameling B.V.";"";"";"";"42861";"";"Blokland 18";"2441GG";"Nieuwveen";"NL";"office";"86268"
"202765";"Taxicentrale L. Wolters";"";"";"";"42757";"";"Het Helmhout 35";"9206AZ";"Drachten";"NL";"office";"202526"
"202767";"Cortile Holding B.V.";"";"";"";"42758";"";"Bergweg-noord 38 6";"2661CR";"Bergschenhoek";"NL";"office";"86268"
"202769";"Aannemersbedrijf Vogt B.V.";"";"";"";"42759";"";"Groothuizenweg 62";"7481WD";"Haaksbergen";"NL";"office";"202526"
"202770";"Howden Keukens";"";"";"";"42783";"";"Van der Madeweg 55";"1114AM";"Amsterdam-Duivendrecht";"NL";"office";"86268"
"202771";"Jos van Boxtel Lease B.V.";"";"";"";"42760";"";"Haffertsestraat 21";"5258TZ";"Berlicum";"NL";"office";"202526"
"202772";"Zanox B.V.";"";"";"wilbert.dekruif@zanox.com";"42761";"";"Entrepotdok 86";"1018AD";"Amsterdam";"NL";"office";"86268"
"202775";"Van der Helm woning- en bedrijfsmakelaars B.V.";"";"";"info@vanderhelmmakelaardij.nl";"42764";"";"Herenweg 46";"3648CJ";"Wilnis";"NL";"office";"86268"
"202777";"Emgas B.V.";"";"";"";"42860";"";"De Steenbok 20";"5215ME";"'s-Hertogenbosch";"NL";"office";"86268"
"202778";"Transport en Logistiek Nederland";"";"";"JSpaans@tln.nl";"42766";"";"Boris Pasternaklaan 22 -30";"2719DA";"Zoetermeer";"NL";"office";"86268"
"202779";"W.C. Noorlander Holding B.V.";"";"";"";"42768";"";"Puurveenseweg 15";"3774PH";"Kootwijkerbroek";"NL";"office";"202526"
"202780";"Amer Sports Netherlands B.V.";"";"";"";"42770";"";"Plesmanstraat 1";"3833LA";"Leusden";"NL";"office";"202526"
"202781";"Buchinhoren Staalbouw B.V.";"";"";"";"42771";"";"Looierij 22";"4762AM";"Zevenbergen";"NL";"office";"202526"
"202783";"Greenes Lease B.V.";"31 (0)348 444 704";"www.greenes.nl";"info@greenes.nl";"42772";"";"Energieweg 21";"3481MC";"Harmelen";"NL";"office";"86268"
"202784";"de Persgroep Nederland B.V.";"020-56 29 111";"";"";"42820";"";"Jacob Bontiusplaats 9";"1018LL";"Amsterdam";"NL";"office";"86268"
"202785";"Bijko ramen, deuren & kozijnen B.V.";"";"";"";"42773";"";"Hoefsmidstraat 41";"3194AA";"Hoogvliet Rotterdam";"NL";"office";"86268"
"202786";"Star & van der Gugten Rijnsburg B.V.";"";"";"";"42780";"";"Laan van Verhof 3 Box L4.57";"2231BZ";"Rijnsburg";"NL";"office";"86268"
"202787";"Bregman Bedrijfsmakelaardij o.g. B.V.";"";"";"";"42775";"";"Kennemerstraatweg 11";"1814GA";"Alkmaar";"NL";"office";"202526"
"202788";"Hake Schuimrubberhal B.V.";"";"";"";"42776";"";"Doorndistel 25";"7891WV";"Klazienaveen";"NL";"office";"202526"
"202789";"UC Logistics & Forwarding B.V.";"";"";"";"42777";"";"Portsmuiden 88";"1046AM";"Amsterdam";"NL";"office";"202526"
"202790";"Jordex Shipping and Forwarding B.V.";"";"";"";"42778";"";"Ambachtsweg 6";"3161GL";"Rhoon";"NL";"office";"202526"
"202791";"Joker Import";"";"";"";"42779";"";"1e Poellaan 6";"2161LB";"Lisse";"NL";"office";"202526"
"202792";"Stichting GGNet";"";"";"";"42781";"";"Vordenseweg 12";"7231PA";"Warnsveld";"NL";"office";"202526"
"202794";"Koskamp Automaterialen B.V.";"0546-673000";"";"";"42795";"";"Vriezendijk 10";"7683PL";"Den Ham";"NL";"office";"86268"
"202796";"Pluim Las- en Constructiebedrijf B.V.";"";"";"";"42784";"";"Sluiskade 1 b";"9601LA";"Hoogezand";"NL";"office";"202526"
"202797";"Admifa B.V.";"";"";"";"42786";"";"Electronicaweg 23";"9503GA";"Stadskanaal";"NL";"office";"202526"
"202798";"Wever Logistics B.V.";"";"";"";"42787";"";"Abel Tasmanstraat 9";"7821AN";"Emmen";"NL";"office";"202526"
"202799";"Sanitas Laboratorium Services B.V.";"";"";"";"42789";"";"Zuideinde 68";"2991LK";"Barendrecht";"NL";"office";"86268"
